{"type":"FeatureCollection","features":[{"type":"Feature","id":"AR.TF","properties":{"name":"Tierra del Fuego","country_code":"ar","country_es":"Argentina","hc_key":"ar-tf"},"geometry":{"type":"MultiPolygon","coordinates":[[[[92.8,-89.3],[102.8,-90.0],[99.8,-92.7],[99.6,-90.8],[94.3,-93.2],[93.4,-91.3],[86.4,-95.3],[84.9,-92.9],[92.8,-89.3]]],[[[12.7,-94.3],[11.6,-94.3],[9.2,-21.9],[16.3,-31.6],[16.4,-34.0],[11.8,-37.6],[11.4,-41.5],[13.4,-43.3],[20.1,-44.6],[22.8,-53.0],[26.6,-57.0],[31.3,-60.5],[31.1,-62.8],[36.4,-67.5],[46.7,-73.7],[52.2,-80.7],[64.4,-86.7],[67.1,-87.2],[74.5,-86.0],[77.4,-86.5],[74.0,-95.4],[72.2,-94.4],[67.3,-97.2],[66.7,-95.2],[61.7,-95.3],[61.5,-97.3],[55.5,-98.0],[51.3,-99.9],[46.3,-96.4],[42.0,-95.2],[22.2,-93.7],[17.9,-92.1],[17.5,-93.8],[12.7,-94.3]]]]}},{"type":"Feature","id":"AR.BA","properties":{"name":"Buenos Aires","country_code":"ar","country_es":"Argentina","hc_key":"ar-ba"},"geometry":{"type":"MultiPolygon","coordinates":[[[[160.2,373.9],[158.3,371.3],[155.1,373.2],[156.9,377.6],[160.2,373.9]]],[[[161.0,378.9],[158.2,383.9],[158.6,385.5],[161.2,383.9],[161.0,378.9]]],[[[165.1,417.2],[166.3,414.3],[162.9,415.9],[160.6,419.5],[165.1,417.2]]],[[[266.7,579.7],[268.1,573.7],[262.6,570.8],[265.6,568.0],[264.7,563.0],[262.8,561.6],[262.4,556.9],[264.9,554.6],[268.7,558.2],[272.7,554.8],[280.2,551.6],[289.1,544.8],[295.8,536.5],[298.4,530.7],[297.9,528.5],[291.6,521.0],[290.5,512.6],[293.1,506.3],[301.0,499.2],[305.3,499.4],[307.0,497.5],[306.4,482.6],[305.6,480.1],[299.5,473.0],[294.3,465.2],[287.0,458.2],[281.1,451.3],[279.8,444.4],[278.1,442.3],[262.8,434.5],[238.9,427.8],[217.4,424.6],[192.2,421.6],[185.1,421.2],[177.9,422.2],[175.5,421.3],[162.7,424.3],[159.5,428.6],[153.6,428.7],[155.1,423.9],[154.0,419.3],[156.4,414.2],[162.1,410.4],[161.2,408.9],[157.8,412.5],[155.6,412.4],[161.1,407.7],[159.2,395.6],[154.4,396.1],[152.3,383.1],[149.1,380.1],[150.8,375.0],[153.0,373.6],[155.1,368.4],[152.1,361.5],[142.2,356.4],[140.4,356.4],[139.1,359.9],[133.0,366.4],[126.3,367.8],[127.6,412.9],[130.6,521.9],[131.6,554.0],[132.4,573.2],[133.3,574.2],[146.5,573.8],[177.4,572.8],[198.7,594.7],[200.4,598.4],[206.7,597.6],[210.3,595.3],[212.4,596.2],[214.1,600.8],[218.1,605.9],[217.8,607.5],[222.3,602.8],[229.2,598.1],[231.4,595.1],[235.9,592.6],[238.2,593.2],[241.5,590.3],[245.1,590.5],[247.6,586.9],[251.1,586.7],[260.3,579.4],[266.7,579.7]]]]}},{"type":"Feature","id":"AR.SJ","properties":{"name":"San Juan","country_code":"ar","country_es":"Argentina","hc_key":"ar-sj"},"geometry":{"type":"Polygon","coordinates":[[[-56.4,640.2],[-58.3,641.2],[-60.0,649.3],[-56.5,651.7],[-58.6,654.2],[-61.8,654.5],[-66.8,664.7],[-66.5,672.8],[-64.2,679.6],[-61.4,678.9],[-58.4,682.2],[-60.5,685.0],[-60.1,689.5],[-56.5,703.8],[-52.4,702.9],[-48.9,705.8],[-47.6,711.9],[-51.2,713.0],[-49.9,718.0],[-50.3,725.2],[-54.0,736.6],[-53.7,739.5],[-50.5,743.9],[-47.4,745.5],[-47.7,750.0],[-45.8,754.9],[-46.1,760.5],[-44.3,763.1],[-43.8,768.4],[-34.6,765.9],[-29.5,761.6],[-27.6,756.5],[-22.3,749.8],[-24.4,745.5],[-22.6,739.5],[-24.5,732.9],[-23.3,728.7],[-15.5,730.0],[-4.8,727.2],[1.8,721.6],[6.8,716.2],[15.2,709.5],[17.2,705.2],[28.1,694.1],[31.1,688.3],[30.0,684.9],[31.7,682.5],[30.5,673.6],[32.1,668.1],[37.3,664.8],[38.2,660.7],[41.1,656.7],[34.0,656.2],[24.0,657.5],[22.8,655.8],[22.8,643.9],[20.8,645.4],[10.7,644.5],[5.3,650.0],[-5.0,647.1],[-13.0,640.9],[-18.9,641.0],[-19.7,649.2],[-22.5,649.0],[-26.0,652.7],[-29.8,649.7],[-34.3,649.5],[-38.8,647.0],[-39.2,643.4],[-48.8,640.7],[-56.4,640.2]]]}},{"type":"Feature","id":"AR.MZ","properties":{"name":"Mendoza","country_code":"ar","country_es":"Argentina","hc_key":"ar-mz"},"geometry":{"type":"Polygon","coordinates":[[[-55.8,515.5],[-54.6,518.2],[-55.9,524.0],[-54.3,525.8],[-56.3,530.8],[-56.1,535.8],[-60.2,545.4],[-56.1,546.9],[-55.5,553.9],[-53.6,559.1],[-52.6,566.1],[-48.3,572.5],[-47.9,576.4],[-42.4,577.7],[-43.3,586.1],[-44.8,587.0],[-44.8,596.6],[-42.2,605.9],[-45.6,610.4],[-48.4,608.3],[-51.0,611.9],[-51.5,616.7],[-48.6,622.1],[-52.6,625.5],[-53.9,635.3],[-56.4,640.2],[-48.8,640.7],[-39.2,643.4],[-38.8,647.0],[-34.3,649.5],[-29.8,649.7],[-26.0,652.7],[-22.5,649.0],[-19.7,649.2],[-18.9,641.0],[-13.0,640.9],[-5.0,647.1],[5.3,650.0],[10.7,644.5],[20.8,645.4],[22.8,643.9],[26.7,631.2],[28.6,627.7],[27.7,622.7],[30.2,605.2],[33.6,599.9],[36.1,592.7],[41.2,585.4],[39.2,580.0],[39.5,574.9],[41.5,567.4],[46.0,559.7],[47.8,550.3],[47.4,538.1],[44.7,524.0],[45.1,522.3],[1.9,521.7],[0.8,517.5],[1.8,512.6],[3.0,470.9],[-1.6,471.4],[-4.3,474.5],[-10.3,476.6],[-17.2,477.3],[-19.2,481.7],[-23.7,483.3],[-29.4,482.3],[-33.2,483.0],[-38.2,487.4],[-37.9,492.2],[-41.5,494.8],[-45.5,500.1],[-48.4,501.4],[-51.3,508.0],[-53.3,507.6],[-53.7,512.9],[-55.8,515.5]]]}},{"type":"Feature","id":"AR.NQ","properties":{"name":"Neuquén","country_code":"ar","country_es":"Argentina","hc_key":"ar-nq"},"geometry":{"type":"Polygon","coordinates":[[[-83.7,354.0],[-83.4,356.4],[-86.5,363.4],[-84.6,365.9],[-83.4,373.2],[-80.4,376.2],[-84.3,380.2],[-84.0,384.5],[-81.0,384.1],[-79.9,390.9],[-82.6,396.2],[-82.0,401.4],[-77.9,400.2],[-78.6,402.8],[-76.8,406.2],[-75.7,412.7],[-76.6,422.5],[-72.1,426.9],[-63.2,431.3],[-62.9,436.6],[-66.3,439.8],[-67.6,445.0],[-67.8,451.5],[-73.0,463.0],[-71.9,471.7],[-74.3,476.5],[-71.6,482.8],[-74.8,491.3],[-73.8,496.3],[-71.9,496.1],[-71.4,503.1],[-67.5,506.0],[-63.0,505.8],[-62.8,510.9],[-59.5,515.0],[-55.8,515.5],[-53.7,512.9],[-53.3,507.6],[-51.3,508.0],[-48.4,501.4],[-45.5,500.1],[-41.5,494.8],[-37.9,492.2],[-38.2,487.4],[-33.2,483.0],[-29.4,482.3],[-23.7,483.3],[-19.2,481.7],[-17.2,477.3],[-10.3,476.6],[-4.3,474.5],[-1.6,471.4],[3.0,470.9],[3.8,434.9],[9.2,427.1],[9.7,424.9],[3.9,423.9],[2.3,425.0],[-4.0,420.1],[-9.8,413.4],[-13.5,407.3],[-21.0,403.5],[-23.4,399.5],[-27.7,395.8],[-31.2,395.7],[-38.2,390.5],[-40.5,375.8],[-43.5,371.8],[-49.2,370.6],[-52.6,371.8],[-56.0,369.2],[-62.2,367.5],[-65.9,362.7],[-63.1,358.0],[-65.8,353.8],[-70.9,352.2],[-75.9,353.8],[-83.7,354.0]]]}},{"type":"Feature","id":"AR.LP","properties":{"name":"La Pampa","country_code":"ar","country_es":"Argentina","hc_key":"ar-lp"},"geometry":{"type":"Polygon","coordinates":[[[3.0,470.9],[1.8,512.6],[0.8,517.5],[1.9,521.7],[45.1,522.3],[85.6,522.3],[85.9,554.8],[116.2,554.4],[131.6,554.0],[130.6,521.9],[127.6,412.9],[125.3,413.2],[119.5,417.2],[112.5,423.6],[100.4,429.0],[91.5,430.5],[84.0,430.8],[77.6,429.7],[71.9,431.7],[69.3,430.4],[62.4,432.9],[55.9,433.7],[51.4,433.2],[47.1,434.2],[44.8,438.9],[34.0,443.6],[31.1,449.7],[21.4,448.3],[17.5,453.4],[13.8,454.8],[13.7,459.7],[17.1,463.9],[16.1,467.5],[13.4,469.7],[3.0,470.9]]]}},{"type":"Feature","id":"AR.RN","properties":{"name":"Río Negro","country_code":"ar","country_es":"Argentina","hc_key":"ar-rn"},"geometry":{"type":"Polygon","coordinates":[[[140.4,356.4],[133.0,353.0],[116.2,353.4],[109.3,358.7],[106.6,358.5],[100.6,361.8],[92.8,364.6],[91.9,367.6],[89.0,368.7],[83.2,364.6],[81.8,358.8],[84.5,344.5],[86.1,341.1],[85.0,337.4],[85.8,333.2],[84.4,326.1],[82.7,326.5],[-79.1,321.9],[-80.0,326.2],[-83.7,333.9],[-82.1,335.9],[-83.8,342.3],[-83.7,354.0],[-75.9,353.8],[-70.9,352.2],[-65.8,353.8],[-63.1,358.0],[-65.9,362.7],[-62.2,367.5],[-56.0,369.2],[-52.6,371.8],[-49.2,370.6],[-43.5,371.8],[-40.5,375.8],[-38.2,390.5],[-31.2,395.7],[-27.7,395.8],[-23.4,399.5],[-21.0,403.5],[-13.5,407.3],[-9.8,413.4],[-4.0,420.1],[2.3,425.0],[3.9,423.9],[9.7,424.9],[9.2,427.1],[3.8,434.9],[3.0,470.9],[13.4,469.7],[16.1,467.5],[17.1,463.9],[13.7,459.7],[13.8,454.8],[17.5,453.4],[21.4,448.3],[31.1,449.7],[34.0,443.6],[44.8,438.9],[47.1,434.2],[51.4,433.2],[55.9,433.7],[62.4,432.9],[69.3,430.4],[71.9,431.7],[77.6,429.7],[84.0,430.8],[91.5,430.5],[100.4,429.0],[112.5,423.6],[119.5,417.2],[125.3,413.2],[127.6,412.9],[126.3,367.8],[133.0,366.4],[139.1,359.9],[140.4,356.4]]]}},{"type":"Feature","id":"AR.SL","properties":{"name":"San Luis","country_code":"ar","country_es":"Argentina","hc_key":"ar-sl"},"geometry":{"type":"Polygon","coordinates":[[[45.1,522.3],[44.7,524.0],[47.4,538.1],[47.8,550.3],[46.0,559.7],[41.5,567.4],[39.5,574.9],[39.2,580.0],[41.2,585.4],[36.1,592.7],[33.6,599.9],[30.2,605.2],[27.7,622.7],[28.6,627.7],[26.7,631.2],[22.8,643.9],[22.8,655.8],[24.0,657.5],[34.0,656.2],[41.1,656.7],[44.7,655.5],[55.4,655.2],[59.9,656.9],[68.1,656.5],[72.8,655.5],[82.1,649.0],[83.6,642.2],[91.2,642.8],[92.5,634.8],[88.0,616.4],[85.2,613.4],[86.2,588.7],[85.9,554.8],[85.6,522.3],[45.1,522.3]]]}},{"type":"Feature","id":"AR.CB","properties":{"name":"Córdoba","country_code":"ar","country_es":"Argentina","hc_key":"ar-cb"},"geometry":{"type":"Polygon","coordinates":[[[131.6,554.0],[116.2,554.4],[85.9,554.8],[86.2,588.7],[85.2,613.4],[88.0,616.4],[92.5,634.8],[91.2,642.8],[83.6,642.2],[82.1,649.0],[72.8,655.5],[68.1,656.5],[67.9,682.2],[74.9,704.7],[78.4,713.3],[85.8,715.8],[91.4,721.7],[91.0,730.5],[93.2,732.2],[110.1,736.3],[116.8,734.7],[117.0,732.9],[123.8,728.7],[133.6,728.3],[136.4,724.4],[166.9,723.5],[168.2,722.5],[172.2,710.9],[170.8,701.1],[178.1,691.9],[169.6,663.6],[166.7,660.5],[167.4,652.3],[166.3,646.4],[170.2,642.5],[171.7,638.1],[174.3,635.5],[176.4,628.3],[178.9,623.4],[177.8,617.8],[173.4,614.3],[146.5,573.8],[133.3,574.2],[132.4,573.2],[131.6,554.0]]]}},{"type":"Feature","id":"AR.CT","properties":{"name":"Catamarca","country_code":"ar","country_es":"Argentina","hc_key":"ar-ct"},"geometry":{"type":"Polygon","coordinates":[[[93.2,732.2],[91.0,730.5],[91.4,721.7],[85.8,715.8],[78.4,713.3],[73.7,723.0],[69.1,734.1],[67.3,742.3],[57.9,751.4],[51.8,754.5],[51.7,759.1],[47.8,763.0],[44.6,769.8],[33.3,774.2],[29.8,771.8],[25.1,771.2],[12.3,771.6],[8.9,770.2],[6.3,774.3],[5.6,778.6],[1.2,777.5],[-9.3,783.0],[-9.1,790.6],[-21.1,788.8],[-29.4,789.3],[-26.1,799.9],[-23.8,801.7],[-20.2,811.0],[-13.9,809.5],[-12.0,812.4],[-6.5,813.5],[-6.3,819.2],[-13.9,829.5],[-14.2,837.5],[-9.7,841.7],[-12.3,855.4],[-14.1,858.4],[-15.6,865.7],[-12.6,874.8],[7.9,871.1],[43.6,871.9],[45.1,871.6],[47.6,865.1],[46.3,860.1],[39.7,858.7],[37.6,857.0],[38.4,851.5],[43.2,845.0],[45.8,839.7],[49.1,835.9],[50.9,836.2],[54.8,842.6],[59.8,839.9],[56.9,832.0],[65.7,824.6],[65.1,818.3],[55.8,805.2],[61.9,802.8],[63.5,794.3],[66.6,789.4],[70.1,788.8],[71.1,784.8],[74.2,781.2],[75.8,784.1],[80.7,787.4],[85.5,785.9],[88.0,774.0],[87.9,767.3],[85.0,761.9],[87.2,760.3],[89.0,740.8],[93.2,732.2]]]}},{"type":"Feature","id":"AR.LR","properties":{"name":"La Rioja","country_code":"ar","country_es":"Argentina","hc_key":"ar-lr"},"geometry":{"type":"Polygon","coordinates":[[[68.1,656.5],[59.9,656.9],[55.4,655.2],[44.7,655.5],[41.1,656.7],[38.2,660.7],[37.3,664.8],[32.1,668.1],[30.5,673.6],[31.7,682.5],[30.0,684.9],[31.1,688.3],[28.1,694.1],[17.2,705.2],[15.2,709.5],[6.8,716.2],[1.8,721.6],[-4.8,727.2],[-15.5,730.0],[-23.3,728.7],[-24.5,732.9],[-22.6,739.5],[-24.4,745.5],[-22.3,749.8],[-27.6,756.5],[-29.5,761.6],[-34.6,765.9],[-43.8,768.4],[-37.3,774.7],[-34.1,781.8],[-30.4,784.3],[-29.4,789.3],[-21.1,788.8],[-9.1,790.6],[-9.3,783.0],[1.2,777.5],[5.6,778.6],[6.3,774.3],[8.9,770.2],[12.3,771.6],[25.1,771.2],[29.8,771.8],[33.3,774.2],[44.6,769.8],[47.8,763.0],[51.7,759.1],[51.8,754.5],[57.9,751.4],[67.3,742.3],[69.1,734.1],[73.7,723.0],[78.4,713.3],[74.9,704.7],[67.9,682.2],[68.1,656.5]]]}},{"type":"Feature","id":"AR.SA","properties":{"name":"Salta","country_code":"ar","country_es":"Argentina","hc_key":"ar-sa"},"geometry":{"type":"Polygon","coordinates":[[[59.8,839.9],[54.8,842.6],[50.9,836.2],[49.1,835.9],[45.8,839.7],[43.2,845.0],[38.4,851.5],[37.6,857.0],[39.7,858.7],[46.3,860.1],[47.6,865.1],[45.1,871.6],[43.6,871.9],[7.9,871.1],[-12.6,874.8],[-9.1,875.6],[-12.2,883.3],[-15.1,887.5],[-13.1,892.7],[-5.5,900.2],[20.7,912.1],[23.9,921.8],[28.7,918.8],[35.8,911.2],[41.3,906.7],[46.4,905.5],[50.9,911.9],[51.3,922.2],[49.3,927.7],[50.8,933.8],[56.3,932.1],[61.8,928.1],[60.7,920.5],[61.4,915.2],[68.6,910.8],[68.6,908.2],[73.7,900.1],[83.0,896.9],[86.0,898.4],[90.2,894.8],[94.1,893.8],[96.7,898.2],[102.3,893.1],[106.0,897.4],[111.6,899.5],[116.4,906.9],[115.8,928.8],[111.0,929.1],[108.3,925.4],[101.7,930.8],[95.1,929.8],[92.6,936.0],[90.2,937.5],[90.4,945.6],[85.7,946.4],[83.5,950.8],[83.5,957.8],[81.2,959.2],[84.4,967.7],[86.0,975.1],[91.1,975.1],[104.2,971.2],[104.6,967.0],[108.9,960.5],[108.1,957.2],[110.7,954.3],[111.4,950.0],[114.3,960.4],[117.1,963.7],[123.7,977.7],[130.0,976.2],[133.1,977.9],[158.4,977.2],[158.8,973.6],[163.9,968.9],[163.4,967.6],[172.1,961.6],[171.3,926.3],[170.8,907.9],[170.7,898.7],[138.2,858.5],[122.7,859.0],[114.2,860.7],[107.7,847.0],[105.9,840.7],[97.6,841.1],[91.8,839.3],[82.9,842.8],[81.6,845.6],[77.8,844.2],[71.3,845.7],[69.9,838.5],[59.8,839.9]]]}},{"type":"Feature","id":"AR.SE","properties":{"name":"Santiago del Estero","country_code":"ar","country_es":"Argentina","hc_key":"ar-se"},"geometry":{"type":"Polygon","coordinates":[[[93.2,732.2],[89.0,740.8],[87.2,760.3],[85.0,761.9],[87.9,767.3],[88.0,774.0],[85.5,785.9],[88.4,786.6],[90.4,790.1],[88.4,795.2],[91.3,798.7],[88.6,800.1],[94.0,805.4],[98.5,815.8],[100.0,821.3],[102.7,825.5],[105.1,825.7],[104.7,833.4],[105.9,840.7],[107.7,847.0],[114.2,860.7],[122.7,859.0],[138.2,858.5],[186.8,857.2],[187.6,854.4],[187.4,837.6],[185.5,780.8],[180.0,751.1],[172.2,710.9],[168.2,722.5],[166.9,723.5],[136.4,724.4],[133.6,728.3],[123.8,728.7],[117.0,732.9],[116.8,734.7],[110.1,736.3],[93.2,732.2]]]}},{"type":"Feature","id":"AR.TM","properties":{"name":"Tucumán","country_code":"ar","country_es":"Argentina","hc_key":"ar-tm"},"geometry":{"type":"Polygon","coordinates":[[[85.5,785.9],[80.7,787.4],[75.8,784.1],[74.2,781.2],[71.1,784.8],[70.1,788.8],[66.6,789.4],[63.5,794.3],[61.9,802.8],[55.8,805.2],[65.1,818.3],[65.7,824.6],[56.9,832.0],[59.8,839.9],[69.9,838.5],[71.3,845.7],[77.8,844.2],[81.6,845.6],[82.9,842.8],[91.8,839.3],[97.6,841.1],[105.9,840.7],[104.7,833.4],[105.1,825.7],[102.7,825.5],[100.0,821.3],[98.5,815.8],[94.0,805.4],[88.6,800.1],[91.3,798.7],[88.4,795.2],[90.4,790.1],[88.4,786.6],[85.5,785.9]]]}},{"type":"Feature","id":"AR.CC","properties":{"name":"Chaco","country_code":"ar","country_es":"Argentina","hc_key":"ar-cc"},"geometry":{"type":"Polygon","coordinates":[[[138.2,858.5],[170.7,898.7],[170.8,907.9],[179.4,904.8],[183.7,901.1],[187.5,900.2],[190.8,895.7],[193.5,895.2],[196.9,890.9],[202.5,889.8],[205.9,887.1],[207.2,882.1],[220.4,872.1],[224.5,870.6],[228.4,865.4],[233.4,855.3],[237.6,853.9],[242.5,849.7],[247.8,843.2],[247.7,839.8],[255.2,837.0],[255.8,833.7],[258.7,831.7],[262.8,833.1],[268.3,829.3],[270.8,825.9],[278.9,819.4],[285.1,812.5],[281.9,811.3],[280.1,807.1],[275.7,804.2],[276.9,798.9],[268.3,794.1],[269.8,784.3],[268.0,777.0],[213.4,779.7],[185.5,780.8],[187.4,837.6],[187.6,854.4],[186.8,857.2],[138.2,858.5]]]}},{"type":"Feature","id":"AR.FM","properties":{"name":"Formosa","country_code":"ar","country_es":"Argentina","hc_key":"ar-fm"},"geometry":{"type":"Polygon","coordinates":[[[170.8,907.9],[171.3,926.3],[172.1,961.6],[175.3,958.8],[177.1,953.5],[183.3,943.0],[186.6,940.9],[189.5,936.3],[193.6,934.4],[196.9,930.2],[202.7,927.8],[208.2,923.5],[211.1,917.0],[216.1,914.6],[223.3,913.2],[223.8,912.0],[231.2,909.3],[240.0,909.2],[256.7,897.0],[260.1,892.6],[270.0,887.0],[275.5,882.3],[285.4,879.3],[289.9,874.4],[292.7,876.0],[299.6,871.2],[302.4,870.9],[306.2,867.3],[311.5,857.8],[309.2,852.8],[305.2,851.2],[303.5,846.1],[300.1,841.8],[301.0,840.3],[294.4,836.9],[291.7,832.4],[288.4,816.5],[285.1,812.5],[278.9,819.4],[270.8,825.9],[268.3,829.3],[262.8,833.1],[258.7,831.7],[255.8,833.7],[255.2,837.0],[247.7,839.8],[247.8,843.2],[242.5,849.7],[237.6,853.9],[233.4,855.3],[228.4,865.4],[224.5,870.6],[220.4,872.1],[207.2,882.1],[205.9,887.1],[202.5,889.8],[196.9,890.9],[193.5,895.2],[190.8,895.7],[187.5,900.2],[183.7,901.1],[179.4,904.8],[170.8,907.9]]]}},{"type":"Feature","id":"AR.CN","properties":{"name":"Corrientes","country_code":"ar","country_es":"Argentina","hc_key":"ar-cn"},"geometry":{"type":"Polygon","coordinates":[[[268.0,777.0],[269.8,784.3],[268.3,794.1],[276.9,798.9],[279.7,800.0],[294.0,799.7],[303.3,796.7],[307.9,793.9],[313.8,793.4],[318.1,790.6],[326.4,792.2],[330.0,789.1],[336.8,790.2],[341.7,785.7],[344.7,791.8],[349.5,794.4],[354.1,793.0],[352.3,789.1],[355.8,780.1],[356.3,773.8],[358.8,768.3],[361.9,765.4],[357.3,762.9],[360.2,759.5],[358.7,757.0],[354.9,759.3],[353.0,755.7],[349.6,754.8],[349.0,751.9],[343.9,747.1],[340.9,746.2],[340.2,742.9],[336.4,737.6],[330.3,734.4],[328.2,729.6],[315.1,716.1],[309.3,714.5],[307.9,709.1],[302.3,704.2],[298.3,702.9],[297.7,698.4],[291.8,693.7],[290.5,690.4],[292.3,685.1],[287.6,690.2],[285.7,696.3],[280.7,702.9],[270.4,706.2],[263.2,704.2],[259.6,705.1],[252.6,701.0],[248.5,702.5],[240.7,701.9],[243.1,712.4],[241.4,716.9],[244.0,725.4],[244.5,732.0],[247.0,738.6],[251.5,740.4],[256.4,744.1],[256.7,747.4],[259.9,755.7],[261.4,764.2],[261.4,772.2],[265.3,773.5],[268.0,777.0]]]}},{"type":"Feature","id":"AR.ER","properties":{"name":"Entre Ríos","country_code":"ar","country_es":"Argentina","hc_key":"ar-er"},"geometry":{"type":"Polygon","coordinates":[[[240.7,701.9],[248.5,702.5],[252.6,701.0],[259.6,705.1],[263.2,704.2],[270.4,706.2],[280.7,702.9],[285.7,696.3],[287.6,690.2],[292.3,685.1],[291.9,679.8],[288.9,678.7],[290.2,675.0],[288.4,669.1],[283.0,661.8],[285.3,659.0],[282.7,650.8],[279.5,649.9],[279.6,642.7],[278.3,639.9],[280.3,634.5],[276.6,628.9],[277.2,610.4],[274.5,609.1],[270.7,610.1],[269.3,602.8],[266.0,598.1],[264.7,590.5],[266.5,585.2],[266.7,579.7],[260.3,579.4],[251.1,586.7],[247.6,586.9],[245.1,590.5],[241.5,590.3],[238.2,593.2],[235.9,592.6],[231.4,595.1],[229.2,598.1],[222.3,602.8],[217.8,607.5],[212.5,612.2],[208.0,621.5],[206.0,631.5],[208.1,643.4],[209.5,647.5],[208.1,650.9],[210.6,658.3],[217.2,659.4],[226.7,669.4],[240.0,688.9],[241.7,698.2],[240.7,701.9]]]}},{"type":"Feature","id":"AR.CH","properties":{"name":"Chubut","country_code":"ar","country_es":"Argentina","hc_key":"ar-ch"},"geometry":{"type":"Polygon","coordinates":[[[-67.2,191.5],[-67.8,195.2],[-71.2,199.7],[-70.8,205.2],[-65.5,207.3],[-65.3,211.0],[-61.0,214.8],[-68.1,224.9],[-72.2,226.1],[-75.2,225.4],[-79.5,226.6],[-79.3,231.4],[-74.7,230.6],[-66.5,232.7],[-62.6,231.1],[-60.5,233.0],[-60.7,235.9],[-58.2,240.2],[-60.5,243.5],[-65.9,244.0],[-74.9,243.3],[-74.9,249.2],[-76.4,252.9],[-74.3,254.5],[-72.2,259.1],[-76.0,265.4],[-73.8,267.4],[-74.4,269.9],[-78.1,271.4],[-79.8,274.0],[-79.3,278.5],[-75.7,279.6],[-75.8,283.0],[-82.3,284.9],[-85.9,288.6],[-85.4,293.1],[-86.9,301.9],[-84.6,305.4],[-87.1,312.7],[-85.3,316.7],[-83.0,316.1],[-78.1,319.2],[-79.1,321.9],[82.7,326.5],[84.4,326.1],[89.2,320.1],[98.0,318.2],[95.2,312.6],[99.0,311.7],[106.7,312.0],[108.6,313.9],[108.2,317.3],[102.7,317.8],[114.7,323.6],[117.1,321.5],[119.8,314.6],[119.8,306.4],[118.7,301.3],[115.8,299.0],[106.8,297.3],[103.5,300.9],[104.9,305.1],[99.1,309.7],[94.9,309.5],[86.8,305.1],[85.5,300.9],[93.9,296.1],[99.0,294.4],[101.8,295.2],[98.6,291.4],[90.9,288.9],[84.5,284.1],[84.5,281.5],[77.2,271.9],[77.5,266.7],[79.9,256.7],[77.7,253.4],[79.8,249.3],[77.0,246.2],[75.5,241.9],[72.1,241.1],[68.7,238.0],[68.0,232.9],[71.3,232.0],[70.3,226.6],[67.2,227.9],[62.2,227.3],[56.8,228.9],[47.8,224.1],[49.3,221.6],[41.4,220.9],[36.9,217.1],[30.9,208.4],[30.0,202.5],[28.2,201.4],[25.4,195.6],[7.5,195.2],[-67.2,191.5]]]}},{"type":"Feature","id":"AR.SF","properties":{"name":"Santa Fe","country_code":"ar","country_es":"Argentina","hc_key":"ar-sf"},"geometry":{"type":"Polygon","coordinates":[[[146.5,573.8],[173.4,614.3],[177.8,617.8],[178.9,623.4],[176.4,628.3],[174.3,635.5],[171.7,638.1],[170.2,642.5],[166.3,646.4],[167.4,652.3],[166.7,660.5],[169.6,663.6],[178.1,691.9],[170.8,701.1],[172.2,710.9],[180.0,751.1],[185.5,780.8],[213.4,779.7],[268.0,777.0],[265.3,773.5],[261.4,772.2],[261.4,764.2],[259.9,755.7],[256.7,747.4],[256.4,744.1],[251.5,740.4],[247.0,738.6],[244.5,732.0],[244.0,725.4],[241.4,716.9],[243.1,712.4],[240.7,701.9],[241.7,698.2],[240.0,688.9],[226.7,669.4],[217.2,659.4],[210.6,658.3],[208.1,650.9],[209.5,647.5],[208.1,643.4],[206.0,631.5],[208.0,621.5],[212.5,612.2],[217.8,607.5],[218.1,605.9],[214.1,600.8],[212.4,596.2],[210.3,595.3],[206.7,597.6],[200.4,598.4],[198.7,594.7],[177.4,572.8],[146.5,573.8]]]}},{"type":"Feature","id":"AR.MN","properties":{"name":"Misiones","country_code":"ar","country_es":"Argentina","hc_key":"ar-mn"},"geometry":{"type":"Polygon","coordinates":[[[354.1,793.0],[360.0,788.8],[365.1,792.2],[365.3,797.5],[369.5,799.4],[370.7,802.7],[375.3,804.3],[379.5,803.3],[380.1,806.3],[384.8,808.4],[387.3,812.4],[390.6,812.6],[391.0,816.4],[393.7,819.1],[396.5,827.0],[396.4,834.2],[399.1,839.5],[397.8,843.7],[399.4,847.4],[403.4,844.8],[405.3,846.3],[414.4,848.5],[413.7,846.8],[419.9,843.7],[421.5,837.6],[421.3,832.1],[425.3,823.5],[423.1,818.5],[421.4,808.1],[421.9,802.1],[417.1,792.9],[413.5,793.5],[409.3,789.6],[406.9,791.2],[403.1,785.4],[401.4,786.7],[395.7,784.2],[384.6,780.7],[383.8,777.0],[378.8,776.1],[380.2,773.9],[371.5,772.2],[367.4,767.1],[361.9,765.4],[358.8,768.3],[356.3,773.8],[355.8,780.1],[352.3,789.1],[354.1,793.0]]]}},{"type":"Feature","id":"AR.DF","properties":{"name":"Ciudad de Buenos Aires","country_code":"ar","country_es":"Argentina","hc_key":"ar-df"},"geometry":{"type":"Polygon","coordinates":[[[264.7,563.0],[267.1,561.1],[268.7,558.2],[264.9,554.6],[262.4,556.9],[262.8,561.6],[264.7,563.0]]]}},{"type":"Feature","id":"AR.SC","properties":{"name":"Santa Cruz","country_code":"ar","country_es":"Argentina","hc_key":"ar-sc"},"geometry":{"type":"Polygon","coordinates":[[[25.4,195.6],[24.6,190.3],[27.1,181.4],[29.4,177.2],[36.0,172.7],[43.8,163.0],[56.9,160.4],[61.9,161.2],[67.1,156.7],[67.3,146.7],[64.8,139.1],[64.6,134.6],[62.1,129.1],[63.5,128.1],[58.5,126.2],[54.9,122.4],[54.0,119.1],[47.3,116.5],[42.6,111.3],[37.3,108.5],[35.6,103.7],[31.1,100.8],[28.0,97.1],[26.9,91.8],[22.7,84.7],[24.6,84.8],[26.4,89.5],[24.8,72.0],[22.8,66.3],[17.8,61.8],[12.5,60.6],[8.2,66.4],[5.2,72.2],[6.6,65.3],[12.1,59.7],[10.3,57.9],[1.2,53.3],[-2.6,45.7],[-3.9,39.7],[-3.4,34.4],[-8.4,29.4],[-4.0,31.9],[-1.3,20.8],[0.9,15.0],[0.7,12.7],[-2.1,11.5],[-5.5,12.8],[-12.2,10.4],[-5.9,11.7],[1.7,10.3],[7.2,-1.2],[14.0,-10.9],[4.8,-9.1],[-3.2,-6.0],[-8.7,-6.1],[-18.3,-2.5],[-58.0,-4.6],[-59.1,-0.7],[-61.7,2.0],[-66.1,4.2],[-67.9,7.9],[-70.0,8.7],[-68.2,11.4],[-67.0,19.6],[-70.2,23.9],[-68.3,26.1],[-68.2,32.5],[-69.9,34.8],[-69.5,38.5],[-73.9,39.7],[-76.0,37.4],[-79.5,38.6],[-85.6,33.0],[-87.4,33.6],[-89.7,39.7],[-91.9,49.0],[-96.7,52.7],[-96.0,56.7],[-98.3,59.4],[-96.6,65.3],[-99.9,72.5],[-97.9,80.1],[-91.2,80.8],[-92.2,82.9],[-89.3,91.3],[-83.8,94.4],[-80.9,98.6],[-81.5,109.7],[-75.7,114.1],[-77.5,122.6],[-82.3,127.4],[-78.8,137.9],[-78.9,143.7],[-75.4,144.6],[-72.6,149.3],[-69.2,152.9],[-72.6,156.8],[-71.7,164.9],[-66.4,168.8],[-66.8,174.4],[-69.2,183.3],[-72.8,186.0],[-69.7,187.6],[-67.2,191.5],[7.5,195.2],[25.4,195.6]]]}},{"type":"Feature","id":"AR.JY","properties":{"name":"Jujuy","country_code":"ar","country_es":"Argentina","hc_key":"ar-jy"},"geometry":{"type":"Polygon","coordinates":[[[23.9,921.8],[30.9,945.7],[25.4,951.4],[30.1,956.9],[30.2,961.2],[37.7,964.4],[39.1,971.0],[50.0,974.2],[52.4,976.7],[54.1,985.1],[58.5,983.8],[60.0,981.0],[63.5,980.2],[69.2,974.6],[74.2,975.5],[86.0,975.1],[84.4,967.7],[81.2,959.2],[83.5,957.8],[83.5,950.8],[85.7,946.4],[90.4,945.6],[90.2,937.5],[92.6,936.0],[95.1,929.8],[101.7,930.8],[108.3,925.4],[111.0,929.1],[115.8,928.8],[116.4,906.9],[111.6,899.5],[106.0,897.4],[102.3,893.1],[96.7,898.2],[94.1,893.8],[90.2,894.8],[86.0,898.4],[83.0,896.9],[73.7,900.1],[68.6,908.2],[68.6,910.8],[61.4,915.2],[60.7,920.5],[61.8,928.1],[56.3,932.1],[50.8,933.8],[49.3,927.7],[51.3,922.2],[50.9,911.9],[46.4,905.5],[41.3,906.7],[35.8,911.2],[28.7,918.8],[23.9,921.8]]]}}]}