{"type":"FeatureCollection","features":[{"type":"Feature","id":"BO.LP","properties":{"name":"La Paz","country_code":"bo","country_es":"Bolivia","hc_key":"bo-lp"},"geometry":{"type":"MultiPolygon","coordinates":[[[[-39.3,444.4],[-53.0,446.3],[-49.1,452.3],[-53.8,457.2],[-43.9,453.3],[-40.7,448.9],[-29.8,442.5],[-32.9,441.0],[-39.3,444.4]]],[[[116.6,762.8],[116.8,751.0],[113.7,746.4],[115.3,739.1],[111.1,720.2],[107.4,710.7],[103.3,710.2],[98.9,703.1],[84.9,686.7],[80.3,678.6],[82.7,663.2],[74.7,653.2],[74.0,642.9],[70.0,629.5],[72.7,606.9],[68.2,603.8],[68.6,599.1],[74.6,587.5],[71.0,580.3],[79.1,569.0],[81.0,550.2],[91.0,546.5],[100.3,534.4],[105.6,524.3],[105.5,517.1],[132.5,491.3],[120.8,479.1],[120.3,460.2],[126.2,452.5],[126.4,448.9],[132.1,443.4],[131.1,427.0],[135.3,418.4],[135.9,404.6],[133.1,401.5],[122.5,398.0],[119.1,391.4],[116.4,380.5],[125.9,370.2],[127.0,360.7],[130.7,346.3],[119.2,339.2],[111.6,349.1],[106.3,351.3],[94.4,347.4],[85.3,341.7],[59.4,322.5],[61.3,316.3],[55.4,312.4],[39.7,323.6],[26.6,328.9],[4.9,328.1],[-2.6,324.9],[-14.3,311.5],[-27.5,301.3],[-44.1,294.8],[-61.6,299.4],[-64.6,313.3],[-76.2,325.5],[-78.8,331.0],[-79.7,346.3],[-86.8,354.1],[-92.3,354.9],[-89.1,363.5],[-80.4,369.8],[-73.9,372.1],[-72.5,378.0],[-58.6,394.7],[-56.2,401.0],[-44.1,407.3],[-42.0,410.4],[-44.5,417.1],[-30.5,413.4],[-31.1,424.1],[-35.8,427.9],[-24.7,428.3],[-16.5,437.7],[-8.9,436.6],[-8.7,442.6],[-12.0,445.9],[-18.1,445.3],[-26.6,447.9],[-29.4,444.8],[-35.6,457.2],[-30.8,458.2],[-24.8,463.4],[-26.8,467.3],[-44.6,468.8],[-44.7,477.7],[-51.7,484.5],[-58.8,486.4],[-57.0,489.3],[-65.1,489.0],[-67.2,497.2],[-73.4,501.1],[-68.0,513.8],[-61.2,522.5],[-56.4,525.1],[-67.9,535.6],[-76.4,546.7],[-74.5,561.2],[-67.1,564.5],[-65.8,577.5],[-59.7,579.0],[-59.4,585.1],[-45.7,595.7],[-47.6,606.5],[-37.5,609.6],[-36.5,614.2],[-40.5,624.9],[-46.0,629.1],[-49.1,647.0],[-56.2,653.9],[-50.0,656.7],[-47.1,663.7],[-45.8,685.7],[-47.4,695.4],[-48.0,719.8],[-38.2,730.4],[-31.6,732.4],[-29.2,736.8],[-33.4,740.5],[-25.2,751.1],[-20.9,751.0],[-14.8,758.8],[-8.2,757.7],[-1.5,772.2],[10.0,779.7],[11.0,788.4],[14.7,791.9],[28.5,795.1],[33.1,800.2],[116.6,762.8]]]]}},{"type":"Feature","id":"BO.CB","properties":{"name":"Cochabamba","country_code":"bo","country_es":"Bolivia","hc_key":"bo-cb"},"geometry":{"type":"Polygon","coordinates":[[[327.9,251.7],[322.1,255.5],[316.9,251.2],[308.9,251.2],[299.5,262.0],[288.9,265.3],[279.1,261.6],[272.2,252.2],[258.4,254.4],[256.8,261.4],[249.4,270.1],[242.1,274.4],[236.2,282.7],[229.5,287.7],[225.7,293.8],[209.8,306.7],[202.9,305.3],[195.9,315.2],[183.6,314.6],[171.2,304.9],[155.7,305.1],[148.6,303.8],[144.0,314.1],[132.3,329.7],[119.2,339.2],[130.7,346.3],[127.0,360.7],[125.9,370.2],[116.4,380.5],[119.1,391.4],[122.5,398.0],[133.1,401.5],[135.9,404.6],[135.3,418.4],[131.1,427.0],[132.1,443.4],[126.4,448.9],[126.2,452.5],[120.3,460.2],[120.8,479.1],[132.5,491.3],[155.1,469.3],[158.7,461.0],[176.5,441.4],[186.1,435.0],[196.2,431.2],[211.1,429.8],[238.5,438.0],[246.0,441.8],[248.3,445.5],[252.6,462.5],[258.8,474.4],[261.1,476.1],[301.2,481.1],[295.5,475.1],[299.4,468.6],[301.0,459.2],[299.4,437.1],[296.4,428.6],[293.2,425.8],[294.1,418.2],[290.0,410.1],[294.1,397.3],[302.7,387.4],[312.9,379.6],[324.2,372.9],[335.5,361.2],[336.2,353.3],[327.2,352.8],[323.4,350.5],[322.1,344.6],[309.8,326.1],[298.9,314.8],[308.1,295.9],[310.9,293.4],[319.6,279.2],[320.9,272.0],[330.8,264.6],[331.5,257.6],[327.9,251.7]]]}},{"type":"Feature","id":"BO.CQ","properties":{"name":"Chuquisaca","country_code":"bo","country_es":"Bolivia","hc_key":"bo-cq"},"geometry":{"type":"Polygon","coordinates":[[[249.4,270.1],[256.8,261.4],[258.4,254.4],[272.2,252.2],[279.1,261.6],[288.9,265.3],[299.5,262.0],[308.9,251.2],[316.9,251.2],[322.1,255.5],[327.9,251.7],[332.0,238.9],[337.3,234.7],[339.0,229.6],[349.6,223.8],[353.4,210.7],[359.3,210.0],[364.5,221.7],[374.7,220.3],[372.8,201.7],[376.3,145.2],[377.7,141.8],[381.1,108.8],[382.1,105.4],[394.0,104.8],[404.0,113.0],[410.3,103.4],[493.2,103.6],[488.0,94.7],[488.3,60.3],[365.6,60.4],[356.9,60.5],[355.5,64.8],[342.0,69.0],[340.0,50.3],[329.5,48.7],[321.4,53.2],[314.8,52.6],[305.6,64.6],[300.4,65.0],[295.5,53.2],[291.9,51.7],[285.1,57.6],[276.0,59.5],[273.6,62.4],[266.2,63.6],[261.3,15.5],[254.9,20.1],[243.9,31.6],[242.3,37.1],[242.6,50.7],[245.7,62.1],[246.0,72.4],[255.4,97.4],[249.7,119.0],[249.4,124.4],[253.5,132.1],[253.3,137.1],[258.3,141.1],[273.3,143.9],[287.8,152.2],[297.1,163.5],[288.1,176.9],[287.4,186.1],[279.9,194.5],[271.6,192.3],[265.1,192.6],[254.3,197.5],[248.0,202.0],[237.5,215.0],[234.7,221.1],[240.1,230.5],[237.4,238.7],[243.2,244.5],[240.8,248.7],[227.5,242.9],[229.1,249.2],[227.2,266.9],[221.9,274.5],[236.9,272.8],[249.4,270.1]]]}},{"type":"Feature","id":"BO.EB","properties":{"name":"El Beni","country_code":"bo","country_es":"Bolivia","hc_key":"bo-eb"},"geometry":{"type":"Polygon","coordinates":[[[238.6,927.0],[234.2,920.8],[235.4,907.9],[239.9,902.0],[238.4,892.6],[245.0,888.3],[246.4,878.1],[243.4,868.6],[239.1,864.7],[239.6,856.6],[244.7,850.5],[242.6,845.4],[247.6,836.1],[253.2,835.1],[255.8,826.4],[255.5,816.7],[260.1,819.0],[266.0,815.9],[271.6,796.1],[288.1,793.2],[294.3,783.9],[304.3,778.3],[314.3,774.7],[312.7,765.5],[320.3,758.7],[334.8,757.4],[340.4,753.6],[348.5,754.6],[358.4,751.7],[363.0,757.4],[368.0,759.1],[379.5,757.4],[392.5,751.1],[400.8,742.0],[406.9,738.9],[413.4,739.2],[421.4,744.5],[426.4,743.0],[428.5,735.3],[434.4,726.6],[438.1,727.2],[447.8,715.5],[457.5,717.4],[461.1,712.1],[475.8,708.2],[478.2,704.4],[489.2,702.9],[498.7,704.9],[503.3,702.2],[503.4,695.5],[512.1,685.0],[522.9,676.5],[524.5,671.0],[533.5,670.4],[544.9,672.9],[387.0,582.2],[355.8,572.4],[357.6,564.7],[358.1,548.7],[356.9,544.0],[363.9,526.6],[372.3,513.7],[376.8,511.0],[383.0,499.8],[392.9,494.5],[398.4,482.1],[405.4,476.1],[301.2,481.1],[261.1,476.1],[258.8,474.4],[252.6,462.5],[248.3,445.5],[246.0,441.8],[238.5,438.0],[211.1,429.8],[196.2,431.2],[186.1,435.0],[176.5,441.4],[158.7,461.0],[155.1,469.3],[132.5,491.3],[105.5,517.1],[105.6,524.3],[100.3,534.4],[91.0,546.5],[81.0,550.2],[79.1,569.0],[71.0,580.3],[74.6,587.5],[68.6,599.1],[68.2,603.8],[72.7,606.9],[70.0,629.5],[74.0,642.9],[74.7,653.2],[82.7,663.2],[80.3,678.6],[84.9,686.7],[98.9,703.1],[103.3,710.2],[107.4,710.7],[111.1,720.2],[115.3,739.1],[113.7,746.4],[116.8,751.0],[116.6,762.8],[119.5,775.8],[120.3,788.8],[118.6,796.9],[112.5,806.4],[120.0,810.9],[118.7,816.5],[123.2,816.5],[132.9,822.5],[132.4,828.4],[137.4,840.2],[150.3,840.2],[164.8,845.0],[170.7,851.0],[168.6,853.9],[173.1,862.4],[172.5,868.7],[178.2,870.1],[180.2,879.4],[183.7,880.8],[186.3,887.6],[181.2,889.8],[188.9,894.1],[198.4,892.3],[194.5,899.8],[197.1,903.6],[201.5,899.6],[209.8,904.3],[209.0,912.7],[216.1,912.1],[228.0,919.2],[233.0,925.8],[238.6,927.0]]]}},{"type":"Feature","id":"BO.OR","properties":{"name":"Oruro","country_code":"bo","country_es":"Bolivia","hc_key":"bo-or"},"geometry":{"type":"Polygon","coordinates":[[[119.2,339.2],[132.3,329.7],[144.0,314.1],[148.6,303.8],[140.1,298.5],[140.2,285.8],[144.3,283.5],[157.1,282.5],[146.0,275.0],[144.3,262.5],[149.4,253.1],[159.2,246.0],[175.2,241.8],[177.8,239.1],[184.7,222.2],[194.6,210.5],[195.6,206.3],[191.7,204.8],[165.8,202.4],[160.7,199.8],[151.6,191.1],[143.0,184.8],[79.7,155.3],[69.3,151.5],[58.0,152.6],[22.1,163.4],[-0.5,170.8],[4.4,178.6],[9.2,181.8],[5.5,186.4],[-8.0,194.5],[-10.9,199.2],[-20.3,207.3],[-28.6,211.9],[-34.4,220.5],[-31.9,227.9],[-36.6,237.0],[-39.5,248.8],[-39.2,258.8],[-42.8,265.2],[-45.0,278.7],[-49.6,286.3],[-44.1,294.7],[-27.5,301.3],[-14.3,311.5],[-2.6,324.9],[4.9,328.1],[26.6,328.9],[39.7,323.6],[55.4,312.4],[61.3,316.3],[59.4,322.5],[85.3,341.7],[94.4,347.4],[106.3,351.3],[111.6,349.1],[119.2,339.2]]]}},{"type":"Feature","id":"BO.PO","properties":{"name":"Potosí","country_code":"bo","country_es":"Bolivia","hc_key":"bo-po"},"geometry":{"type":"Polygon","coordinates":[[[148.6,303.8],[155.7,305.1],[171.2,304.9],[183.6,314.6],[195.9,315.2],[202.9,305.3],[209.8,306.7],[225.7,293.8],[229.5,287.7],[236.2,282.7],[242.1,274.4],[249.4,270.1],[236.9,272.8],[221.9,274.5],[227.2,266.9],[229.1,249.2],[227.5,242.9],[240.8,248.7],[243.2,244.5],[237.4,238.7],[240.1,230.5],[234.7,221.1],[237.5,215.0],[248.0,202.0],[254.3,197.5],[265.1,192.6],[271.6,192.3],[279.9,194.5],[287.4,186.1],[288.1,176.9],[297.1,163.5],[287.8,152.2],[273.3,143.9],[258.3,141.1],[253.3,137.1],[253.5,132.1],[249.4,124.4],[249.7,119.0],[255.4,97.4],[246.0,72.4],[245.7,62.1],[242.6,50.7],[242.3,37.1],[243.9,31.6],[254.9,20.1],[261.3,15.5],[254.4,-6.5],[263.6,-18.2],[265.3,-30.6],[245.0,-31.1],[235.6,-30.1],[223.1,-32.5],[218.5,-30.3],[208.5,-18.9],[199.7,-16.9],[195.9,-10.0],[184.7,-6.9],[180.8,-28.2],[174.8,-34.6],[147.7,-43.2],[144.3,-59.9],[125.7,-68.4],[125.6,-79.0],[120.0,-83.8],[114.1,-93.1],[87.4,-99.7],[70.4,-99.9],[62.3,-95.6],[60.8,-86.0],[62.9,-73.7],[55.7,-56.5],[56.2,-48.1],[52.8,-40.6],[51.5,-32.3],[43.1,-24.0],[41.8,-10.6],[34.2,7.0],[33.9,27.0],[32.7,30.6],[15.7,56.7],[8.5,58.1],[3.5,63.5],[3.1,74.1],[9.8,84.0],[-6.3,92.4],[-13.1,102.5],[-6.3,107.8],[-10.5,115.9],[-10.5,122.3],[-14.5,127.2],[-0.1,130.5],[3.2,141.7],[2.1,146.8],[-9.5,155.6],[-9.0,159.8],[-0.5,170.8],[22.1,163.4],[58.0,152.6],[69.3,151.5],[79.7,155.3],[143.0,184.8],[151.6,191.1],[160.7,199.8],[165.8,202.4],[191.7,204.8],[195.6,206.3],[194.6,210.5],[184.7,222.2],[177.8,239.1],[175.2,241.8],[159.2,246.0],[149.4,253.1],[144.3,262.5],[146.0,275.0],[157.1,282.5],[144.3,283.5],[140.2,285.8],[140.1,298.5],[148.6,303.8]]]}},{"type":"Feature","id":"BO.SC","properties":{"name":"Santa Cruz","country_code":"bo","country_es":"Bolivia","hc_key":"bo-sc"},"geometry":{"type":"Polygon","coordinates":[[[327.9,251.7],[331.5,257.6],[330.8,264.6],[320.9,272.0],[319.6,279.2],[310.9,293.4],[308.1,295.9],[298.9,314.8],[309.8,326.1],[322.1,344.6],[323.4,350.5],[327.2,352.8],[336.2,353.3],[335.5,361.2],[324.2,372.9],[312.9,379.6],[302.7,387.4],[294.1,397.3],[290.0,410.1],[294.1,418.2],[293.2,425.8],[296.4,428.6],[299.4,437.1],[301.0,459.2],[299.4,468.6],[295.5,475.1],[301.2,481.1],[405.4,476.1],[398.4,482.1],[392.9,494.5],[383.0,499.8],[376.8,511.0],[372.3,513.7],[363.9,526.6],[356.9,544.0],[358.1,548.7],[357.6,564.7],[355.8,572.4],[387.0,582.2],[544.9,672.9],[555.6,669.8],[564.6,673.8],[580.4,671.5],[588.6,676.0],[590.6,670.2],[600.6,668.7],[608.1,664.4],[626.9,650.7],[634.3,648.3],[637.0,638.4],[640.9,632.6],[638.3,625.4],[634.4,623.3],[634.6,609.0],[639.7,603.8],[644.0,591.5],[641.9,587.3],[648.0,580.1],[648.9,542.0],[624.5,542.0],[628.6,538.3],[649.7,512.4],[651.4,508.6],[655.2,449.7],[659.1,445.4],[790.7,438.3],[796.5,442.4],[800.7,441.5],[799.0,423.5],[790.9,414.7],[788.9,409.4],[790.7,396.5],[789.6,392.7],[793.9,374.3],[795.6,361.4],[807.2,356.0],[824.3,341.8],[836.6,340.6],[841.4,336.5],[842.1,325.0],[846.2,321.6],[848.2,314.2],[845.5,312.6],[852.5,299.7],[858.8,284.5],[865.3,279.7],[857.4,278.6],[838.9,225.4],[843.1,222.7],[843.8,214.2],[838.0,213.2],[810.3,158.9],[810.8,156.6],[830.3,137.8],[822.4,134.2],[806.6,123.3],[808.1,139.3],[806.2,151.5],[736.2,197.2],[664.9,197.7],[528.4,169.9],[518.0,141.9],[513.9,133.5],[493.2,103.6],[410.3,103.4],[404.0,113.0],[394.0,104.8],[382.1,105.4],[381.1,108.8],[377.7,141.8],[376.3,145.2],[372.8,201.7],[374.7,220.3],[364.5,221.7],[359.3,210.0],[353.4,210.7],[349.6,223.8],[339.0,229.6],[337.3,234.7],[332.0,238.9],[327.9,251.7]]]}},{"type":"Feature","id":"BO.TR","properties":{"name":"Tarija","country_code":"bo","country_es":"Bolivia","hc_key":"bo-tr"},"geometry":{"type":"Polygon","coordinates":[[[265.3,-30.6],[263.6,-18.2],[254.4,-6.5],[261.3,15.5],[266.2,63.6],[273.6,62.4],[276.0,59.5],[285.1,57.6],[291.9,51.7],[295.5,53.2],[300.4,65.0],[305.6,64.6],[314.8,52.6],[321.4,53.2],[329.5,48.7],[340.0,50.3],[342.0,69.0],[355.5,64.8],[356.9,60.5],[365.6,60.4],[488.3,60.3],[488.0,54.9],[477.4,19.4],[459.0,-40.5],[448.3,-30.6],[447.3,-21.7],[383.6,-21.2],[375.9,-25.6],[370.3,-21.7],[360.1,-22.2],[356.5,-28.4],[352.3,-40.3],[349.7,-42.7],[344.1,-57.5],[337.3,-66.0],[334.1,-78.3],[334.1,-84.2],[330.5,-92.4],[328.5,-81.5],[322.0,-74.5],[323.8,-66.2],[319.6,-62.1],[312.7,-50.0],[314.9,-45.8],[311.5,-39.4],[306.0,-36.6],[298.1,-36.4],[292.7,-33.4],[278.3,-30.2],[265.3,-30.6]]]}},{"type":"Feature","id":"BO.PA","properties":{"name":"Pando","country_code":"bo","country_es":"Bolivia","hc_key":"bo-pa"},"geometry":{"type":"Polygon","coordinates":[[[238.6,927.0],[233.0,925.8],[228.0,919.2],[216.1,912.1],[209.0,912.7],[209.8,904.3],[201.5,899.6],[197.1,903.6],[194.5,899.8],[198.4,892.3],[188.9,894.1],[181.2,889.8],[186.3,887.6],[183.7,880.8],[180.2,879.4],[178.2,870.1],[172.5,868.7],[173.1,862.4],[168.6,853.9],[170.7,851.0],[164.8,845.0],[150.3,840.2],[137.4,840.2],[132.4,828.4],[132.9,822.5],[123.2,816.5],[118.7,816.5],[120.0,810.9],[112.5,806.4],[118.6,796.9],[120.3,788.8],[119.5,775.8],[116.6,762.8],[33.1,800.2],[28.5,795.1],[14.7,791.9],[11.0,788.4],[10.0,779.7],[-1.5,772.2],[-8.2,757.7],[-14.8,758.8],[-20.9,751.0],[-25.2,751.1],[-99.9,876.1],[-85.2,877.9],[-76.8,876.4],[-58.7,875.5],[-52.7,873.1],[-33.2,872.6],[-35.4,863.2],[-33.1,862.0],[-21.6,864.6],[-15.2,868.9],[-6.5,870.5],[4.4,876.0],[19.8,899.3],[24.2,901.9],[38.9,902.8],[47.6,898.4],[50.4,899.2],[53.2,907.0],[61.2,916.1],[69.0,919.2],[75.3,926.3],[80.7,926.9],[81.0,930.7],[92.1,930.8],[103.2,936.7],[116.1,950.3],[126.7,958.6],[134.9,962.1],[137.9,966.0],[152.4,967.4],[173.6,974.8],[182.0,976.2],[186.7,974.3],[191.9,977.0],[204.0,976.3],[212.6,978.8],[222.9,972.3],[233.5,985.1],[240.1,982.8],[245.6,973.4],[243.3,965.1],[244.1,955.3],[247.1,941.5],[244.0,933.4],[238.6,927.0]]]}}]}