{"type":"FeatureCollection","features":[{"type":"Feature","properties":{"name":"São Paulo","country_code":"br","country_es":"Brasil"},"geometry":{"type":"MultiPolygon","coordinates":[[[[-45.22733,-23.769625],[-45.254787,-23.898366],[-45.38423,-23.937378],[-45.446989,-23.874958],[-45.325392,-23.726712],[-45.22733,-23.769625]]],[[[-53.166465,-22.700689],[-52.966417,-22.458812],[-52.840897,-22.4198],[-52.676152,-22.291059],[-52.519253,-22.220837],[-52.370198,-22.099899],[-52.315283,-21.939949],[-52.15446,-21.740986],[-52.04463,-21.666863],[-52.10739,-21.553727],[-51.868118,-21.343061],[-51.875963,-21.171407],[-51.632768,-20.874913],[-51.621001,-20.699358],[-51.326813,-20.363852],[-51.134611,-20.297531],[-50.993401,-20.10247],[-50.871804,-19.997137],[-50.656066,-19.915211],[-50.558004,-19.805977],[-50.424639,-19.794273],[-50.338344,-19.872297],[-49.879412,-19.934717],[-49.545999,-19.926915],[-49.385177,-19.981532],[-49.275347,-19.969828],[-49.291037,-20.16489],[-49.21651,-20.29363],[-49.149827,-20.29363],[-49.04392,-20.145383],[-48.973315,-20.231211],[-48.969392,-20.402865],[-48.867407,-20.406766],[-48.88702,-20.258519],[-48.843872,-20.16489],[-48.220195,-20.114174],[-48.075063,-20.149285],[-47.988768,-20.024445],[-47.926008,-20.114174],[-47.875015,-20.004939],[-47.714193,-19.973729],[-47.655356,-20.028347],[-47.470998,-19.958124],[-47.439618,-20.036149],[-47.235648,-20.207803],[-47.294486,-20.426272],[-47.153276,-20.527704],[-47.110128,-20.633037],[-47.212113,-20.808592],[-47.223881,-20.913926],[-47.145431,-20.980246],[-47.125818,-21.132394],[-47.055213,-21.194814],[-47.000298,-21.401579],[-46.812019,-21.358666],[-46.506064,-21.460098],[-46.494296,-21.522517],[-46.666886,-21.81511],[-46.619816,-21.982862],[-46.702189,-22.064788],[-46.600204,-22.13501],[-46.698266,-22.326171],[-46.639429,-22.411998],[-46.384466,-22.532936],[-46.470761,-22.681182],[-46.364854,-22.747503],[-46.360931,-22.845034],[-46.141272,-22.887947],[-45.909844,-22.821627],[-45.854929,-22.860639],[-45.745099,-22.798219],[-45.803937,-22.700689],[-45.647037,-22.587553],[-45.529362,-22.649973],[-45.411687,-22.646071],[-45.058662,-22.462714],[-44.831157,-22.404195],[-44.77232,-22.423701],[-44.635032,-22.599257],[-44.540893,-22.618763],[-44.215325,-22.591454],[-44.164333,-22.696787],[-44.274163,-22.817725],[-44.47421,-22.848935],[-44.795855,-22.989379],[-44.8037,-23.137626],[-44.862537,-23.207848],[-44.729172,-23.352194],[-44.893917,-23.34049],[-45.050817,-23.430218],[-45.07043,-23.516045],[-45.14888,-23.488737],[-45.203795,-23.574564],[-45.297935,-23.574564],[-45.435222,-23.664292],[-45.403842,-23.820341],[-45.862774,-23.75402],[-46.145194,-23.843749],[-46.168729,-23.980292],[-46.341319,-23.968588],[-46.592359,-24.089526],[-46.968919,-24.300192],[-47.000298,-24.409427],[-47.184656,-24.530365],[-47.549448,-24.741031],[-47.784798,-24.924389],[-47.886783,-25.037525],[-47.827945,-24.893179],[-47.933853,-25.033623],[-47.886783,-25.057031],[-47.949543,-25.201376],[-48.082908,-25.30671],[-48.031915,-25.228685],[-48.14959,-25.220882],[-48.22804,-25.014117],[-48.412398,-24.9595],[-48.51046,-25.084339],[-48.565375,-25.057031],[-48.54184,-24.811253],[-48.486925,-24.744933],[-48.616367,-24.678612],[-48.781112,-24.698118],[-49.02823,-24.631797],[-49.087067,-24.690315],[-49.29496,-24.666908],[-49.31065,-24.530365],[-49.228277,-24.339205],[-49.408712,-24.085625],[-49.600914,-23.863255],[-49.553844,-23.711107],[-49.651907,-23.504342],[-49.616604,-23.406811],[-49.636217,-23.258564],[-49.726434,-23.106416],[-49.910792,-23.036194],[-49.973552,-22.911355],[-50.291274,-22.954268],[-50.628609,-22.923059],[-50.785509,-22.942565],[-50.879649,-22.821627],[-51.111076,-22.767009],[-51.354271,-22.649973],[-51.546473,-22.685084],[-51.875963,-22.61096],[-52.064243,-22.521232],[-52.21722,-22.646071],[-52.946805,-22.571948],[-53.166465,-22.700689]]]]}},{"type":"Feature","properties":{"name":"Maranhão","country_code":"br","country_es":"Brasil"},"geometry":{"type":"MultiPolygon","coordinates":[[[[-44.517358,-2.823926],[-44.497745,-2.948766],[-44.595807,-3.061901],[-44.544815,-2.742001],[-44.517358,-2.823926]]],[[[-41.842214,-2.765408],[-41.842214,-3.034593],[-42.003037,-3.233556],[-42.218774,-3.432518],[-42.458046,-3.479333],[-42.501194,-3.452024],[-42.677706,-3.701703],[-42.665939,-3.78753],[-42.736544,-3.924073],[-42.987584,-4.240073],[-42.952281,-4.392221],[-42.862064,-4.497554],[-42.952281,-4.661405],[-42.952281,-4.778442],[-42.854219,-4.934491],[-42.807149,-5.160763],[-42.830684,-5.312911],[-43.050343,-5.5977],[-43.101336,-5.621108],[-43.077801,-6.054144],[-42.964049,-6.186786],[-42.850296,-6.253107],[-42.858141,-6.483279],[-42.916979,-6.666637],[-42.979739,-6.744662],[-43.199398,-6.756365],[-43.458283,-6.842192],[-43.677943,-6.701748],[-44.038813,-6.768069],[-44.258473,-7.006044],[-44.305543,-7.111377],[-44.450675,-7.146488],[-44.713482,-7.400068],[-44.81939,-7.361056],[-45.02336,-7.489796],[-45.297935,-7.556117],[-45.474447,-7.673154],[-45.541129,-7.868216],[-45.576432,-8.153005],[-45.737254,-8.433894],[-45.819627,-8.699177],[-45.929457,-8.788906],[-45.984372,-8.92935],[-45.905922,-9.179029],[-45.894154,-9.327275],[-45.796092,-9.459917],[-45.839239,-9.53404],[-45.858852,-10.002188],[-45.952992,-10.177743],[-45.945147,-10.318187],[-46.086357,-10.205052],[-46.349164,-10.169941],[-46.470761,-10.006089],[-46.506064,-9.857842],[-46.670809,-9.748608],[-46.537444,-9.553547],[-46.560979,-9.498929],[-46.753181,-9.409201],[-46.827709,-9.307769],[-46.847321,-9.167325],[-46.941461,-9.069794],[-47.078748,-9.034683],[-46.906159,-8.831819],[-46.882624,-8.582141],[-46.792406,-8.437795],[-46.502141,-8.398783],[-46.541366,-8.316857],[-46.462916,-8.067178],[-46.490374,-7.965746],[-46.572746,-7.907228],[-46.870856,-7.957944],[-47.015988,-8.043771],[-47.153276,-7.856512],[-47.345478,-7.657549],[-47.498456,-7.450784],[-47.510223,-7.27913],[-47.643588,-7.306439],[-47.741651,-7.193303],[-47.639666,-7.158192],[-47.514146,-7.006044],[-47.486688,-6.697847],[-47.408238,-6.479378],[-47.372936,-6.233601],[-47.427851,-6.10486],[-47.416083,-5.870786],[-47.482766,-5.742046],[-47.467076,-5.585997],[-47.537681,-5.480663],[-47.722038,-5.394836],[-47.839713,-5.383133],[-47.863248,-5.2778],[-47.996613,-5.234886],[-48.153513,-5.258293],[-48.33787,-5.164664],[-48.498693,-5.18417],[-48.608522,-5.328516],[-48.722275,-5.355824],[-48.73012,-5.336318],[-47.800488,-4.598986],[-47.655356,-4.606788],[-47.580828,-4.54827],[-47.455308,-4.341505],[-47.380781,-4.275184],[-47.290563,-4.080122],[-47.063058,-3.842147],[-47.023833,-3.59637],[-46.945384,-3.397407],[-46.823786,-3.327185],[-46.666886,-3.093111],[-46.643351,-2.894149],[-46.576669,-2.851235],[-46.666886,-2.738099],[-46.427614,-2.507927],[-46.411924,-2.238742],[-46.302094,-2.176322],[-46.215799,-1.930545],[-46.215799,-1.805706],[-46.313861,-1.731582],[-46.204031,-1.676965],[-46.200109,-1.485805],[-46.086357,-1.208818],[-45.964759,-1.064472],[-46.000062,-1.201015],[-45.905922,-1.173707],[-45.772557,-1.263435],[-45.721564,-1.134694],[-45.654882,-1.271237],[-45.678417,-1.364867],[-45.545052,-1.267336],[-45.529362,-1.415583],[-45.470524,-1.368768],[-45.490137,-1.505311],[-45.309702,-1.325854],[-45.297935,-1.415583],[-45.36854,-1.4702],[-45.325392,-1.747187],[-45.22733,-1.680866],[-45.203795,-1.524817],[-45.090042,-1.462398],[-44.956677,-1.50141],[-44.870382,-1.419484],[-44.91353,-1.548225],[-44.8037,-1.704274],[-44.525203,-1.844718],[-44.50559,-2.031977],[-44.69387,-2.266051],[-44.63111,-2.269952],[-44.497745,-2.149014],[-44.399683,-2.195829],[-44.36438,-2.312865],[-44.39576,-2.402594],[-44.509513,-2.363581],[-44.513435,-2.468915],[-44.63111,-2.699087],[-44.682102,-3.011185],[-44.623265,-3.050198],[-44.784087,-3.198444],[-44.784087,-3.24916],[-44.642877,-3.171136],[-44.434985,-2.948766],[-44.368303,-2.55084],[-44.070193,-2.398692],[-44.05058,-2.554742],[-44.136875,-2.667877],[-44.336923,-2.784914],[-44.187868,-2.757606],[-44.199635,-2.86684],[-44.117263,-2.757606],[-44.062348,-2.777112],[-44.011355,-2.636667],[-43.92506,-2.546939],[-43.764238,-2.527433],[-43.811308,-2.45331],[-43.740703,-2.414297],[-43.685788,-2.262149],[-43.607338,-2.254347],[-43.630873,-2.35968],[-43.454361,-2.554742],[-43.411213,-2.457211],[-43.454361,-2.340174],[-43.313151,-2.347977],[-42.709086,-2.562544],[-42.454124,-2.753704],[-42.261921,-2.757606],[-42.238386,-2.831729],[-42.085409,-2.800519],[-41.944199,-2.83563],[-42.014804,-2.742001],[-42.105022,-2.769309],[-42.250154,-2.738099],[-42.238386,-2.679581],[-42.108944,-2.765408],[-42.093254,-2.679581],[-41.842214,-2.765408]]]]}},{"type":"Feature","properties":{"name":"Pará","country_code":"br","country_es":"Brasil"},"geometry":{"type":"MultiPolygon","coordinates":[[[[-48.224118,-1.02546],[-48.314335,-0.955238],[-48.192738,-0.822596],[-48.161358,-0.920127],[-48.224118,-1.02546]]],[[[-50.828656,-0.58072],[-50.844346,-0.717263],[-51.095386,-0.826497],[-51.064006,-0.674349],[-50.828656,-0.58072]]],[[[-51.224828,-0.557312],[-51.150301,-0.635337],[-51.287588,-1.033262],[-51.330736,-1.009855],[-51.432721,-1.189311],[-51.785745,-1.450694],[-51.891653,-1.485805],[-51.954413,-1.423385],[-51.87204,-1.243929],[-51.668071,-1.05667],[-51.675916,-0.846003],[-51.507248,-0.608028],[-51.311123,-0.5183],[-51.224828,-0.557312]]],[[[-51.373883,-0.459782],[-51.264053,-0.217905],[-51.165991,-0.139881],[-51.146378,-0.26472],[-51.201293,-0.342745],[-51.373883,-0.459782]]],[[[-50.895339,-0.303732],[-51.036548,-0.237412],[-50.946331,-0.01114],[-50.765896,0.043477],[-50.628609,-0.085264],[-50.895339,-0.303732]]],[[[-49.487162,0.070786],[-49.349875,-0.01114],[-49.440092,-0.120375],[-49.714667,-0.147683],[-49.832342,-0.10477],[-49.628372,0.059082],[-49.487162,0.070786]]],[[[-50.440329,0.000563],[-50.561926,-0.003338],[-50.636454,0.070786],[-50.608996,0.183921],[-50.444251,0.129304],[-50.440329,0.000563]]],[[[-50.216746,0.265847],[-50.106917,0.222933],[-50.036312,0.300958],[-49.922559,0.293156],[-49.651907,0.386785],[-49.561689,0.386785],[-49.526387,0.300958],[-49.695054,0.207329],[-49.828419,0.012267],[-50.004932,-0.054054],[-50.067692,0.016168],[-50.346189,0.047378],[-50.365801,0.215131],[-50.216746,0.265847]]],[[[-50.346189,0.527229],[-50.322654,0.33997],[-50.428561,0.168316],[-50.518779,0.21123],[-50.408949,0.417995],[-50.432484,0.550637],[-50.365801,0.620859],[-50.346189,0.527229]]],[[[-50.028467,0.585748],[-50.044157,0.507723],[-50.279506,0.359476],[-50.303041,0.531131],[-50.240281,0.59355],[-50.063769,0.644266],[-50.028467,0.585748]]],[[[-49.526387,-1.684768],[-49.671519,-1.770595],[-49.824497,-1.817409],[-50.004932,-1.743286],[-50.024544,-1.66136],[-50.153987,-1.782298],[-50.224591,-1.739385],[-50.236359,-1.622348],[-50.295196,-1.801804],[-50.405026,-1.833014],[-50.605074,-1.762792],[-50.589384,-1.684768],[-50.805121,-1.423385],[-50.793354,-1.08788],[-50.558004,-1.18541],[-50.793354,-1.017657],[-50.777664,-0.662646],[-50.652144,-0.26472],[-50.581539,-0.194498],[-50.408949,-0.163288],[-50.365801,-0.10477],[-50.095149,-0.132078],[-49.651907,-0.241313],[-49.459704,-0.221807],[-49.21651,-0.143782],[-48.879175,-0.163288],[-48.890942,-0.214004],[-48.624212,-0.225708],[-48.428088,-0.260819],[-48.373173,-0.373955],[-48.455545,-0.48709],[-48.537918,-0.892818],[-48.663437,-1.005954],[-48.643825,-1.083978],[-48.843872,-1.212719],[-48.79288,-1.282941],[-48.832105,-1.415583],[-48.941935,-1.294645],[-48.98116,-1.333657],[-48.83995,-1.442891],[-49.063532,-1.53262],[-49.149827,-1.399978],[-49.189052,-1.610644],[-49.29496,-1.618447],[-49.393022,-1.528718],[-49.373409,-1.645755],[-49.506774,-1.583336],[-49.526387,-1.684768]]],[[[-46.086357,-1.208818],[-46.200109,-1.485805],[-46.204031,-1.676965],[-46.313861,-1.731582],[-46.215799,-1.805706],[-46.215799,-1.930545],[-46.302094,-2.176322],[-46.411924,-2.238742],[-46.427614,-2.507927],[-46.666886,-2.738099],[-46.576669,-2.851235],[-46.643351,-2.894149],[-46.666886,-3.093111],[-46.823786,-3.327185],[-46.945384,-3.397407],[-47.023833,-3.59637],[-47.063058,-3.842147],[-47.290563,-4.080122],[-47.380781,-4.275184],[-47.455308,-4.341505],[-47.580828,-4.54827],[-47.655356,-4.606788],[-47.800488,-4.598986],[-48.73012,-5.336318],[-48.722275,-5.355824],[-48.553608,-5.410441],[-48.365328,-5.402639],[-48.141745,-5.644515],[-48.286878,-5.730342],[-48.220195,-5.9137],[-48.333948,-5.97612],[-48.282955,-6.097058],[-48.428088,-6.171181],[-48.388863,-6.362341],[-48.502615,-6.350638],[-48.6046,-6.436465],[-48.68305,-6.662736],[-49.008617,-6.779773],[-49.20082,-6.900711],[-49.220432,-6.96313],[-49.18513,-7.224513],[-49.373409,-7.5015],[-49.393022,-7.599031],[-49.31065,-7.712166],[-49.165517,-7.805796],[-49.196897,-8.059376],[-49.31065,-8.379277],[-49.381254,-8.433894],[-49.565612,-8.812313],[-49.757814,-8.921547],[-50.052002,-9.319473],[-50.150064,-9.701793],[-50.236359,-9.846139],[-51.299356,-9.791522],[-55.092411,-9.56525],[-56.461363,-9.46772],[-56.6771,-9.377991],[-56.77124,-9.397497],[-56.837922,-9.272658],[-57.045815,-9.229745],[-57.104652,-9.054189],[-57.300777,-8.956659],[-57.481212,-8.792807],[-57.579274,-8.757696],[-57.681259,-8.433894],[-57.642034,-8.23103],[-57.779322,-8.043771],[-57.893074,-7.69266],[-58.061742,-7.411772],[-58.136269,-7.34155],[-58.214719,-7.107476],[-58.391231,-6.955328],[-58.465759,-6.701748],[-58.293169,-6.494983],[-56.759472,-3.18284],[-56.390758,-2.386989],[-56.398603,-2.273853],[-56.496665,-2.160718],[-56.633952,-2.223137],[-56.747705,-2.176322],[-56.73986,-2.051483],[-57.00659,-1.934446],[-57.088962,-1.809607],[-57.336079,-1.727681],[-57.653802,-1.591138],[-57.826392,-1.442891],[-58.159804,-1.236126],[-58.387309,-1.048867],[-58.442224,-0.861608],[-58.630504,-0.764078],[-58.752101,-0.619732],[-58.740334,-0.428572],[-58.854086,-0.350547],[-58.873699,0.222933],[-58.975683,1.315278],[-58.897234,1.217747],[-58.771714,1.202142],[-58.681496,1.280167],[-58.516751,1.268463],[-58.516751,1.440117],[-58.387309,1.490833],[-58.332394,1.592265],[-58.148036,1.518141],[-58.026439,1.518141],[-57.983292,1.658586],[-57.791089,1.7054],[-57.563584,1.709302],[-57.430219,1.900462],[-57.340002,1.966783],[-57.238017,1.947277],[-57.104652,2.0214],[-57.010512,1.919968],[-56.806542,1.873153],[-56.641797,1.935573],[-56.367223,1.931672],[-56.022043,1.834141],[-55.92398,1.888758],[-55.916135,2.037005],[-56.116183,2.333498],[-56.014198,2.399819],[-55.990663,2.520757],[-55.723933,2.395918],[-55.610181,2.431029],[-55.402288,2.427128],[-55.304226,2.520757],[-54.978658,2.540264],[-54.880596,2.446634],[-54.774689,2.458338],[-54.715851,2.267177],[-54.794301,2.009696],[-54.735464,1.771721],[-54.366749,1.763919],[-54.170624,1.658586],[-54.076484,1.506438],[-54.005879,1.525944],[-53.888204,1.405006],[-53.660699,1.420611],[-53.554792,1.365994],[-53.539102,1.241154],[-53.437117,1.26066],[-53.468497,1.155327],[-53.417504,0.944661],[-53.264527,0.780809],[-53.11155,0.71839],[-53.12724,0.386785],[-53.040945,0.246341],[-53.01741,0.055181],[-52.915425,-0.194498],[-52.825207,-0.178893],[-52.629082,-0.393461],[-52.633005,-0.557312],[-52.527098,-0.647041],[-52.51533,-0.873312],[-52.397655,-0.869411],[-52.35843,-1.068373],[-52.056398,-1.212719],[-51.90342,-1.1542],[-51.923033,-1.325854],[-52.064243,-1.403879],[-52.193685,-1.345361],[-52.472183,-1.485805],[-52.680075,-1.544323],[-52.707532,-1.598941],[-52.425113,-1.567731],[-52.27998,-1.517015],[-52.2486,-1.704274],[-52.12308,-1.618447],[-51.915188,-1.571632],[-51.671993,-1.399978],[-51.267976,-1.220521],[-51.162068,-1.103484],[-51.032626,-1.037164],[-51.009091,-0.935732],[-50.820811,-0.935732],[-50.832579,-1.05667],[-50.958098,-1.130793],[-50.820811,-1.232225],[-50.816889,-1.435089],[-50.687446,-1.610644],[-50.656066,-1.739385],[-50.828656,-1.930545],[-50.703136,-1.907138],[-50.659989,-1.801804],[-50.444251,-1.934446],[-50.428561,-2.063187],[-50.283429,-1.891533],[-50.161831,-1.91494],[-50.110839,-1.848619],[-49.977474,-1.825212],[-49.875489,-1.879829],[-49.859799,-2.047582],[-49.808807,-1.903236],[-49.655829,-1.918841],[-49.549922,-1.790101],[-49.538154,-1.860323],[-49.338107,-1.715977],[-49.27927,-1.766693],[-49.369487,-1.895434],[-49.447937,-2.184125],[-49.553844,-2.414297],[-49.545999,-2.515729],[-49.687209,-2.667877],[-49.526387,-2.628865],[-49.436169,-2.468915],[-49.428324,-2.367483],[-49.330262,-2.203631],[-49.2322,-1.94615],[-49.126292,-1.766693],[-48.96547,-1.598941],[-48.890942,-1.598941],[-48.969392,-1.7862],[-48.812492,-1.622348],[-48.639902,-1.384373],[-48.533995,-1.583336],[-48.420243,-1.641854],[-48.483003,-1.509212],[-48.326103,-1.4702],[-48.506538,-1.450694],[-48.483003,-1.27904],[-48.341793,-1.318052],[-48.30649,-1.18541],[-48.46339,-1.165904],[-48.420243,-1.080077],[-48.19666,-1.029361],[-48.141745,-0.900621],[-48.153513,-0.779682],[-48.035838,-0.662646],[-47.96131,-0.779682],[-47.969155,-0.635337],[-47.8201,-0.666547],[-47.737728,-0.541707],[-47.596518,-0.67825],[-47.584751,-0.58072],[-47.494533,-0.764078],[-47.380781,-0.767979],[-47.463153,-0.592423],[-47.070903,-0.674349],[-47.074826,-0.838201],[-46.957151,-0.70946],[-46.894391,-0.787485],[-46.819864,-0.70946],[-46.698266,-0.877213],[-46.600204,-0.869411],[-46.608049,-0.959139],[-46.502141,-0.881114],[-46.478606,-1.021559],[-46.321706,-1.021559],[-46.172652,-0.920127],[-46.223644,-1.142497],[-46.094202,-1.076176],[-46.086357,-1.208818]]]]}},{"type":"Feature","properties":{"name":"Santa Catarina","country_code":"br","country_es":"Brasil"},"geometry":{"type":"MultiPolygon","coordinates":[[[[-48.54184,-27.8152],[-48.565375,-27.741076],[-48.51046,-27.565521],[-48.514383,-27.425077],[-48.424165,-27.386065],[-48.377095,-27.456287],[-48.41632,-27.596731],[-48.54184,-27.8152]]],[[[-48.581065,-26.41856],[-48.702662,-26.313227],[-48.549685,-26.168881],[-48.490848,-26.239103],[-48.581065,-26.41856]]],[[[-48.581065,-25.981622],[-48.581065,-26.157177],[-48.734042,-26.223498],[-48.788957,-26.063548],[-48.757577,-26.289819],[-48.608522,-26.434165],[-48.66736,-26.555103],[-48.68305,-26.718954],[-48.581065,-26.777473],[-48.62029,-26.839893],[-48.608522,-27.105176],[-48.514383,-27.120781],[-48.486925,-27.210509],[-48.608522,-27.222213],[-48.55753,-27.343151],[-48.647747,-27.479694],[-48.577142,-27.59283],[-48.647747,-27.647447],[-48.565375,-27.858113],[-48.655592,-28.213125],[-48.781112,-28.486211],[-48.79288,-28.373076],[-48.87133,-28.345767],[-48.85564,-28.474508],[-48.77719,-28.525223],[-48.816415,-28.611051],[-48.938012,-28.646162],[-49.34203,-28.923149],[-49.553844,-29.126013],[-49.710744,-29.324975],[-49.953939,-29.196235],[-50.075537,-29.24305],[-50.052002,-29.356185],[-50.169676,-29.282062],[-50.165754,-29.196235],[-50.071614,-29.094803],[-50.004932,-29.102605],[-49.950017,-28.950457],[-49.953939,-28.794408],[-49.793117,-28.626655],[-49.702899,-28.595446],[-49.753892,-28.470606],[-49.883334,-28.4511],[-50.161831,-28.486211],[-50.216746,-28.4511],[-50.620764,-28.373076],[-50.777664,-28.154607],[-50.867881,-28.127298],[-50.883571,-28.025866],[-51.013013,-27.936138],[-51.079696,-27.819101],[-51.228751,-27.764484],[-51.456256,-27.569422],[-51.554318,-27.569422],[-51.664148,-27.479694],[-51.781823,-27.522608],[-51.90342,-27.4992],[-52.017173,-27.331447],[-52.181918,-27.269028],[-52.23291,-27.319744],[-52.381965,-27.288534],[-52.448648,-27.218312],[-52.699687,-27.272929],[-52.868355,-27.163695],[-52.974262,-27.218312],[-53.052712,-27.101275],[-53.311597,-27.194904],[-53.276295,-27.11688],[-53.370434,-27.073966],[-53.499877,-27.128583],[-53.503799,-27.191003],[-53.676389,-27.151991],[-53.841134,-27.163695],[-53.711692,-26.875004],[-53.743072,-26.695547],[-53.727382,-26.375646],[-53.660699,-26.258609],[-53.456729,-26.285918],[-53.354744,-26.239103],[-53.123317,-26.367844],[-52.81344,-26.336634],[-52.64085,-26.402955],[-52.20153,-26.44977],[-52.005405,-26.582411],[-51.875963,-26.601918],[-51.503326,-26.598016],[-51.424876,-26.699448],[-51.236596,-26.605819],[-51.287588,-26.426362],[-51.252286,-26.348338],[-51.075773,-26.235202],[-50.903184,-26.278116],[-50.734516,-26.235202],[-50.648221,-26.07135],[-50.456019,-26.024536],[-50.318731,-26.055745],[-49.950017,-26.012832],[-49.593069,-26.223498],[-49.29496,-26.106461],[-49.110602,-25.993326],[-48.581065,-25.981622]]]]}},{"type":"Feature","properties":{"name":"Bahia","country_code":"br","country_es":"Brasil"},"geometry":{"type":"MultiPolygon","coordinates":[[[[-38.908186,-13.388455],[-38.947411,-13.65764],[-38.967024,-13.497689],[-39.033706,-13.392356],[-38.908186,-13.388455]]],[[[-40.206533,-17.980201],[-40.206533,-17.765634],[-40.48503,-17.558869],[-40.477185,-17.465239],[-40.61055,-17.391116],[-40.56348,-17.262375],[-40.575248,-17.133635],[-40.524255,-16.930771],[-40.46934,-16.872252],[-40.29675,-16.880055],[-40.253603,-16.564055],[-40.135928,-16.544549],[-40.057478,-16.392401],[-39.939803,-16.310475],[-39.865275,-16.111513],[-40.237913,-15.81892],[-40.477185,-15.776007],[-40.5321,-15.795513],[-40.669387,-15.717488],[-40.763527,-15.736995],[-40.943962,-15.674575],[-41.1597,-15.779908],[-41.328367,-15.717488],[-41.359747,-15.495118],[-41.802989,-15.108897],[-41.940277,-15.171316],[-42.089332,-15.18302],[-42.579644,-14.92944],[-42.630636,-14.941144],[-42.956204,-14.679762],[-43.226856,-14.636848],[-43.489663,-14.788996],[-43.705401,-14.73828],[-43.866223,-14.660255],[-43.881913,-14.562725],[-43.791696,-14.344256],[-43.838765,-14.316947],[-44.321233,-14.246725],[-44.564428,-14.344256],[-44.839002,-14.519811],[-44.88215,-14.597836],[-45.10181,-14.718774],[-45.223407,-14.742181],[-45.32147,-14.855317],[-45.462679,-14.941144],[-45.552897,-14.937243],[-45.713719,-15.124502],[-45.925534,-15.128403],[-46.074589,-15.249341],[-45.976527,-14.984057],[-46.023597,-14.867021],[-45.913767,-14.691465],[-45.964759,-14.535416],[-45.921612,-14.352058],[-46.125582,-14.184305],[-46.258946,-13.868306],[-46.274636,-13.65764],[-46.188341,-13.407961],[-46.098124,-13.349442],[-46.086357,-13.251912],[-46.172652,-13.216801],[-46.149117,-13.02564],[-46.086357,-12.916406],[-46.235411,-12.795468],[-46.160884,-12.604308],[-46.160884,-12.502876],[-46.317784,-12.42095],[-46.341319,-12.128358],[-46.215799,-11.999617],[-46.078512,-11.929395],[-46.156962,-11.835766],[-46.247179,-11.843568],[-46.243256,-11.726531],[-46.102047,-11.664111],[-46.082434,-11.601692],[-46.192264,-11.543173],[-46.427614,-11.50026],[-46.568824,-11.316902],[-46.462916,-11.176458],[-46.372699,-10.969693],[-46.235411,-10.883866],[-46.302094,-10.759026],[-46.090279,-10.587372],[-45.858852,-10.470335],[-45.756867,-10.329891],[-45.603889,-10.329891],[-45.470524,-10.48594],[-45.439144,-10.618582],[-45.313625,-10.778533],[-45.042972,-10.895569],[-44.784087,-10.856557],[-44.752707,-10.782434],[-44.53697,-10.630286],[-44.419295,-10.591274],[-44.215325,-10.630286],[-44.121185,-10.587372],[-43.991743,-10.450829],[-43.913293,-10.431323],[-43.705401,-10.037299],[-43.681866,-9.803225],[-43.725013,-9.748608],[-43.811308,-9.428707],[-43.697556,-9.444312],[-43.603416,-9.335078],[-43.450438,-9.303868],[-43.379833,-9.413102],[-43.183708,-9.420905],[-43.128793,-9.37409],[-42.928746,-9.459917],[-42.850296,-9.549645],[-42.752234,-9.522337],[-42.614946,-9.56525],[-42.575721,-9.483324],[-42.489426,-9.498929],[-42.308991,-9.307769],[-42.148169,-9.296065],[-42.042262,-9.206337],[-41.850059,-9.253152],[-41.732384,-9.132214],[-41.736307,-8.980066],[-41.500957,-8.933251],[-41.371515,-8.710881],[-41.1597,-8.70698],[-40.889047,-8.859128],[-40.89297,-9.038584],[-40.853745,-9.15172],[-40.70469,-9.218041],[-40.689,-9.34288],[-40.759605,-9.456016],[-40.622317,-9.487226],[-40.40658,-9.358485],[-40.32813,-9.350683],[-40.273215,-9.101004],[-40.116315,-9.104905],[-39.896655,-8.972263],[-39.896655,-8.827918],[-39.692686,-8.785004],[-39.688763,-8.656264],[-39.402421,-8.535326],[-39.288668,-8.562634],[-39.221986,-8.679671],[-39.029783,-8.734288],[-38.970946,-8.792807],[-38.853271,-8.7694],[-38.704216,-8.839622],[-38.657146,-8.968362],[-38.527704,-8.820116],[-38.512014,-8.948856],[-38.410029,-9.034683],[-38.323734,-8.987868],[-38.233516,-9.331177],[-38.198214,-9.413102],[-38.013857,-9.475522],[-37.994244,-9.526238],[-38.045237,-9.608164],[-37.962864,-9.873447],[-37.782429,-10.080212],[-37.786352,-10.302583],[-37.837344,-10.419619],[-37.782429,-10.626385],[-37.970709,-10.755125],[-38.190369,-10.716113],[-38.233516,-10.895569],[-38.107997,-11.02431],[-38.064849,-11.168655],[-37.978554,-11.238878],[-38.006012,-11.359816],[-37.849112,-11.441741],[-37.794197,-11.523667],[-37.660832,-11.558778],[-37.484319,-11.519766],[-37.366645,-11.472951],[-37.437249,-11.566581],[-37.656909,-12.050333],[-38.053082,-12.64332],[-38.319811,-12.932011],[-38.512014,-13.021739],[-38.480634,-12.916406],[-38.508091,-12.721345],[-38.625766,-12.701838],[-38.723829,-12.619913],[-38.778744,-12.807172],[-38.861116,-12.846184],[-38.680681,-12.873493],[-38.586541,-12.986628],[-38.955256,-13.263615],[-38.951334,-13.37285],[-39.037628,-13.365047],[-38.967024,-13.673244],[-38.978791,-13.837096],[-39.116078,-13.72396],[-39.010171,-13.88001],[-39.065086,-13.934627],[-38.994481,-13.997046],[-38.931721,-13.899516],[-38.923876,-14.004849],[-38.990559,-14.215515],[-38.982714,-14.313046],[-39.065086,-14.671959],[-39.021939,-14.816305],[-39.002326,-15.233736],[-38.923876,-15.713587],[-38.865039,-15.842328],[-39.057241,-16.435315],[-39.135691,-16.80203],[-39.123923,-16.899561],[-39.206296,-17.160943],[-39.182761,-17.601782],[-39.139613,-17.679807],[-39.272978,-17.867066],[-39.500483,-18.00751],[-39.626003,-18.190868],[-39.673073,-18.323509],[-40.182998,-18.011411],[-40.206533,-17.980201]]]]}},{"type":"Feature","properties":{"name":"Amapá","country_code":"br","country_es":"Brasil"},"geometry":{"type":"MultiPolygon","coordinates":[[[[-50.071614,0.929056],[-50.102994,0.960266],[-49.926482,1.0695],[-50.106917,0.757402],[-50.275584,0.745698],[-50.228514,0.858834],[-50.071614,0.929056]]],[[[-50.456019,2.118931],[-50.463864,2.189153],[-50.310886,1.947277],[-50.459941,1.880956],[-50.522701,2.001894],[-50.456019,2.118931]]],[[[-51.90342,-1.1542],[-52.056398,-1.212719],[-52.35843,-1.068373],[-52.397655,-0.869411],[-52.51533,-0.873312],[-52.527098,-0.647041],[-52.633005,-0.557312],[-52.629082,-0.393461],[-52.825207,-0.178893],[-52.915425,-0.194498],[-53.01741,0.055181],[-53.040945,0.246341],[-53.12724,0.386785],[-53.11155,0.71839],[-53.264527,0.780809],[-53.417504,0.944661],[-53.468497,1.155327],[-53.437117,1.26066],[-53.539102,1.241154],[-53.554792,1.365994],[-53.660699,1.420611],[-53.888204,1.405006],[-54.005879,1.525944],[-54.076484,1.506438],[-54.170624,1.658586],[-54.366749,1.763919],[-54.735464,1.771721],[-54.794301,2.009696],[-54.715851,2.267177],[-54.774689,2.458338],[-54.704084,2.446634],[-54.704084,2.325696],[-54.562874,2.313992],[-54.476579,2.21256],[-54.135321,2.111128],[-53.833289,2.310091],[-53.531257,2.24377],[-53.342977,2.349103],[-53.233147,2.251573],[-52.962495,2.177449],[-52.880122,2.259375],[-52.707532,2.360807],[-52.550632,2.571473],[-52.574167,2.637794],[-52.354508,3.059127],[-52.362353,3.13325],[-52.228988,3.261991],[-52.01325,3.617003],[-51.989715,3.706731],[-51.836738,3.866681],[-51.785745,3.983718],[-51.632768,4.069545],[-51.597466,4.213891],[-51.495481,4.104656],[-51.562163,4.354335],[-51.519016,4.444063],[-51.389573,4.358236],[-51.224828,4.163175],[-51.181681,4.026632],[-51.173836,3.648213],[-51.114998,3.909595],[-51.079696,3.882286],[-51.091463,3.379028],[-50.942409,2.821152],[-50.903184,2.793843],[-50.742361,2.380313],[-50.679601,2.169647],[-50.463864,1.814635],[-50.181444,1.818536],[-50.004932,1.752215],[-49.910792,1.662487],[-49.875489,1.358191],[-49.914714,1.272364],[-50.138297,1.194339],[-49.922559,1.217747],[-49.891179,1.16313],[-50.169676,0.917352],[-50.310886,0.819821],[-50.467786,0.644266],[-50.608996,0.37118],[-50.789431,0.172217],[-50.930641,0.156613],[-51.067928,-0.018943],[-51.315046,-0.093066],[-51.252286,-0.128177],[-51.322891,-0.214004],[-51.444488,-0.471485],[-51.695528,-0.748473],[-51.726908,-1.041065],[-51.90342,-1.1542]]]]}},{"type":"Feature","properties":{"name":"Mato Grosso do Sul","country_code":"br","country_es":"Brasil"},"geometry":{"type":"Polygon","coordinates":[[[-54.245151,-24.050514],[-54.425586,-23.913971],[-54.641324,-23.804736],[-54.943356,-23.968588],[-55.202241,-24.019304],[-55.398366,-23.97639],[-55.445436,-23.734514],[-55.531731,-23.605774],[-55.516041,-23.379502],[-55.531731,-23.231256],[-55.637638,-22.997182],[-55.661173,-22.817725],[-55.629793,-22.626565],[-55.743545,-22.536837],[-55.759235,-22.392491],[-55.87691,-22.314467],[-56.194633,-22.279356],[-56.31623,-22.209134],[-56.422138,-22.072591],[-56.512355,-22.092097],[-56.665332,-22.25985],[-56.712402,-22.213035],[-56.841845,-22.291059],[-57.214482,-22.185726],[-57.383149,-22.213035],[-57.614577,-22.177924],[-57.653802,-22.1038],[-57.842082,-22.142813],[-57.987214,-22.03748],[-57.924454,-21.904838],[-57.955834,-21.850221],[-57.896997,-21.69027],[-57.940144,-21.623949],[-57.932299,-21.452295],[-57.853849,-21.331357],[-57.849927,-21.034864],[-57.818547,-20.952938],[-57.912687,-20.906123],[-57.857772,-20.847605],[-57.940144,-20.792987],[-57.857772,-20.742272],[-57.979369,-20.691556],[-57.991137,-20.434074],[-58.085277,-20.375556],[-58.159804,-20.16489],[-57.857772,-19.981532],[-58.124501,-19.731853],[-57.787167,-19.056941],[-57.716562,-19.045237],[-57.783244,-18.912595],[-57.551817,-18.186966],[-57.732252,-17.84756],[-57.724407,-17.734424],[-57.602809,-17.81635],[-57.418452,-17.863164],[-57.13211,-17.78514],[-56.979132,-17.660301],[-56.967365,-17.574474],[-56.853612,-17.484745],[-56.75555,-17.320894],[-56.327998,-17.285783],[-56.249548,-17.219462],[-56.100493,-17.188252],[-55.786693,-17.352103],[-55.610181,-17.395017],[-55.535653,-17.50035],[-55.182628,-17.683708],[-54.900209,-17.648597],[-54.696239,-17.515955],[-54.527571,-17.515955],[-54.421664,-17.578375],[-54.394206,-17.672004],[-54.143166,-17.625189],[-53.950964,-17.457437],[-53.821522,-17.305289],[-53.684234,-17.254573],[-53.750917,-17.640794],[-53.856824,-17.687609],[-53.990189,-17.902177],[-53.727382,-18.00751],[-53.307675,-17.995806],[-53.056635,-18.019214],[-53.056635,-18.2923],[-52.989952,-18.38983],[-52.911502,-18.343016],[-52.78206,-18.38983],[-52.89189,-18.635608],[-52.872277,-18.678521],[-52.617315,-18.721435],[-52.495718,-18.70583],[-52.34274,-18.815064],[-52.272135,-18.811163],[-52.056398,-18.943805],[-51.640613,-19.131064],[-51.405263,-19.170076],[-51.311123,-19.255903],[-51.138533,-19.283212],[-50.962021,-19.470471],[-51.028703,-19.755261],[-50.993401,-20.10247],[-51.134611,-20.297531],[-51.326813,-20.363852],[-51.621001,-20.699358],[-51.632768,-20.874913],[-51.875963,-21.171407],[-51.868118,-21.343061],[-52.10739,-21.553727],[-52.04463,-21.666863],[-52.15446,-21.740986],[-52.315283,-21.939949],[-52.370198,-22.099899],[-52.519253,-22.220837],[-52.676152,-22.291059],[-52.840897,-22.4198],[-52.966417,-22.458812],[-53.166465,-22.700689],[-53.480264,-22.829429],[-53.597939,-22.919157],[-53.645009,-23.102515],[-53.723459,-23.293675],[-53.947042,-23.426317],[-54.068639,-23.81644],[-54.076484,-23.949082],[-54.245151,-24.050514]]]}},{"type":"Feature","properties":{"name":"Minas Gerais","country_code":"br","country_es":"Brasil"},"geometry":{"type":"Polygon","coordinates":[[[-50.993401,-20.10247],[-51.028703,-19.755261],[-50.962021,-19.470471],[-50.863959,-19.486076],[-50.844346,-19.294916],[-50.652144,-19.111558],[-50.546236,-19.107657],[-50.503089,-18.932101],[-50.322654,-18.713632],[-49.993164,-18.616102],[-49.797039,-18.620003],[-49.491084,-18.499065],[-49.361642,-18.623904],[-49.134137,-18.409337],[-48.94978,-18.327411],[-48.216273,-18.362522],[-48.129978,-18.409337],[-47.89855,-18.448349],[-47.651433,-18.319608],[-47.549448,-18.206473],[-47.274873,-18.062127],[-47.345478,-17.882671],[-47.267028,-17.672004],[-47.286641,-17.551066],[-47.533758,-17.453535],[-47.498456,-17.328696],[-47.153276,-16.977585],[-47.267028,-16.661586],[-47.451386,-16.493833],[-47.349401,-16.298772],[-47.302331,-16.041291],[-47.298408,-16.041291],[-47.302331,-16.041291],[-47.227803,-16.029587],[-47.129741,-15.920352],[-47.074826,-15.935957],[-46.831631,-15.842328],[-46.866934,-15.588748],[-46.937539,-15.428798],[-46.855166,-15.323464],[-46.929694,-15.229835],[-46.890469,-15.050378],[-46.737491,-15.019168],[-46.635506,-15.069884],[-46.549211,-15.038675],[-46.580591,-14.796798],[-46.517831,-14.710971],[-46.388389,-14.773391],[-46.298171,-14.909934],[-46.078512,-14.921638],[-46.023597,-14.867021],[-45.976527,-14.984057],[-46.074589,-15.249341],[-45.925534,-15.128403],[-45.713719,-15.124502],[-45.552897,-14.937243],[-45.462679,-14.941144],[-45.32147,-14.855317],[-45.223407,-14.742181],[-45.10181,-14.718774],[-44.88215,-14.597836],[-44.839002,-14.519811],[-44.564428,-14.344256],[-44.321233,-14.246725],[-43.838765,-14.316947],[-43.791696,-14.344256],[-43.881913,-14.562725],[-43.866223,-14.660255],[-43.705401,-14.73828],[-43.489663,-14.788996],[-43.226856,-14.636848],[-42.956204,-14.679762],[-42.630636,-14.941144],[-42.579644,-14.92944],[-42.089332,-15.18302],[-41.940277,-15.171316],[-41.802989,-15.108897],[-41.359747,-15.495118],[-41.328367,-15.717488],[-41.1597,-15.779908],[-40.943962,-15.674575],[-40.763527,-15.736995],[-40.669387,-15.717488],[-40.5321,-15.795513],[-40.477185,-15.776007],[-40.237913,-15.81892],[-39.865275,-16.111513],[-39.939803,-16.310475],[-40.057478,-16.392401],[-40.135928,-16.544549],[-40.253603,-16.564055],[-40.29675,-16.880055],[-40.46934,-16.872252],[-40.524255,-16.930771],[-40.575248,-17.133635],[-40.56348,-17.262375],[-40.61055,-17.391116],[-40.477185,-17.465239],[-40.48503,-17.558869],[-40.206533,-17.765634],[-40.206533,-17.980201],[-40.426193,-17.894374],[-40.669387,-17.956794],[-40.912582,-17.972399],[-40.779217,-18.093337],[-40.912582,-18.101139],[-41.057715,-18.179164],[-41.140087,-18.296201],[-40.998877,-18.45225],[-41.026335,-18.639509],[-40.92435,-18.694126],[-40.932195,-18.807262],[-41.234227,-18.854077],[-41.104785,-18.889188],[-41.04987,-19.033533],[-40.943962,-19.146669],[-40.928272,-19.294916],[-40.959652,-19.470471],[-41.155777,-19.65773],[-41.187157,-19.864495],[-41.304832,-19.950322],[-41.367592,-20.188297],[-41.406817,-20.215606],[-41.716694,-20.207803],[-41.853982,-20.367754],[-41.795144,-20.426272],[-41.810834,-20.644741],[-41.865749,-20.777383],[-41.963812,-20.910024],[-42.097177,-20.921728],[-42.222696,-21.33916],[-42.297224,-21.40548],[-42.371751,-21.635653],[-42.277611,-21.713678],[-43.034653,-22.025776],[-43.344531,-22.002369],[-43.462206,-22.056986],[-43.811308,-22.064788],[-44.093728,-22.174023],[-44.219248,-22.248146],[-44.44283,-22.255948],[-44.66249,-22.369084],[-44.831157,-22.404195],[-45.058662,-22.462714],[-45.411687,-22.646071],[-45.529362,-22.649973],[-45.647037,-22.587553],[-45.803937,-22.700689],[-45.745099,-22.798219],[-45.854929,-22.860639],[-45.909844,-22.821627],[-46.141272,-22.887947],[-46.360931,-22.845034],[-46.364854,-22.747503],[-46.470761,-22.681182],[-46.384466,-22.532936],[-46.639429,-22.411998],[-46.698266,-22.326171],[-46.600204,-22.13501],[-46.702189,-22.064788],[-46.619816,-21.982862],[-46.666886,-21.81511],[-46.494296,-21.522517],[-46.506064,-21.460098],[-46.812019,-21.358666],[-47.000298,-21.401579],[-47.055213,-21.194814],[-47.125818,-21.132394],[-47.145431,-20.980246],[-47.223881,-20.913926],[-47.212113,-20.808592],[-47.110128,-20.633037],[-47.153276,-20.527704],[-47.294486,-20.426272],[-47.235648,-20.207803],[-47.439618,-20.036149],[-47.470998,-19.958124],[-47.655356,-20.028347],[-47.714193,-19.973729],[-47.875015,-20.004939],[-47.926008,-20.114174],[-47.988768,-20.024445],[-48.075063,-20.149285],[-48.220195,-20.114174],[-48.843872,-20.16489],[-48.88702,-20.258519],[-48.867407,-20.406766],[-48.969392,-20.402865],[-48.973315,-20.231211],[-49.04392,-20.145383],[-49.149827,-20.29363],[-49.21651,-20.29363],[-49.291037,-20.16489],[-49.275347,-19.969828],[-49.385177,-19.981532],[-49.545999,-19.926915],[-49.879412,-19.934717],[-50.338344,-19.872297],[-50.424639,-19.794273],[-50.558004,-19.805977],[-50.656066,-19.915211],[-50.871804,-19.997137],[-50.993401,-20.10247]]]}},{"type":"Feature","properties":{"name":"Goiás","country_code":"br","country_es":"Brasil"},"geometry":{"type":"Polygon","coordinates":[[[-50.962021,-19.470471],[-51.138533,-19.283212],[-51.311123,-19.255903],[-51.405263,-19.170076],[-51.640613,-19.131064],[-52.056398,-18.943805],[-52.272135,-18.811163],[-52.34274,-18.815064],[-52.495718,-18.70583],[-52.617315,-18.721435],[-52.872277,-18.678521],[-52.89189,-18.635608],[-52.78206,-18.38983],[-52.911502,-18.343016],[-52.989952,-18.38983],[-53.056635,-18.2923],[-53.056635,-18.019214],[-53.240992,-17.56277],[-53.201767,-17.281881],[-53.044867,-17.059511],[-53.021332,-16.868351],[-52.809517,-16.743512],[-52.633005,-16.528944],[-52.617315,-16.423611],[-52.668307,-16.290969],[-52.534943,-16.224648],[-52.538865,-16.170031],[-52.32705,-16.037389],[-52.2486,-15.91255],[-51.883808,-15.803316],[-51.679838,-15.378082],[-51.656303,-15.210329],[-51.515093,-15.065983],[-51.318968,-14.956749],[-51.173836,-14.976255],[-51.103231,-14.886527],[-50.969866,-14.51591],[-50.997323,-14.398873],[-50.922796,-14.121886],[-50.856114,-14.10238],[-50.863959,-13.712257],[-50.797276,-13.677146],[-50.758051,-13.540603],[-50.663911,-13.423566],[-50.569771,-13.228504],[-50.585461,-13.080258],[-50.495244,-12.951517],[-50.483476,-12.842283],[-50.444251,-12.697937],[-50.350111,-12.541888],[-50.150064,-12.401444],[-50.138297,-12.479468],[-50.275584,-12.787665],[-50.240281,-12.932011],[-49.683287,-13.177788],[-49.385177,-13.24801],[-49.298882,-13.002233],[-49.13806,-12.736949],[-49.016462,-12.655024],[-48.99685,-12.748653],[-48.82426,-12.873493],[-48.769345,-13.095863],[-48.773267,-13.349442],[-48.68305,-13.337739],[-48.655592,-13.177788],[-48.365328,-13.189492],[-48.141745,-13.076356],[-48.169203,-13.177788],[-47.678891,-13.353344],[-47.722038,-13.15048],[-47.639666,-13.111467],[-47.537681,-13.298726],[-47.090516,-13.095863],[-46.827709,-13.072455],[-46.647274,-12.924208],[-46.235411,-12.795468],[-46.086357,-12.916406],[-46.149117,-13.02564],[-46.172652,-13.216801],[-46.086357,-13.251912],[-46.098124,-13.349442],[-46.188341,-13.407961],[-46.274636,-13.65764],[-46.258946,-13.868306],[-46.125582,-14.184305],[-45.921612,-14.352058],[-45.964759,-14.535416],[-45.913767,-14.691465],[-46.023597,-14.867021],[-46.078512,-14.921638],[-46.298171,-14.909934],[-46.388389,-14.773391],[-46.517831,-14.710971],[-46.580591,-14.796798],[-46.549211,-15.038675],[-46.635506,-15.069884],[-46.737491,-15.019168],[-46.890469,-15.050378],[-46.929694,-15.229835],[-46.855166,-15.323464],[-46.937539,-15.428798],[-46.866934,-15.588748],[-46.831631,-15.842328],[-47.074826,-15.935957],[-47.129741,-15.920352],[-47.227803,-16.029587],[-47.302331,-16.041291],[-47.357246,-15.986673],[-47.306253,-15.588748],[-47.423928,-15.49902],[-48.177048,-15.491217],[-48.239808,-15.694081],[-48.204505,-15.736995],[-48.279033,-15.838427],[-48.18097,-16.041291],[-47.302331,-16.041291],[-47.349401,-16.298772],[-47.451386,-16.493833],[-47.267028,-16.661586],[-47.153276,-16.977585],[-47.498456,-17.328696],[-47.533758,-17.453535],[-47.286641,-17.551066],[-47.267028,-17.672004],[-47.345478,-17.882671],[-47.274873,-18.062127],[-47.549448,-18.206473],[-47.651433,-18.319608],[-47.89855,-18.448349],[-48.129978,-18.409337],[-48.216273,-18.362522],[-48.94978,-18.327411],[-49.134137,-18.409337],[-49.361642,-18.623904],[-49.491084,-18.499065],[-49.797039,-18.620003],[-49.993164,-18.616102],[-50.322654,-18.713632],[-50.503089,-18.932101],[-50.546236,-19.107657],[-50.652144,-19.111558],[-50.844346,-19.294916],[-50.863959,-19.486076],[-50.962021,-19.470471]]]}},{"type":"Feature","properties":{"name":"Rio Grande do Sul","country_code":"br","country_es":"Brasil"},"geometry":{"type":"Polygon","coordinates":[[[-49.710744,-29.324975],[-49.808807,-29.442012],[-50.048079,-29.81653],[-50.314809,-30.464134],[-50.718826,-31.045417],[-51.150301,-31.482355],[-51.562163,-31.774947],[-51.860273,-31.934898],[-52.083855,-32.145564],[-52.01325,-31.950503],[-52.087778,-31.856873],[-52.052475,-31.806157],[-51.923033,-31.868577],[-51.703373,-31.794453],[-51.413108,-31.517466],[-51.244441,-31.462849],[-51.177758,-31.357516],[-51.154223,-31.068825],[-51.009091,-31.072726],[-50.958098,-30.920578],[-50.734516,-30.791838],[-50.679601,-30.643591],[-50.687446,-30.3549],[-50.605074,-30.48364],[-50.538391,-30.32369],[-50.605074,-30.19495],[-50.671756,-30.288579],[-50.899261,-30.308085],[-50.914951,-30.436826],[-51.032626,-30.378307],[-51.016936,-30.280777],[-51.232673,-30.175443],[-51.283666,-30.007691],[-51.326813,-30.226159],[-51.185603,-30.358801],[-51.291511,-30.624085],[-51.381728,-30.659196],[-51.358193,-30.881566],[-51.456256,-30.889368],[-51.487636,-31.014208],[-51.440566,-31.080529],[-51.624923,-31.135146],[-51.640613,-31.256084],[-51.923033,-31.3068],[-52.001483,-31.427738],[-52.009328,-31.646207],[-52.036785,-31.568182],[-52.095623,-31.693021],[-52.205453,-31.724231],[-52.23291,-31.88028],[-52.150538,-31.907589],[-52.236833,-31.966108],[-52.213298,-32.087046],[-52.079933,-32.032428],[-52.087778,-32.16507],[-52.252523,-32.282107],[-52.37412,-32.496675],[-52.472183,-32.800971],[-52.621237,-33.101365],[-52.817362,-33.323735],[-53.264527,-33.674846],[-53.378279,-33.741167],[-53.543024,-33.647537],[-53.444962,-33.522698],[-53.460652,-33.234007],[-53.323365,-33.062353],[-53.256682,-33.097464],[-53.162542,-32.960921],[-53.123317,-32.800971],[-52.997797,-32.824378],[-52.880122,-32.921909],[-52.73499,-32.859489],[-52.589857,-32.5786],[-52.59378,-32.492773],[-52.707532,-32.328922],[-52.65654,-32.176774],[-52.727145,-32.19628],[-52.82913,-32.348428],[-52.774215,-32.383539],[-52.98603,-32.496675],[-53.00172,-32.5786],[-53.170387,-32.660526],[-53.413582,-32.566897],[-53.648932,-32.340626],[-53.672467,-32.22749],[-53.774452,-32.048033],[-54.068639,-31.88028],[-54.135321,-31.907589],[-54.464811,-31.673515],[-54.484424,-31.583787],[-54.594254,-31.470651],[-54.821759,-31.43554],[-55.029651,-31.271689],[-55.088488,-31.326306],[-55.261078,-31.228775],[-55.355218,-31.057121],[-55.590568,-30.846455],[-55.865143,-31.076627],[-56.014198,-31.08443],[-56.010275,-30.79964],[-56.233858,-30.565566],[-56.375068,-30.487542],[-56.633952,-30.249567],[-56.834,-30.10132],[-57.077195,-30.105221],[-57.21056,-30.288579],[-57.536127,-30.272974],[-57.610654,-30.183246],[-57.504747,-30.144234],[-57.324312,-29.980382],[-57.292932,-29.81653],[-57.096807,-29.750209],[-56.6771,-29.313272],[-56.618262,-29.161124],[-56.414293,-29.051889],[-56.390758,-28.954359],[-56.30054,-28.884137],[-56.28485,-28.778803],[-56.182865,-28.743692],[-56.022043,-28.583742],[-56.010275,-28.494014],[-55.900445,-28.462804],[-55.841608,-28.345767],[-55.708243,-28.404285],[-55.665096,-28.326261],[-55.774925,-28.232631],[-55.606258,-28.115594],[-55.441513,-28.076582],[-55.315993,-27.912731],[-55.174783,-27.854212],[-55.025728,-27.838607],[-55.080643,-27.780089],[-54.911976,-27.737175],[-54.900209,-27.62404],[-54.535416,-27.487497],[-54.347136,-27.393867],[-54.288299,-27.428978],[-54.178469,-27.241719],[-54.088252,-27.284633],[-53.966654,-27.151991],[-53.841134,-27.163695],[-53.676389,-27.151991],[-53.503799,-27.191003],[-53.499877,-27.128583],[-53.370434,-27.073966],[-53.276295,-27.11688],[-53.311597,-27.194904],[-53.052712,-27.101275],[-52.974262,-27.218312],[-52.868355,-27.163695],[-52.699687,-27.272929],[-52.448648,-27.218312],[-52.381965,-27.288534],[-52.23291,-27.319744],[-52.181918,-27.269028],[-52.017173,-27.331447],[-51.90342,-27.4992],[-51.781823,-27.522608],[-51.664148,-27.479694],[-51.554318,-27.569422],[-51.456256,-27.569422],[-51.228751,-27.764484],[-51.079696,-27.819101],[-51.013013,-27.936138],[-50.883571,-28.025866],[-50.867881,-28.127298],[-50.777664,-28.154607],[-50.620764,-28.373076],[-50.216746,-28.4511],[-50.161831,-28.486211],[-49.883334,-28.4511],[-49.753892,-28.470606],[-49.702899,-28.595446],[-49.793117,-28.626655],[-49.953939,-28.794408],[-49.950017,-28.950457],[-50.004932,-29.102605],[-50.071614,-29.094803],[-50.165754,-29.196235],[-50.169676,-29.282062],[-50.052002,-29.356185],[-50.075537,-29.24305],[-49.953939,-29.196235],[-49.710744,-29.324975]]]}},{"type":"Feature","properties":{"name":"Tocantins","country_code":"br","country_es":"Brasil"},"geometry":{"type":"Polygon","coordinates":[[[-45.945147,-10.318187],[-45.827472,-10.333792],[-45.756867,-10.329891],[-45.858852,-10.470335],[-46.090279,-10.587372],[-46.302094,-10.759026],[-46.235411,-10.883866],[-46.372699,-10.969693],[-46.462916,-11.176458],[-46.568824,-11.316902],[-46.427614,-11.50026],[-46.192264,-11.543173],[-46.082434,-11.601692],[-46.102047,-11.664111],[-46.243256,-11.726531],[-46.247179,-11.843568],[-46.156962,-11.835766],[-46.078512,-11.929395],[-46.215799,-11.999617],[-46.341319,-12.128358],[-46.317784,-12.42095],[-46.160884,-12.502876],[-46.160884,-12.604308],[-46.235411,-12.795468],[-46.647274,-12.924208],[-46.827709,-13.072455],[-47.090516,-13.095863],[-47.537681,-13.298726],[-47.639666,-13.111467],[-47.722038,-13.15048],[-47.678891,-13.353344],[-48.169203,-13.177788],[-48.141745,-13.076356],[-48.365328,-13.189492],[-48.655592,-13.177788],[-48.68305,-13.337739],[-48.773267,-13.349442],[-48.769345,-13.095863],[-48.82426,-12.873493],[-48.99685,-12.748653],[-49.016462,-12.655024],[-49.13806,-12.736949],[-49.298882,-13.002233],[-49.385177,-13.24801],[-49.683287,-13.177788],[-50.240281,-12.932011],[-50.275584,-12.787665],[-50.138297,-12.479468],[-50.150064,-12.401444],[-50.350111,-12.541888],[-50.444251,-12.697937],[-50.483476,-12.842283],[-50.593306,-12.807172],[-50.667834,-12.631616],[-50.608996,-12.432654],[-50.671756,-12.190777],[-50.683524,-11.999617],[-50.652144,-11.878679],[-50.707059,-11.710926],[-50.648221,-11.605593],[-50.742361,-11.50026],[-50.612919,-11.032112],[-50.636454,-10.938483],[-50.597229,-10.657594],[-50.518779,-10.556162],[-50.428561,-10.341595],[-50.377569,-10.107521],[-50.303041,-10.021694],[-50.236359,-9.846139],[-50.150064,-9.701793],[-50.052002,-9.319473],[-49.757814,-8.921547],[-49.565612,-8.812313],[-49.381254,-8.433894],[-49.31065,-8.379277],[-49.196897,-8.059376],[-49.165517,-7.805796],[-49.31065,-7.712166],[-49.393022,-7.599031],[-49.373409,-7.5015],[-49.18513,-7.224513],[-49.220432,-6.96313],[-49.20082,-6.900711],[-49.008617,-6.779773],[-48.68305,-6.662736],[-48.6046,-6.436465],[-48.502615,-6.350638],[-48.388863,-6.362341],[-48.428088,-6.171181],[-48.282955,-6.097058],[-48.333948,-5.97612],[-48.220195,-5.9137],[-48.286878,-5.730342],[-48.141745,-5.644515],[-48.365328,-5.402639],[-48.553608,-5.410441],[-48.722275,-5.355824],[-48.608522,-5.328516],[-48.498693,-5.18417],[-48.33787,-5.164664],[-48.153513,-5.258293],[-47.996613,-5.234886],[-47.863248,-5.2778],[-47.839713,-5.383133],[-47.722038,-5.394836],[-47.537681,-5.480663],[-47.467076,-5.585997],[-47.482766,-5.742046],[-47.416083,-5.870786],[-47.427851,-6.10486],[-47.372936,-6.233601],[-47.408238,-6.479378],[-47.486688,-6.697847],[-47.514146,-7.006044],[-47.639666,-7.158192],[-47.741651,-7.193303],[-47.643588,-7.306439],[-47.510223,-7.27913],[-47.498456,-7.450784],[-47.345478,-7.657549],[-47.153276,-7.856512],[-47.015988,-8.043771],[-46.870856,-7.957944],[-46.572746,-7.907228],[-46.490374,-7.965746],[-46.462916,-8.067178],[-46.541366,-8.316857],[-46.502141,-8.398783],[-46.792406,-8.437795],[-46.882624,-8.582141],[-46.906159,-8.831819],[-47.078748,-9.034683],[-46.941461,-9.069794],[-46.847321,-9.167325],[-46.827709,-9.307769],[-46.753181,-9.409201],[-46.560979,-9.498929],[-46.537444,-9.553547],[-46.670809,-9.748608],[-46.506064,-9.857842],[-46.470761,-10.006089],[-46.349164,-10.169941],[-46.086357,-10.205052],[-45.945147,-10.318187]]]}},{"type":"Feature","properties":{"name":"Piauí","country_code":"br","country_es":"Brasil"},"geometry":{"type":"Polygon","coordinates":[[[-45.756867,-10.329891],[-45.827472,-10.333792],[-45.945147,-10.318187],[-45.952992,-10.177743],[-45.858852,-10.002188],[-45.839239,-9.53404],[-45.796092,-9.459917],[-45.894154,-9.327275],[-45.905922,-9.179029],[-45.984372,-8.92935],[-45.929457,-8.788906],[-45.819627,-8.699177],[-45.737254,-8.433894],[-45.576432,-8.153005],[-45.541129,-7.868216],[-45.474447,-7.673154],[-45.297935,-7.556117],[-45.02336,-7.489796],[-44.81939,-7.361056],[-44.713482,-7.400068],[-44.450675,-7.146488],[-44.305543,-7.111377],[-44.258473,-7.006044],[-44.038813,-6.768069],[-43.677943,-6.701748],[-43.458283,-6.842192],[-43.199398,-6.756365],[-42.979739,-6.744662],[-42.916979,-6.666637],[-42.858141,-6.483279],[-42.850296,-6.253107],[-42.964049,-6.186786],[-43.077801,-6.054144],[-43.101336,-5.621108],[-43.050343,-5.5977],[-42.830684,-5.312911],[-42.807149,-5.160763],[-42.854219,-4.934491],[-42.952281,-4.778442],[-42.952281,-4.661405],[-42.862064,-4.497554],[-42.952281,-4.392221],[-42.987584,-4.240073],[-42.736544,-3.924073],[-42.665939,-3.78753],[-42.677706,-3.701703],[-42.501194,-3.452024],[-42.458046,-3.479333],[-42.218774,-3.432518],[-42.003037,-3.233556],[-41.842214,-3.034593],[-41.842214,-2.765408],[-41.806912,-2.742001],[-41.673547,-2.878544],[-41.344057,-2.921457],[-41.249917,-3.011185],[-41.25384,-3.077506],[-41.426429,-3.319383],[-41.449964,-3.436419],[-41.355825,-3.705604],[-41.28522,-3.807036],[-41.230305,-4.045011],[-41.120475,-4.177653],[-41.073405,-4.3259],[-41.23815,-4.536566],[-41.187157,-4.914985],[-41.057715,-5.168565],[-41.069482,-5.309009],[-40.951807,-5.418244],[-40.889047,-6.011231],[-40.802752,-6.257008],[-40.771372,-6.494983],[-40.708612,-6.662736],[-40.477185,-6.736859],[-40.418348,-6.810983],[-40.57917,-7.193303],[-40.536023,-7.392266],[-40.692922,-7.431278],[-40.618395,-7.638043],[-40.65762,-7.758981],[-40.543868,-7.833105],[-40.543868,-8.032067],[-40.590938,-8.121796],[-40.747837,-8.242734],[-40.92435,-8.433894],[-41.01849,-8.42219],[-41.210692,-8.636758],[-41.371515,-8.710881],[-41.500957,-8.933251],[-41.736307,-8.980066],[-41.732384,-9.132214],[-41.850059,-9.253152],[-42.042262,-9.206337],[-42.148169,-9.296065],[-42.308991,-9.307769],[-42.489426,-9.498929],[-42.575721,-9.483324],[-42.614946,-9.56525],[-42.752234,-9.522337],[-42.850296,-9.549645],[-42.928746,-9.459917],[-43.128793,-9.37409],[-43.183708,-9.420905],[-43.379833,-9.413102],[-43.450438,-9.303868],[-43.603416,-9.335078],[-43.697556,-9.444312],[-43.811308,-9.428707],[-43.725013,-9.748608],[-43.681866,-9.803225],[-43.705401,-10.037299],[-43.913293,-10.431323],[-43.991743,-10.450829],[-44.121185,-10.587372],[-44.215325,-10.630286],[-44.419295,-10.591274],[-44.53697,-10.630286],[-44.752707,-10.782434],[-44.784087,-10.856557],[-45.042972,-10.895569],[-45.313625,-10.778533],[-45.439144,-10.618582],[-45.470524,-10.48594],[-45.603889,-10.329891],[-45.756867,-10.329891]]]}},{"type":"Feature","properties":{"name":"Alagoas","country_code":"br","country_es":"Brasil"},"geometry":{"type":"Polygon","coordinates":[[[-35.146511,-8.913745],[-35.307333,-9.194634],[-35.460311,-9.346781],[-35.695661,-9.670583],[-35.797646,-9.584756],[-35.805491,-9.733003],[-36.036918,-10.064608],[-36.252655,-10.247965],[-36.405633,-10.501545],[-36.46447,-10.407916],[-36.566455,-10.407916],[-36.62137,-10.251867],[-36.68413,-10.275274],[-36.82534,-10.216756],[-36.93517,-10.10362],[-36.943015,-10.013892],[-37.21759,-9.896855],[-37.29604,-9.803225],[-37.566692,-9.729102],[-37.994244,-9.526238],[-38.013857,-9.475522],[-38.198214,-9.413102],[-38.233516,-9.331177],[-38.092307,-9.18293],[-37.970709,-9.143918],[-37.813809,-8.976165],[-37.751049,-8.859128],[-37.684367,-8.980066],[-37.515699,-8.944955],[-37.178365,-9.241448],[-36.939092,-9.354584],[-36.829262,-9.264856],[-36.578223,-9.292164],[-36.346795,-9.198535],[-36.123213,-9.015177],[-36.013383,-8.894239],[-35.801568,-8.870831],[-35.719196,-8.917646],[-35.472078,-8.83572],[-35.393628,-8.882535],[-35.146511,-8.913745]]]}},{"type":"Feature","properties":{"name":"Paraíba","country_code":"br","country_es":"Brasil"},"geometry":{"type":"Polygon","coordinates":[[[-34.962154,-6.502785],[-34.969999,-6.615921],[-34.903316,-6.889007],[-34.860169,-6.912415],[-34.915084,-7.130883],[-34.836634,-6.990439],[-34.797409,-7.158192],[-34.817021,-7.540512],[-34.891549,-7.544414],[-35.064138,-7.407871],[-35.268108,-7.380562],[-35.374016,-7.458587],[-35.495613,-7.454685],[-35.558373,-7.653648],[-35.856483,-7.758981],[-35.86825,-7.805796],[-36.425245,-7.825302],[-36.44878,-7.911129],[-36.570378,-7.926734],[-36.660595,-8.012561],[-36.629215,-8.082783],[-36.782192,-8.219326],[-36.962627,-8.281746],[-37.127372,-8.164709],[-37.150907,-7.981351],[-37.34311,-8.000857],[-37.166597,-7.762882],[-37.197977,-7.571722],[-37.01362,-7.505401],[-37.017542,-7.403969],[-37.256815,-7.271328],[-37.437249,-7.345451],[-37.551002,-7.478093],[-37.707902,-7.548315],[-37.978554,-7.770685],[-38.151144,-7.770685],[-38.257051,-7.852611],[-38.351191,-7.700463],[-38.523781,-7.766784],[-38.696371,-7.618537],[-38.531626,-7.294735],[-38.676759,-7.158192],[-38.727751,-6.892908],[-38.617921,-6.760267],[-38.649301,-6.693946],[-38.523781,-6.381847],[-38.280586,-6.506687],[-38.131532,-6.522292],[-38.057004,-6.444267],[-37.845189,-6.342835],[-37.758894,-6.175082],[-37.260737,-6.022934],[-37.174442,-6.116564],[-37.394102,-6.38965],[-37.429405,-6.51839],[-37.507854,-6.553501],[-37.515699,-6.678341],[-37.335265,-6.697847],[-37.221512,-6.826587],[-36.986162,-6.705649],[-36.790037,-6.768069],[-36.774347,-6.931921],[-36.711587,-6.978735],[-36.5743,-6.928019],[-36.499773,-6.783674],[-36.535075,-6.635427],[-36.444858,-6.623724],[-36.515463,-6.479378],[-36.491928,-6.377946],[-36.382098,-6.303823],[-36.29188,-6.303823],[-36.252655,-6.413057],[-35.927088,-6.463773],[-35.668203,-6.424761],[-35.464233,-6.467674],[-35.307333,-6.530094],[-35.048449,-6.537897],[-34.962154,-6.502785]]]}},{"type":"Feature","properties":{"name":"Ceará","country_code":"br","country_es":"Brasil"},"geometry":{"type":"Polygon","coordinates":[[[-38.523781,-6.381847],[-38.649301,-6.693946],[-38.617921,-6.760267],[-38.727751,-6.892908],[-38.676759,-7.158192],[-38.531626,-7.294735],[-38.696371,-7.618537],[-38.817969,-7.665352],[-38.970946,-7.848709],[-39.072931,-7.856512],[-39.112156,-7.751179],[-39.245521,-7.680957],[-39.351428,-7.548315],[-39.535786,-7.474191],[-39.657383,-7.37276],[-39.849585,-7.349352],[-40.0614,-7.407871],[-40.536023,-7.392266],[-40.57917,-7.193303],[-40.418348,-6.810983],[-40.477185,-6.736859],[-40.708612,-6.662736],[-40.771372,-6.494983],[-40.802752,-6.257008],[-40.889047,-6.011231],[-40.951807,-5.418244],[-41.069482,-5.309009],[-41.057715,-5.168565],[-41.187157,-4.914985],[-41.23815,-4.536566],[-41.073405,-4.3259],[-41.120475,-4.177653],[-41.230305,-4.045011],[-41.28522,-3.807036],[-41.355825,-3.705604],[-41.449964,-3.436419],[-41.426429,-3.319383],[-41.25384,-3.077506],[-41.249917,-3.011185],[-41.273452,-2.878544],[-41.140087,-2.882445],[-40.57917,-2.827828],[-40.496798,-2.784914],[-39.98295,-2.851235],[-39.704453,-3.038494],[-39.618158,-3.038494],[-39.484793,-3.143827],[-39.359273,-3.186741],[-39.080776,-3.377901],[-38.986636,-3.397407],[-38.916031,-3.506642],[-38.806201,-3.545654],[-38.661069,-3.678296],[-38.476711,-3.697802],[-38.378649,-3.869456],[-38.249206,-3.963085],[-38.104074,-4.158147],[-37.853034,-4.372714],[-37.770662,-4.396122],[-37.711824,-4.51706],[-37.605917,-4.606788],[-37.323497,-4.696516],[-37.23328,-4.829158],[-37.543157,-4.93059],[-37.723592,-5.063232],[-37.915794,-5.461157],[-38.049159,-5.617206],[-38.127609,-5.878589],[-38.300199,-6.07365],[-38.413951,-6.061947],[-38.582619,-6.26481],[-38.606154,-6.397452],[-38.523781,-6.381847]]]}},{"type":"Feature","properties":{"name":"Sergipe","country_code":"br","country_es":"Brasil"},"geometry":{"type":"Polygon","coordinates":[[[-36.405633,-10.501545],[-36.5743,-10.552261],[-36.899867,-10.774631],[-37.041077,-10.950187],[-37.15483,-11.188162],[-37.26466,-11.27789],[-37.319575,-11.40663],[-37.429405,-11.402729],[-37.484319,-11.519766],[-37.660832,-11.558778],[-37.794197,-11.523667],[-37.849112,-11.441741],[-38.006012,-11.359816],[-37.978554,-11.238878],[-38.064849,-11.168655],[-38.107997,-11.02431],[-38.233516,-10.895569],[-38.190369,-10.716113],[-37.970709,-10.755125],[-37.782429,-10.626385],[-37.837344,-10.419619],[-37.786352,-10.302583],[-37.782429,-10.080212],[-37.962864,-9.873447],[-38.045237,-9.608164],[-37.994244,-9.526238],[-37.566692,-9.729102],[-37.29604,-9.803225],[-37.21759,-9.896855],[-36.943015,-10.013892],[-36.93517,-10.10362],[-36.82534,-10.216756],[-36.68413,-10.275274],[-36.62137,-10.251867],[-36.566455,-10.407916],[-36.46447,-10.407916],[-36.405633,-10.501545]]]}},{"type":"Feature","properties":{"name":"Roraima","country_code":"br","country_es":"Brasil"},"geometry":{"type":"Polygon","coordinates":[[[-63.388493,2.235968],[-63.384571,2.423227],[-63.831735,2.431029],[-64.047473,2.470041],[-63.99648,2.704115],[-64.10631,2.945991],[-64.223985,3.121547],[-64.243598,3.41804],[-64.204373,3.597497],[-64.322048,3.726237],[-64.52994,3.854978],[-64.663305,3.999323],[-64.81236,4.252903],[-64.745677,4.288014],[-64.5927,4.120261],[-64.365195,4.151471],[-64.122,4.08515],[-64.063163,3.909595],[-63.99648,3.882286],[-63.874883,3.952508],[-63.623843,3.936904],[-63.510091,3.854978],[-63.423796,3.968113],[-63.282586,3.921299],[-62.996243,3.597497],[-62.933483,3.562386],[-62.796196,3.597497],[-62.749126,3.659916],[-62.788351,3.897891],[-62.764816,4.018829],[-62.560846,4.038335],[-62.537311,4.128064],[-62.384334,4.174878],[-62.192131,4.092953],[-62.035232,4.159274],[-61.933247,4.14757],[-61.717509,4.252903],[-61.568454,4.249002],[-61.458624,4.420656],[-61.289957,4.447965],[-61.297802,4.525989],[-61.15267,4.490878],[-61.01146,4.518187],[-60.90163,4.701544],[-60.764342,4.756162],[-60.611365,4.900507],[-60.599597,4.998038],[-60.674125,5.212605],[-60.458388,5.173593],[-60.215193,5.267223],[-59.979843,5.087766],[-60.030835,4.728853],[-60.14851,4.514285],[-59.94454,4.506483],[-59.689578,4.381644],[-59.72488,4.17878],[-59.528756,3.929101],[-59.677811,3.70283],[-59.838633,3.6092],[-59.822943,3.363423],[-59.96023,3.066929],[-59.999455,2.692411],[-59.905315,2.458338],[-59.901393,2.360807],[-59.74057,2.263276],[-59.748415,1.849746],[-59.646431,1.838042],[-59.681733,1.763919],[-59.571903,1.728808],[-59.242413,1.377697],[-58.975683,1.315278],[-58.873699,0.222933],[-59.768028,0.230736],[-60.026913,0.222933],[-60.124975,0.129304],[-60.309333,-0.23351],[-60.391705,-0.5183],[-60.317178,-0.619732],[-60.33679,-0.705559],[-60.466233,-0.74067],[-60.513302,-0.830398],[-60.736885,-0.846003],[-60.815335,-0.686053],[-60.929087,-0.553411],[-61.109522,-0.490991],[-61.458624,-0.639238],[-61.533152,-0.728966],[-61.580222,-0.947435],[-61.560609,-1.021559],[-61.619447,-1.275139],[-61.603757,-1.419484],[-61.760657,-1.360966],[-61.878332,-1.368768],[-62.027387,-1.146398],[-62.207821,-1.044966],[-62.419636,-0.826497],[-62.505931,-0.77188],[-62.478474,-0.693855],[-62.376489,-0.717263],[-62.313729,-0.643139],[-62.368644,-0.467584],[-62.368644,-0.342745],[-62.478474,-0.221807],[-62.576536,0.016168],[-62.525544,0.094193],[-62.568691,0.176119],[-62.533389,0.429699],[-62.486319,0.538933],[-62.537311,0.733994],[-62.447094,0.804217],[-62.623606,1.412808],[-62.784429,1.603969],[-62.713824,1.73661],[-62.709901,1.947277],[-62.847189,2.0214],[-63.004088,2.0214],[-63.149221,2.177449],[-63.306121,2.161844],[-63.388493,2.235968]]]}},{"type":"Feature","properties":{"name":"Pernambuco","country_code":"br","country_es":"Brasil"},"geometry":{"type":"Polygon","coordinates":[[[-35.146511,-8.913745],[-35.393628,-8.882535],[-35.472078,-8.83572],[-35.719196,-8.917646],[-35.801568,-8.870831],[-36.013383,-8.894239],[-36.123213,-9.015177],[-36.346795,-9.198535],[-36.578223,-9.292164],[-36.829262,-9.264856],[-36.939092,-9.354584],[-37.178365,-9.241448],[-37.515699,-8.944955],[-37.684367,-8.980066],[-37.751049,-8.859128],[-37.813809,-8.976165],[-37.970709,-9.143918],[-38.092307,-9.18293],[-38.233516,-9.331177],[-38.323734,-8.987868],[-38.410029,-9.034683],[-38.512014,-8.948856],[-38.527704,-8.820116],[-38.657146,-8.968362],[-38.704216,-8.839622],[-38.853271,-8.7694],[-38.970946,-8.792807],[-39.029783,-8.734288],[-39.221986,-8.679671],[-39.288668,-8.562634],[-39.402421,-8.535326],[-39.688763,-8.656264],[-39.692686,-8.785004],[-39.896655,-8.827918],[-39.896655,-8.972263],[-40.116315,-9.104905],[-40.273215,-9.101004],[-40.32813,-9.350683],[-40.40658,-9.358485],[-40.622317,-9.487226],[-40.759605,-9.456016],[-40.689,-9.34288],[-40.70469,-9.218041],[-40.853745,-9.15172],[-40.89297,-9.038584],[-40.889047,-8.859128],[-41.1597,-8.70698],[-41.371515,-8.710881],[-41.210692,-8.636758],[-41.01849,-8.42219],[-40.92435,-8.433894],[-40.747837,-8.242734],[-40.590938,-8.121796],[-40.543868,-8.032067],[-40.543868,-7.833105],[-40.65762,-7.758981],[-40.618395,-7.638043],[-40.692922,-7.431278],[-40.536023,-7.392266],[-40.0614,-7.407871],[-39.849585,-7.349352],[-39.657383,-7.37276],[-39.535786,-7.474191],[-39.351428,-7.548315],[-39.245521,-7.680957],[-39.112156,-7.751179],[-39.072931,-7.856512],[-38.970946,-7.848709],[-38.817969,-7.665352],[-38.696371,-7.618537],[-38.523781,-7.766784],[-38.351191,-7.700463],[-38.257051,-7.852611],[-38.151144,-7.770685],[-37.978554,-7.770685],[-37.707902,-7.548315],[-37.551002,-7.478093],[-37.437249,-7.345451],[-37.256815,-7.271328],[-37.017542,-7.403969],[-37.01362,-7.505401],[-37.197977,-7.571722],[-37.166597,-7.762882],[-37.34311,-8.000857],[-37.150907,-7.981351],[-37.127372,-8.164709],[-36.962627,-8.281746],[-36.782192,-8.219326],[-36.629215,-8.082783],[-36.660595,-8.012561],[-36.570378,-7.926734],[-36.44878,-7.911129],[-36.425245,-7.825302],[-35.86825,-7.805796],[-35.856483,-7.758981],[-35.558373,-7.653648],[-35.495613,-7.454685],[-35.374016,-7.458587],[-35.268108,-7.380562],[-35.064138,-7.407871],[-34.891549,-7.544414],[-34.805254,-7.622438],[-34.848401,-7.821401],[-34.809176,-7.907228],[-34.930774,-8.242734],[-34.942541,-8.351968],[-35.126898,-8.804511],[-35.146511,-8.913745]]]}},{"type":"Feature","properties":{"name":"Paraná","country_code":"br","country_es":"Brasil"},"geometry":{"type":"Polygon","coordinates":[[[-53.660699,-26.258609],[-53.766607,-26.028437],[-53.825444,-25.969918],[-53.837212,-25.809968],[-53.911739,-25.630512],[-54.123554,-25.548586],[-54.107864,-25.501771],[-54.402051,-25.591499],[-54.460889,-25.642215],[-54.602099,-25.575894],[-54.609944,-25.431549],[-54.417741,-25.369129],[-54.453044,-25.298907],[-54.166701,-25.228685],[-54.378516,-25.205278],[-54.382439,-25.131154],[-54.280454,-25.05313],[-54.398129,-25.006315],[-54.370671,-24.854167],[-54.280454,-24.912685],[-54.327524,-24.79955],[-54.272609,-24.721525],[-54.147089,-24.717624],[-54.264764,-24.655204],[-54.280454,-24.51476],[-54.225539,-24.29239],[-54.296144,-24.163649],[-54.245151,-24.050514],[-54.076484,-23.949082],[-54.068639,-23.81644],[-53.947042,-23.426317],[-53.723459,-23.293675],[-53.645009,-23.102515],[-53.597939,-22.919157],[-53.480264,-22.829429],[-53.166465,-22.700689],[-52.946805,-22.571948],[-52.21722,-22.646071],[-52.064243,-22.521232],[-51.875963,-22.61096],[-51.546473,-22.685084],[-51.354271,-22.649973],[-51.111076,-22.767009],[-50.879649,-22.821627],[-50.785509,-22.942565],[-50.628609,-22.923059],[-50.291274,-22.954268],[-49.973552,-22.911355],[-49.910792,-23.036194],[-49.726434,-23.106416],[-49.636217,-23.258564],[-49.616604,-23.406811],[-49.651907,-23.504342],[-49.553844,-23.711107],[-49.600914,-23.863255],[-49.408712,-24.085625],[-49.228277,-24.339205],[-49.31065,-24.530365],[-49.29496,-24.666908],[-49.087067,-24.690315],[-49.02823,-24.631797],[-48.781112,-24.698118],[-48.616367,-24.678612],[-48.486925,-24.744933],[-48.54184,-24.811253],[-48.565375,-25.057031],[-48.51046,-25.084339],[-48.412398,-24.9595],[-48.22804,-25.014117],[-48.14959,-25.220882],[-48.031915,-25.228685],[-48.082908,-25.30671],[-48.208428,-25.458857],[-48.365328,-25.525178],[-48.326103,-25.228685],[-48.365328,-25.30671],[-48.455545,-25.248191],[-48.412398,-25.408141],[-48.459468,-25.470561],[-48.63598,-25.447154],[-48.737965,-25.365228],[-48.616367,-25.52908],[-48.522228,-25.513475],[-48.361405,-25.571993],[-48.435933,-25.622709],[-48.581065,-25.981622],[-49.110602,-25.993326],[-49.29496,-26.106461],[-49.593069,-26.223498],[-49.950017,-26.012832],[-50.318731,-26.055745],[-50.456019,-26.024536],[-50.648221,-26.07135],[-50.734516,-26.235202],[-50.903184,-26.278116],[-51.075773,-26.235202],[-51.252286,-26.348338],[-51.287588,-26.426362],[-51.236596,-26.605819],[-51.424876,-26.699448],[-51.503326,-26.598016],[-51.875963,-26.601918],[-52.005405,-26.582411],[-52.20153,-26.44977],[-52.64085,-26.402955],[-52.81344,-26.336634],[-53.123317,-26.367844],[-53.354744,-26.239103],[-53.456729,-26.285918],[-53.660699,-26.258609]]]}},{"type":"Feature","properties":{"name":"Espírito Santo","country_code":"br","country_es":"Brasil"},"geometry":{"type":"Polygon","coordinates":[[[-41.865749,-20.777383],[-41.810834,-20.644741],[-41.795144,-20.426272],[-41.853982,-20.367754],[-41.716694,-20.207803],[-41.406817,-20.215606],[-41.367592,-20.188297],[-41.304832,-19.950322],[-41.187157,-19.864495],[-41.155777,-19.65773],[-40.959652,-19.470471],[-40.928272,-19.294916],[-40.943962,-19.146669],[-41.04987,-19.033533],[-41.104785,-18.889188],[-41.234227,-18.854077],[-40.932195,-18.807262],[-40.92435,-18.694126],[-41.026335,-18.639509],[-40.998877,-18.45225],[-41.140087,-18.296201],[-41.057715,-18.179164],[-40.912582,-18.101139],[-40.779217,-18.093337],[-40.912582,-17.972399],[-40.669387,-17.956794],[-40.426193,-17.894374],[-40.206533,-17.980201],[-40.182998,-18.011411],[-39.673073,-18.323509],[-39.747601,-18.682423],[-39.743678,-18.900891],[-39.696608,-19.240298],[-39.708376,-19.415854],[-39.837818,-19.65773],[-40.026098,-19.763063],[-40.179075,-20.043952],[-40.241835,-20.278025],[-40.371278,-20.235112],[-40.367355,-20.320939],[-40.257525,-20.320939],[-40.351665,-20.500395],[-40.62624,-20.839802],[-40.728225,-20.843703],[-40.81452,-21.038765],[-40.963575,-21.27674],[-41.06556,-21.21432],[-41.265607,-21.233826],[-41.438197,-21.198715],[-41.712772,-21.108987],[-41.744152,-20.820296],[-41.865749,-20.777383]]]}},{"type":"Feature","properties":{"name":"Rio de Janeiro","country_code":"br","country_es":"Brasil"},"geometry":{"type":"Polygon","coordinates":[[[-44.729172,-23.352194],[-44.862537,-23.207848],[-44.8037,-23.137626],[-44.795855,-22.989379],[-44.47421,-22.848935],[-44.274163,-22.817725],[-44.164333,-22.696787],[-44.215325,-22.591454],[-44.540893,-22.618763],[-44.635032,-22.599257],[-44.77232,-22.423701],[-44.831157,-22.404195],[-44.66249,-22.369084],[-44.44283,-22.255948],[-44.219248,-22.248146],[-44.093728,-22.174023],[-43.811308,-22.064788],[-43.462206,-22.056986],[-43.344531,-22.002369],[-43.034653,-22.025776],[-42.277611,-21.713678],[-42.371751,-21.635653],[-42.297224,-21.40548],[-42.222696,-21.33916],[-42.097177,-20.921728],[-41.963812,-20.910024],[-41.865749,-20.777383],[-41.744152,-20.820296],[-41.712772,-21.108987],[-41.438197,-21.198715],[-41.265607,-21.233826],[-41.06556,-21.21432],[-40.963575,-21.27674],[-40.963575,-21.362567],[-41.069482,-21.522517],[-40.967497,-21.947751],[-40.994955,-22.014072],[-41.242072,-22.146714],[-41.665702,-22.283257],[-41.963812,-22.536837],[-41.991269,-22.700689],[-41.893207,-22.782614],[-41.991269,-22.825528],[-42.057952,-22.954268],[-42.622791,-22.938663],[-42.693396,-22.969873],[-43.030731,-22.973775],[-43.128793,-22.89575],[-43.034653,-22.774812],[-43.073878,-22.665577],[-43.270003,-22.747503],[-43.160173,-22.89575],[-43.219011,-22.993281],[-44.00351,-23.090811],[-43.603416,-23.008886],[-43.8623,-22.907454],[-43.968208,-22.923059],[-44.227093,-23.075206],[-44.08196,-23.168836],[-44.321233,-23.219552],[-44.36438,-23.164935],[-44.234938,-23.071305],[-44.242783,-22.997182],[-44.434985,-22.997182],[-44.701715,-23.106416],[-44.705637,-23.215651],[-44.509513,-23.270268],[-44.58404,-23.356095],[-44.729172,-23.352194]]]}},{"type":"Feature","properties":{"name":"Rio Grande do Norte","country_code":"br","country_es":"Brasil"},"geometry":{"type":"Polygon","coordinates":[[[-38.523781,-6.381847],[-38.606154,-6.397452],[-38.582619,-6.26481],[-38.413951,-6.061947],[-38.300199,-6.07365],[-38.127609,-5.878589],[-38.049159,-5.617206],[-37.915794,-5.461157],[-37.723592,-5.063232],[-37.543157,-4.93059],[-37.23328,-4.829158],[-37.135217,-4.93059],[-36.895945,-4.938393],[-36.790037,-5.051528],[-36.562533,-5.12175],[-36.421323,-5.082738],[-36.131058,-5.094442],[-35.997693,-5.047627],[-35.511303,-5.141257],[-35.421086,-5.211479],[-35.260263,-5.480663],[-35.150433,-5.921502],[-35.107286,-5.995626],[-35.091596,-6.186786],[-35.036681,-6.233601],[-34.962154,-6.502785],[-35.048449,-6.537897],[-35.307333,-6.530094],[-35.464233,-6.467674],[-35.668203,-6.424761],[-35.927088,-6.463773],[-36.252655,-6.413057],[-36.29188,-6.303823],[-36.382098,-6.303823],[-36.491928,-6.377946],[-36.515463,-6.479378],[-36.444858,-6.623724],[-36.535075,-6.635427],[-36.499773,-6.783674],[-36.5743,-6.928019],[-36.711587,-6.978735],[-36.774347,-6.931921],[-36.790037,-6.768069],[-36.986162,-6.705649],[-37.221512,-6.826587],[-37.335265,-6.697847],[-37.515699,-6.678341],[-37.507854,-6.553501],[-37.429405,-6.51839],[-37.394102,-6.38965],[-37.174442,-6.116564],[-37.260737,-6.022934],[-37.758894,-6.175082],[-37.845189,-6.342835],[-38.057004,-6.444267],[-38.131532,-6.522292],[-38.280586,-6.506687],[-38.523781,-6.381847]]]}},{"type":"Feature","properties":{"name":"Amazonas","country_code":"br","country_es":"Brasil"},"geometry":{"type":"Polygon","coordinates":[[[-63.388493,2.235968],[-63.306121,2.161844],[-63.149221,2.177449],[-63.004088,2.0214],[-62.847189,2.0214],[-62.709901,1.947277],[-62.713824,1.73661],[-62.784429,1.603969],[-62.623606,1.412808],[-62.447094,0.804217],[-62.537311,0.733994],[-62.486319,0.538933],[-62.533389,0.429699],[-62.568691,0.176119],[-62.525544,0.094193],[-62.576536,0.016168],[-62.478474,-0.221807],[-62.368644,-0.342745],[-62.368644,-0.467584],[-62.313729,-0.643139],[-62.376489,-0.717263],[-62.478474,-0.693855],[-62.505931,-0.77188],[-62.419636,-0.826497],[-62.207821,-1.044966],[-62.027387,-1.146398],[-61.878332,-1.368768],[-61.760657,-1.360966],[-61.603757,-1.419484],[-61.619447,-1.275139],[-61.560609,-1.021559],[-61.580222,-0.947435],[-61.533152,-0.728966],[-61.458624,-0.639238],[-61.109522,-0.490991],[-60.929087,-0.553411],[-60.815335,-0.686053],[-60.736885,-0.846003],[-60.513302,-0.830398],[-60.466233,-0.74067],[-60.33679,-0.705559],[-60.317178,-0.619732],[-60.391705,-0.5183],[-60.309333,-0.23351],[-60.124975,0.129304],[-60.026913,0.222933],[-59.768028,0.230736],[-58.873699,0.222933],[-58.854086,-0.350547],[-58.740334,-0.428572],[-58.752101,-0.619732],[-58.630504,-0.764078],[-58.442224,-0.861608],[-58.387309,-1.048867],[-58.159804,-1.236126],[-57.826392,-1.442891],[-57.653802,-1.591138],[-57.336079,-1.727681],[-57.088962,-1.809607],[-57.00659,-1.934446],[-56.73986,-2.051483],[-56.747705,-2.176322],[-56.633952,-2.223137],[-56.496665,-2.160718],[-56.398603,-2.273853],[-56.390758,-2.386989],[-56.759472,-3.18284],[-58.293169,-6.494983],[-58.465759,-6.701748],[-58.391231,-6.955328],[-58.214719,-7.107476],[-58.136269,-7.34155],[-58.206874,-7.419574],[-58.210796,-7.591228],[-58.379464,-7.821401],[-58.308859,-8.113993],[-58.340239,-8.254437],[-58.434379,-8.414388],[-58.418689,-8.543128],[-58.544209,-8.749893],[-61.611602,-8.7694],[-61.717509,-8.687474],[-61.839107,-8.745992],[-61.874409,-8.855227],[-62.133294,-8.7694],[-62.172519,-8.609449],[-62.305884,-8.570437],[-62.372566,-8.383178],[-62.541234,-8.363672],[-62.725591,-8.063277],[-62.906026,-8.00866],[-63.537548,-8.000857],[-63.592463,-8.164709],[-63.725828,-8.192018],[-63.753285,-8.285647],[-63.91803,-8.336363],[-63.992558,-8.441696],[-63.921953,-8.535326],[-63.99648,-8.679671],[-64.129845,-8.687474],[-64.118078,-8.937152],[-64.475025,-8.952757],[-64.600545,-9.022979],[-64.78098,-8.987868],[-64.926112,-9.12051],[-64.9065,-9.21414],[-65.090857,-9.43651],[-65.224222,-9.257053],[-65.420347,-9.389695],[-65.632162,-9.448213],[-65.769449,-9.56525],[-65.930272,-9.417004],[-66.397049,-9.4053],[-66.400971,-9.522337],[-66.506879,-9.635472],[-66.742229,-9.748608],[-66.828524,-9.838336],[-69.805699,-8.4534],[-70.370539,-8.156907],[-72.6652,-7.591228],[-73.806647,-7.11918],[-73.763499,-6.904612],[-73.685049,-6.810983],[-73.367327,-6.584711],[-73.19866,-6.545699],[-73.131977,-6.436465],[-73.233962,-6.077551],[-73.139822,-5.878589],[-73.002535,-5.710836],[-72.975077,-5.465059],[-72.896627,-5.269997],[-72.91624,-5.129553],[-72.625975,-5.02422],[-72.253338,-4.758936],[-72.072903,-4.602887],[-71.774793,-4.481949],[-71.664963,-4.505356],[-71.508063,-4.446838],[-71.362931,-4.458541],[-71.288403,-4.380517],[-70.970681,-4.384418],[-70.833393,-4.181554],[-70.633346,-4.119134],[-70.582354,-4.197159],[-70.433299,-4.130838],[-70.311701,-4.16985],[-70.307779,-4.259579],[-70.205794,-4.341505],[-70.158724,-4.271282],[-69.990057,-4.314196],[-69.946909,-4.20106],[-69.397759,-1.181509],[-69.452674,-0.998151],[-69.538969,-0.920127],[-69.629187,-0.732868],[-69.582117,-0.647041],[-69.633109,-0.506596],[-69.942987,-0.303732],[-70.072429,-0.124276],[-70.056739,0.589649],[-69.617419,0.652069],[-69.503667,0.730093],[-69.362457,0.640365],[-69.138875,0.648167],[-69.189867,0.714488],[-69.154565,0.870537],[-69.291852,1.03829],[-69.370302,1.061698],[-69.852769,1.061698],[-69.856692,1.7054],[-69.582117,1.76782],[-69.350689,1.721005],[-68.166095,1.721005],[-68.279848,1.826339],[-68.201398,2.005795],[-68.103335,1.923869],[-67.997428,1.748314],[-67.789535,1.814635],[-67.593411,2.05261],[-67.440433,2.138437],[-67.338448,2.091622],[-67.118788,1.709302],[-67.075641,1.541549],[-67.099176,1.252858],[-67.063873,1.170932],[-66.875593,1.221648],[-66.408816,0.800315],[-66.157776,0.730093],[-65.973419,0.808118],[-65.745914,0.971969],[-65.585092,0.975871],[-65.518409,0.862735],[-65.585092,0.741797],[-65.561557,0.65597],[-65.451727,0.691081],[-65.330129,0.90955],[-65.20461,0.925155],[-65.134005,1.128019],[-65.020252,1.139722],[-64.839817,1.268463],[-64.729987,1.245055],[-64.553475,1.420611],[-64.408343,1.506438],[-64.396575,1.393302],[-64.129845,1.580561],[-64.078853,1.646882],[-64.051395,1.896561],[-63.99648,1.95898],[-63.765053,1.986289],[-63.615998,2.099425],[-63.412028,2.146239],[-63.388493,2.235968]]]}},{"type":"Feature","properties":{"name":"Mato Grosso","country_code":"br","country_es":"Brasil"},"geometry":{"type":"Polygon","coordinates":[[[-58.136269,-7.34155],[-58.061742,-7.411772],[-57.893074,-7.69266],[-57.779322,-8.043771],[-57.642034,-8.23103],[-57.681259,-8.433894],[-57.579274,-8.757696],[-57.481212,-8.792807],[-57.300777,-8.956659],[-57.104652,-9.054189],[-57.045815,-9.229745],[-56.837922,-9.272658],[-56.77124,-9.397497],[-56.6771,-9.377991],[-56.461363,-9.46772],[-55.092411,-9.56525],[-51.299356,-9.791522],[-50.236359,-9.846139],[-50.303041,-10.021694],[-50.377569,-10.107521],[-50.428561,-10.341595],[-50.518779,-10.556162],[-50.597229,-10.657594],[-50.636454,-10.938483],[-50.612919,-11.032112],[-50.742361,-11.50026],[-50.648221,-11.605593],[-50.707059,-11.710926],[-50.652144,-11.878679],[-50.683524,-11.999617],[-50.671756,-12.190777],[-50.608996,-12.432654],[-50.667834,-12.631616],[-50.593306,-12.807172],[-50.483476,-12.842283],[-50.495244,-12.951517],[-50.585461,-13.080258],[-50.569771,-13.228504],[-50.663911,-13.423566],[-50.758051,-13.540603],[-50.797276,-13.677146],[-50.863959,-13.712257],[-50.856114,-14.10238],[-50.922796,-14.121886],[-50.997323,-14.398873],[-50.969866,-14.51591],[-51.103231,-14.886527],[-51.173836,-14.976255],[-51.318968,-14.956749],[-51.515093,-15.065983],[-51.656303,-15.210329],[-51.679838,-15.378082],[-51.883808,-15.803316],[-52.2486,-15.91255],[-52.32705,-16.037389],[-52.538865,-16.170031],[-52.534943,-16.224648],[-52.668307,-16.290969],[-52.617315,-16.423611],[-52.633005,-16.528944],[-52.809517,-16.743512],[-53.021332,-16.868351],[-53.044867,-17.059511],[-53.201767,-17.281881],[-53.240992,-17.56277],[-53.056635,-18.019214],[-53.307675,-17.995806],[-53.727382,-18.00751],[-53.990189,-17.902177],[-53.856824,-17.687609],[-53.750917,-17.640794],[-53.684234,-17.254573],[-53.821522,-17.305289],[-53.950964,-17.457437],[-54.143166,-17.625189],[-54.394206,-17.672004],[-54.421664,-17.578375],[-54.527571,-17.515955],[-54.696239,-17.515955],[-54.900209,-17.648597],[-55.182628,-17.683708],[-55.535653,-17.50035],[-55.610181,-17.395017],[-55.786693,-17.352103],[-56.100493,-17.188252],[-56.249548,-17.219462],[-56.327998,-17.285783],[-56.75555,-17.320894],[-56.853612,-17.484745],[-56.967365,-17.574474],[-56.979132,-17.660301],[-57.13211,-17.78514],[-57.418452,-17.863164],[-57.602809,-17.81635],[-57.724407,-17.734424],[-57.791089,-17.554967],[-58.010749,-17.496449],[-58.230409,-17.328696],[-58.379464,-17.270178],[-58.465759,-16.887857],[-58.477526,-16.684993],[-58.355929,-16.509438],[-58.340239,-16.287068],[-58.461836,-16.333883],[-60.13282,-16.271463],[-60.17989,-16.220747],[-60.238728,-15.502921],[-60.583907,-15.097193],[-60.27403,-15.097193],[-60.28972,-14.629046],[-60.466233,-14.277935],[-60.466233,-14.10238],[-60.387783,-13.989244],[-60.474078,-13.798084],[-60.725117,-13.661541],[-60.38386,-13.419665],[-60.270108,-13.068554],[-60.19558,-12.974924],[-60.081828,-12.92811],[-59.999455,-12.729147],[-59.909238,-12.616011],[-59.822943,-12.385839],[-59.889625,-12.245395],[-59.889625,-12.128358],[-59.983765,-11.917691],[-60.058293,-11.905988],[-60.10144,-11.597791],[-59.91316,-11.383223],[-60.003378,-11.145248],[-60.277953,-11.082828],[-60.379938,-11.102335],[-60.442698,-11.000903],[-61.470392,-10.997001],[-61.521384,-10.954088],[-61.470392,-10.435224],[-61.564532,-10.259669],[-61.568454,-10.060706],[-61.521384,-9.861744],[-61.564532,-9.729102],[-61.482159,-9.635472],[-61.611602,-9.319473],[-61.533152,-9.225843],[-61.556687,-9.132214],[-61.486082,-8.913745],[-61.611602,-8.7694],[-58.544209,-8.749893],[-58.418689,-8.543128],[-58.434379,-8.414388],[-58.340239,-8.254437],[-58.308859,-8.113993],[-58.379464,-7.821401],[-58.210796,-7.591228],[-58.206874,-7.419574],[-58.136269,-7.34155]]]}},{"type":"Feature","properties":{"name":"Distrito Federal","country_code":"br","country_es":"Brasil"},"geometry":{"type":"Polygon","coordinates":[[[-47.302331,-16.041291],[-48.18097,-16.041291],[-48.279033,-15.838427],[-48.204505,-15.736995],[-48.239808,-15.694081],[-48.177048,-15.491217],[-47.423928,-15.49902],[-47.306253,-15.588748],[-47.357246,-15.986673],[-47.302331,-16.041291]]]}},{"type":"Feature","properties":{"name":"Acre","country_code":"br","country_es":"Brasil"},"geometry":{"type":"Polygon","coordinates":[[[-66.652011,-9.916361],[-66.903051,-10.091916],[-67.063873,-10.255768],[-67.201161,-10.329891],[-67.338448,-10.32599],[-67.491426,-10.466434],[-67.585566,-10.501545],[-67.722853,-10.704409],[-67.864063,-10.661496],[-68.099413,-10.696607],[-68.295538,-10.977495],[-68.617182,-11.114038],[-68.789772,-11.125742],[-68.758392,-11.012606],[-69.397759,-10.934582],[-69.719404,-10.965791],[-69.954754,-10.918977],[-70.288166,-11.063322],[-70.437221,-11.036014],[-70.531361,-10.938483],[-70.641191,-11.012606],[-70.637269,-9.853941],[-70.543129,-9.725201],[-70.625501,-9.56525],[-70.527439,-9.432608],[-70.876541,-9.662781],[-71.013828,-9.81883],[-71.158961,-9.877349],[-71.198186,-9.939768],[-71.390388,-10.006089],[-72.1945,-10.006089],[-72.159198,-9.889052],[-72.265105,-9.764213],[-72.308253,-9.541843],[-72.42985,-9.483324],[-72.814255,-9.413102],[-73.21435,-9.409201],[-72.959387,-9.085399],[-72.975077,-8.983967],[-73.175125,-8.722585],[-73.351637,-8.597745],[-73.355559,-8.480709],[-73.528149,-8.375375],[-73.669359,-8.012561],[-73.779189,-7.954043],[-73.794879,-7.872117],[-73.712507,-7.790191],[-73.838027,-7.719969],[-74.018461,-7.544414],[-73.900787,-7.37276],[-73.712507,-7.302537],[-73.806647,-7.11918],[-72.6652,-7.591228],[-70.370539,-8.156907],[-69.805699,-8.4534],[-66.828524,-9.838336],[-66.652011,-9.916361]]]}},{"type":"Feature","properties":{"name":"Rondônia","country_code":"br","country_es":"Brasil"},"geometry":{"type":"Polygon","coordinates":[[[-60.725117,-13.661541],[-60.893785,-13.556208],[-61.023227,-13.536701],[-61.046762,-13.462578],[-61.148747,-13.517195],[-61.348794,-13.493788],[-61.458624,-13.540603],[-61.588067,-13.505492],[-61.850874,-13.528899],[-62.003852,-13.361146],[-62.172519,-13.115369],[-62.427481,-13.127072],[-62.458861,-13.080258],[-62.643219,-13.029542],[-62.686366,-12.963221],[-62.807964,-12.986628],[-62.925638,-12.846184],[-62.976631,-12.853986],[-63.074693,-12.651122],[-63.235516,-12.697937],[-63.396338,-12.666727],[-63.498323,-12.553592],[-63.655223,-12.475567],[-63.800355,-12.456061],[-63.91803,-12.541888],[-64.145535,-12.522382],[-64.21614,-12.471666],[-64.396575,-12.459962],[-64.490715,-12.374135],[-64.471102,-12.261],[-64.714297,-12.147864],[-64.792747,-12.030827],[-64.996717,-11.995716],[-65.067322,-11.75384],[-65.196765,-11.742136],[-65.2203,-11.519766],[-65.294827,-11.504161],[-65.392889,-11.15305],[-65.302672,-10.989199],[-65.318362,-10.868261],[-65.396812,-10.813644],[-65.381122,-10.696607],[-65.436037,-10.626385],[-65.408579,-10.446928],[-65.286982,-10.216756],[-65.334052,-9.928065],[-65.302672,-9.826633],[-65.369354,-9.709596],[-65.451727,-9.682287],[-65.585092,-9.838336],[-65.710612,-9.75641],[-66.193079,-9.803225],[-66.451964,-9.889052],[-66.652011,-9.916361],[-66.828524,-9.838336],[-66.742229,-9.748608],[-66.506879,-9.635472],[-66.400971,-9.522337],[-66.397049,-9.4053],[-65.930272,-9.417004],[-65.769449,-9.56525],[-65.632162,-9.448213],[-65.420347,-9.389695],[-65.224222,-9.257053],[-65.090857,-9.43651],[-64.9065,-9.21414],[-64.926112,-9.12051],[-64.78098,-8.987868],[-64.600545,-9.022979],[-64.475025,-8.952757],[-64.118078,-8.937152],[-64.129845,-8.687474],[-63.99648,-8.679671],[-63.921953,-8.535326],[-63.992558,-8.441696],[-63.91803,-8.336363],[-63.753285,-8.285647],[-63.725828,-8.192018],[-63.592463,-8.164709],[-63.537548,-8.000857],[-62.906026,-8.00866],[-62.725591,-8.063277],[-62.541234,-8.363672],[-62.372566,-8.383178],[-62.305884,-8.570437],[-62.172519,-8.609449],[-62.133294,-8.7694],[-61.874409,-8.855227],[-61.839107,-8.745992],[-61.717509,-8.687474],[-61.611602,-8.7694],[-61.486082,-8.913745],[-61.556687,-9.132214],[-61.533152,-9.225843],[-61.611602,-9.319473],[-61.482159,-9.635472],[-61.564532,-9.729102],[-61.521384,-9.861744],[-61.568454,-10.060706],[-61.564532,-10.259669],[-61.470392,-10.435224],[-61.521384,-10.954088],[-61.470392,-10.997001],[-60.442698,-11.000903],[-60.379938,-11.102335],[-60.277953,-11.082828],[-60.003378,-11.145248],[-59.91316,-11.383223],[-60.10144,-11.597791],[-60.058293,-11.905988],[-59.983765,-11.917691],[-59.889625,-12.128358],[-59.889625,-12.245395],[-59.822943,-12.385839],[-59.909238,-12.616011],[-59.999455,-12.729147],[-60.081828,-12.92811],[-60.19558,-12.974924],[-60.270108,-13.068554],[-60.38386,-13.419665],[-60.725117,-13.661541]]]}}]}