{"type":"FeatureCollection","features":[{"type":"Feature","id":"BZ.BZ","properties":{"name":"Belize","country_code":"bz","country_es":"Belice","hc_key":"bz-bz"},"geometry":{"type":"MultiPolygon","coordinates":[[[[479.6,494.7],[479.6,484.9],[476.8,484.9],[476.9,490.6],[473.1,488.7],[471.2,484.9],[471.6,510.1],[470.3,520.6],[465.9,525.0],[470.9,529.4],[475.5,521.9],[482.1,501.9],[479.6,494.7]]],[[[370.7,573.4],[374.4,567.9],[370.6,555.6],[367.9,556.0],[366.1,569.9],[359.5,571.1],[354.7,577.3],[357.4,581.5],[363.4,579.1],[370.7,573.4]]],[[[485.7,584.6],[488.1,576.3],[486.5,570.0],[478.1,553.8],[468.7,539.6],[462.9,535.8],[455.0,542.1],[450.9,535.3],[441.2,526.4],[438.3,516.3],[435.7,497.7],[430.8,485.3],[430.4,479.4],[424.7,485.1],[427.5,490.8],[428.5,499.6],[432.3,514.3],[434.3,534.2],[437.5,540.8],[449.6,550.6],[457.8,559.1],[461.9,559.4],[472.8,556.2],[476.7,559.8],[479.8,567.9],[480.5,576.7],[477.2,582.0],[469.1,576.0],[466.3,579.0],[470.4,590.3],[480.8,588.7],[485.7,584.6]]],[[[384.1,593.8],[381.4,593.8],[376.0,607.8],[371.0,630.8],[376.4,626.1],[380.3,616.0],[384.1,593.8]]],[[[348.1,643.5],[335.1,642.4],[337.9,648.1],[346.3,651.9],[369.0,667.3],[373.6,669.3],[369.9,655.8],[360.5,647.6],[348.1,643.5]]],[[[414.5,810.1],[410.1,809.4],[409.0,812.0],[411.9,816.1],[417.4,818.5],[417.7,813.0],[414.5,810.1]]],[[[425.8,818.5],[421.1,816.4],[420.0,820.2],[424.8,824.5],[426.9,829.0],[428.1,822.9],[425.8,818.5]]],[[[463.7,844.4],[463.0,835.1],[457.7,830.3],[454.7,825.6],[446.5,803.3],[442.6,795.8],[437.2,798.9],[434.6,791.5],[429.0,787.6],[431.9,778.8],[435.6,784.2],[437.1,790.4],[439.6,790.4],[436.4,772.4],[428.5,755.9],[416.0,743.8],[398.8,739.2],[398.8,742.0],[404.2,742.0],[418.8,752.3],[424.0,759.6],[426.1,770.3],[419.9,770.0],[421.6,782.9],[429.1,808.9],[433.7,814.1],[434.8,821.4],[440.8,843.3],[444.7,847.0],[451.0,844.3],[459.8,850.1],[463.7,844.4]]],[[[453.1,863.8],[451.4,857.5],[447.6,852.6],[445.4,854.6],[446.5,861.7],[449.0,866.6],[453.1,863.8]]],[[[289.3,768.9],[336.0,763.5],[336.0,763.5],[319.3,731.1],[321.7,720.4],[316.6,685.8],[306.7,651.5],[303.4,644.5],[293.0,632.2],[288.8,624.6],[286.9,615.7],[288.6,605.8],[293.4,600.7],[307.5,593.3],[310.5,587.0],[314.3,583.5],[331.0,580.5],[334.7,577.1],[329.8,569.0],[319.5,569.2],[309.3,570.8],[304.7,567.0],[303.6,560.6],[286.7,505.6],[282.6,463.4],[280.6,438.3],[283.3,429.5],[284.9,420.8],[279.6,415.3],[265.6,409.8],[159.5,408.7],[168.5,411.9],[171.5,414.3],[176.5,423.0],[181.4,437.5],[181.2,445.9],[177.9,453.9],[172.9,462.6],[173.6,477.9],[170.2,560.9],[167.8,569.1],[164.5,567.4],[159.6,558.1],[150.2,554.2],[145.7,614.6],[146.1,622.1],[151.4,636.6],[156.0,643.7],[175.1,651.6],[177.2,656.2],[174.8,663.8],[175.9,676.6],[174.8,692.5],[177.4,703.5],[177.5,708.9],[175.6,720.0],[179.5,735.0],[200.7,746.8],[289.3,768.9]]]]}},{"type":"Feature","id":"BZ.CZ","properties":{"name":"Corozal","country_code":"bz","country_es":"Belice","hc_key":"bz-cz"},"geometry":{"type":"Polygon","coordinates":[[[289.3,768.9],[234.9,818.9],[206.3,858.5],[188.2,872.0],[163.0,883.4],[158.9,884.3],[161.6,899.4],[165.5,906.1],[177.9,920.1],[182.9,927.9],[186.0,943.2],[189.6,953.2],[191.9,965.7],[197.0,973.3],[209.4,982.7],[221.1,979.0],[224.6,979.4],[239.6,985.1],[248.5,978.8],[256.2,981.2],[280.8,981.3],[289.8,973.1],[281.9,962.9],[251.0,941.0],[248.1,935.0],[252.6,928.5],[258.2,928.1],[277.3,936.6],[271.3,924.1],[259.8,909.0],[264.0,907.2],[267.6,909.7],[274.3,917.2],[287.6,926.6],[293.8,929.5],[300.4,930.7],[309.3,929.4],[320.8,923.7],[326.0,922.0],[334.5,923.2],[346.5,931.5],[360.3,935.6],[367.1,934.7],[366.3,928.8],[364.0,925.0],[356.1,919.0],[347.0,915.1],[345.1,908.8],[351.4,909.3],[354.4,914.2],[361.8,918.2],[365.6,918.9],[366.9,916.6],[369.8,867.4],[366.4,829.2],[365.1,822.7],[359.5,812.8],[358.1,806.3],[342.9,768.2],[336.1,763.6],[336.0,763.5],[289.3,768.9]]]}},{"type":"Feature","id":"BZ.CY","properties":{"name":"Cayo","country_code":"bz","country_es":"Belice","hc_key":"bz-cy"},"geometry":{"type":"Polygon","coordinates":[[[150.2,554.2],[159.6,558.1],[164.5,567.4],[167.8,569.1],[170.2,560.9],[173.6,477.9],[172.9,462.6],[177.9,453.9],[181.2,445.9],[181.4,437.5],[176.5,423.0],[171.5,414.3],[168.5,411.9],[159.5,408.7],[158.1,404.6],[165.3,391.6],[173.5,383.8],[173.3,380.3],[167.8,375.1],[161.2,360.0],[156.1,351.8],[149.5,346.6],[146.7,341.9],[134.6,328.7],[132.5,303.8],[123.9,297.5],[123.5,294.6],[128.8,290.8],[130.1,287.8],[112.3,282.5],[108.2,279.2],[97.0,262.3],[90.3,248.3],[87.9,240.1],[89.2,233.0],[79.3,231.1],[71.4,222.3],[70.0,218.6],[72.0,209.4],[70.8,205.1],[62.7,196.9],[56.1,192.0],[48.3,188.9],[33.8,178.6],[22.5,175.8],[16.6,170.0],[15.4,163.9],[-0.5,158.0],[-4.5,157.6],[-12.9,164.0],[-24.8,152.6],[-30.6,149.1],[-47.1,146.8],[-61.3,141.1],[-66.2,136.0],[-68.6,129.6],[-75.7,121.3],[-80.2,114.6],[-76.2,157.6],[-59.7,382.4],[-59.0,501.0],[-46.8,510.8],[-30.1,521.6],[-20.0,523.8],[-13.6,521.7],[32.9,526.5],[42.6,531.1],[47.9,537.7],[50.6,538.6],[63.7,536.9],[83.0,537.5],[93.8,536.9],[102.9,538.0],[110.0,540.5],[121.9,548.2],[133.3,551.4],[144.5,556.1],[150.2,554.2]]]}},{"type":"Feature","id":"BZ.OW","properties":{"name":"Orange Walk","country_code":"bz","country_es":"Belice","hc_key":"bz-ow"},"geometry":{"type":"Polygon","coordinates":[[[289.3,768.9],[200.7,746.8],[179.5,735.0],[175.6,720.0],[177.5,708.9],[177.4,703.5],[174.8,692.5],[175.9,676.6],[174.8,663.8],[177.2,656.2],[175.1,651.6],[156.0,643.7],[151.4,636.6],[146.1,622.1],[145.7,614.6],[150.2,554.2],[144.5,556.1],[133.3,551.4],[121.9,548.2],[110.0,540.5],[102.9,538.0],[93.8,536.9],[83.0,537.5],[63.7,536.9],[50.6,538.6],[47.9,537.7],[42.6,531.1],[32.9,526.5],[-13.6,521.7],[-20.0,523.8],[-30.1,521.6],[-46.8,510.8],[-59.0,501.0],[-60.5,706.4],[-60.5,742.7],[-57.3,759.1],[-48.6,771.2],[-15.4,782.9],[-6.9,779.8],[5.5,767.1],[12.1,761.8],[25.2,761.3],[30.5,749.5],[35.6,745.6],[51.5,736.0],[57.5,740.4],[59.4,749.6],[61.2,752.5],[81.7,767.6],[85.5,772.0],[93.3,792.0],[99.2,796.9],[109.5,803.5],[113.5,809.7],[117.2,827.7],[127.2,844.2],[128.6,848.9],[125.8,855.9],[137.2,864.2],[148.9,869.6],[153.7,873.2],[157.7,879.5],[158.9,884.3],[163.0,883.4],[188.2,872.0],[206.3,858.5],[234.9,818.9],[289.3,768.9]]]}},{"type":"Feature","id":"BZ.SC","properties":{"name":"Stann Creek","country_code":"bz","country_es":"Belice","hc_key":"bz-sc"},"geometry":{"type":"Polygon","coordinates":[[[89.2,233.0],[87.9,240.1],[90.3,248.3],[97.0,262.3],[108.2,279.2],[112.3,282.5],[130.1,287.8],[128.8,290.8],[123.5,294.6],[123.9,297.5],[132.5,303.8],[134.6,328.7],[146.7,341.9],[149.5,346.6],[156.1,351.8],[161.2,360.0],[167.8,375.1],[173.3,380.3],[173.5,383.8],[165.3,391.6],[158.1,404.6],[159.5,408.7],[265.6,409.8],[279.6,415.3],[284.9,420.8],[288.8,402.3],[301.1,397.2],[305.9,390.9],[309.2,382.8],[311.0,373.7],[312.0,360.5],[314.2,350.4],[313.2,345.6],[303.2,343.2],[293.3,332.9],[288.7,325.7],[286.7,319.0],[288.4,311.4],[296.1,299.0],[297.7,291.8],[300.8,288.8],[298.9,286.0],[291.9,286.5],[284.7,279.9],[283.0,274.1],[279.0,269.3],[278.5,260.0],[280.7,249.3],[276.8,219.9],[274.3,215.4],[266.7,206.5],[258.4,177.0],[261.0,166.6],[256.4,159.1],[253.7,158.8],[252.5,165.3],[265.4,212.5],[272.2,219.6],[274.8,223.8],[264.2,218.4],[253.2,191.2],[244.4,181.1],[252.6,178.0],[247.8,176.0],[241.7,178.0],[243.5,172.6],[249.8,172.3],[249.8,169.7],[242.5,162.7],[242.8,155.5],[238.1,157.4],[237.1,160.6],[231.4,161.3],[223.1,160.0],[197.4,161.8],[193.8,161.4],[177.5,163.8],[175.1,164.9],[177.4,169.3],[179.0,184.9],[170.2,200.6],[163.7,208.4],[165.1,217.7],[159.8,226.7],[145.9,234.6],[130.9,237.2],[100.8,236.7],[89.2,233.0]]]}},{"type":"Feature","id":"BZ.TO","properties":{"name":"Toledo","country_code":"bz","country_es":"Belice","hc_key":"bz-to"},"geometry":{"type":"Polygon","coordinates":[[[242.8,155.5],[244.2,152.4],[236.6,146.8],[228.3,130.4],[220.7,127.0],[219.3,112.8],[213.5,112.9],[208.0,107.2],[202.7,94.8],[198.0,91.1],[187.3,77.3],[183.0,66.4],[183.5,62.9],[171.1,59.7],[168.3,57.1],[166.4,50.5],[166.5,67.8],[163.8,67.8],[160.9,58.8],[155.3,57.5],[149.8,61.0],[145.8,68.7],[137.6,68.0],[137.2,59.2],[133.1,55.5],[119.5,53.7],[112.4,48.5],[101.3,45.2],[99.5,38.7],[100.3,22.6],[98.7,13.9],[94.9,7.6],[89.2,3.8],[80.1,1.5],[75.7,-4.3],[73.8,-11.5],[64.0,-17.2],[55.6,-25.6],[53.8,-38.4],[43.2,-41.4],[29.5,-51.0],[24.9,-56.6],[23.4,-66.9],[31.6,-84.3],[30.0,-94.1],[14.7,-99.9],[-20.8,-90.4],[-33.7,-90.3],[-45.3,-92.2],[-76.1,-90.4],[-87.1,-93.6],[-96.6,-98.3],[-99.9,-92.8],[-98.7,-67.4],[-87.3,28.7],[-80.2,114.6],[-75.7,121.3],[-68.6,129.6],[-66.2,136.0],[-61.3,141.1],[-47.1,146.8],[-30.6,149.1],[-24.8,152.6],[-12.9,164.0],[-4.5,157.6],[-0.5,158.0],[15.4,163.9],[16.6,170.0],[22.5,175.8],[33.8,178.6],[48.3,188.9],[56.1,192.0],[62.7,196.9],[70.8,205.1],[72.0,209.4],[70.0,218.6],[71.4,222.3],[79.3,231.1],[89.2,233.0],[100.8,236.7],[130.9,237.2],[145.9,234.6],[159.8,226.7],[165.1,217.7],[163.7,208.4],[170.2,200.6],[179.0,184.9],[177.4,169.3],[175.1,164.9],[177.5,163.8],[193.8,161.4],[197.4,161.8],[223.1,160.0],[231.4,161.3],[237.1,160.6],[238.1,157.4],[242.8,155.5]]]}}]}