{"type":"FeatureCollection","features":[{"type":"Feature","id":"CL.2730","properties":{"name":"La Araucanía","country_code":"cl","country_es":"Chile","hc_key":"cl-2730"},"geometry":{"type":"MultiPolygon","coordinates":[[[[-78.0,392.7],[-79.3,393.8],[-79.6,395.4],[-77.9,394.2],[-78.0,392.7]]],[[[-14.3,402.7],[-14.2,399.3],[-13.2,394.8],[-12.6,393.8],[-10.3,391.9],[-10.0,390.3],[-11.0,388.6],[-10.8,387.3],[-12.8,385.6],[-14.6,385.6],[-16.9,384.1],[-18.5,383.8],[-19.7,382.6],[-21.6,381.5],[-22.6,380.1],[-22.9,377.5],[-22.4,375.4],[-22.1,371.6],[-22.4,368.6],[-23.6,367.4],[-23.2,366.0],[-24.9,363.2],[-23.9,362.3],[-24.4,360.8],[-26.1,360.7],[-27.0,361.2],[-28.0,364.1],[-29.5,365.2],[-30.6,364.9],[-33.4,358.5],[-34.6,357.3],[-36.2,356.8],[-39.5,356.7],[-41.1,357.5],[-42.9,356.9],[-44.3,358.6],[-46.8,359.9],[-52.1,360.7],[-56.0,360.4],[-56.3,361.2],[-55.7,365.6],[-56.1,366.4],[-57.8,366.7],[-60.1,365.9],[-62.4,365.9],[-61.9,367.2],[-62.3,369.8],[-63.6,374.6],[-65.6,379.1],[-67.5,385.5],[-67.2,382.9],[-67.9,384.1],[-69.6,390.0],[-69.8,391.3],[-66.8,392.8],[-65.9,392.8],[-64.6,391.3],[-64.1,392.4],[-64.7,394.4],[-64.6,395.7],[-63.1,397.2],[-60.6,401.3],[-60.8,402.4],[-62.3,403.8],[-61.8,408.2],[-60.3,410.6],[-60.4,411.7],[-61.5,413.4],[-60.5,415.2],[-58.5,414.8],[-55.5,415.8],[-52.3,415.7],[-48.0,414.8],[-47.2,412.6],[-44.3,409.6],[-41.3,408.4],[-38.3,405.6],[-35.9,406.1],[-34.2,405.0],[-30.9,405.2],[-30.0,404.3],[-30.6,403.4],[-29.9,402.6],[-29.3,400.2],[-28.4,399.4],[-27.5,400.3],[-24.2,402.0],[-22.6,404.0],[-20.6,404.9],[-18.5,404.7],[-15.2,403.4],[-14.3,402.7]]]]}},{"type":"Feature","id":"CL.BI","properties":{"name":"Bío-Bío","country_code":"cl","country_es":"Chile","hc_key":"cl-bi"},"geometry":{"type":"MultiPolygon","coordinates":[[[[-70.5,432.1],[-71.6,430.8],[-72.4,432.2],[-71.7,432.9],[-70.5,432.1]]],[[[-15.5,449.6],[-16.3,448.5],[-16.4,446.2],[-16.0,444.3],[-16.4,443.5],[-18.1,443.7],[-18.2,441.7],[-19.1,439.4],[-17.8,436.7],[-18.3,435.6],[-17.7,433.2],[-16.6,432.0],[-17.8,430.6],[-17.8,428.9],[-19.1,426.6],[-18.8,425.2],[-17.1,422.4],[-17.5,419.6],[-17.2,418.3],[-18.4,417.2],[-18.3,415.0],[-16.0,408.4],[-14.2,404.9],[-14.3,402.7],[-15.2,403.4],[-18.5,404.7],[-20.6,404.9],[-22.6,404.0],[-24.2,402.0],[-27.5,400.3],[-28.4,399.4],[-29.3,400.2],[-29.9,402.6],[-30.6,403.4],[-30.0,404.3],[-30.9,405.2],[-34.2,405.0],[-35.9,406.1],[-38.3,405.6],[-41.3,408.4],[-44.3,409.6],[-47.2,412.6],[-48.0,414.8],[-52.3,415.7],[-55.5,415.8],[-58.5,414.8],[-60.5,415.2],[-61.5,413.4],[-60.4,411.7],[-60.3,410.6],[-61.8,408.2],[-62.3,403.8],[-60.8,402.4],[-60.6,401.3],[-63.1,397.2],[-64.6,395.7],[-64.7,394.4],[-64.1,392.4],[-64.6,391.3],[-65.9,392.8],[-66.8,392.8],[-69.8,391.3],[-70.3,392.9],[-69.7,395.8],[-70.0,397.2],[-69.2,398.7],[-68.9,402.3],[-69.2,404.5],[-70.1,406.7],[-73.0,411.5],[-74.0,412.5],[-74.6,415.3],[-74.5,416.5],[-72.9,418.5],[-73.2,421.3],[-74.6,422.6],[-74.2,425.3],[-74.2,427.2],[-73.5,428.6],[-70.2,426.5],[-68.7,426.5],[-66.0,427.2],[-64.4,428.8],[-63.7,431.2],[-64.0,433.7],[-63.5,434.8],[-63.4,438.1],[-64.9,439.7],[-63.1,441.4],[-63.1,444.8],[-62.5,444.3],[-61.8,441.6],[-60.3,441.7],[-59.4,444.3],[-60.2,446.9],[-58.8,447.5],[-56.9,453.3],[-57.2,456.9],[-56.6,458.0],[-56.9,459.1],[-56.4,460.5],[-54.1,461.7],[-49.5,460.6],[-48.9,460.2],[-39.2,459.1],[-33.0,456.8],[-32.1,456.7],[-23.9,452.5],[-20.7,451.3],[-17.4,451.8],[-16.5,451.4],[-15.5,449.6]]]]}},{"type":"Feature","id":"CL.LL","properties":{"name":"Los Lagos","country_code":"cl","country_es":"Chile","hc_key":"cl-ll"},"geometry":{"type":"MultiPolygon","coordinates":[[[[-65.4,256.8],[-66.9,257.1],[-66.8,258.1],[-65.6,257.7],[-65.4,256.8]]],[[[-60.3,264.4],[-59.9,263.9],[-61.6,263.7],[-62.8,264.6],[-65.1,265.1],[-64.6,265.8],[-60.3,264.4]]],[[[-52.3,271.5],[-51.2,271.9],[-50.9,270.1],[-51.6,269.5],[-53.4,272.0],[-52.6,272.5],[-52.3,271.5]]],[[[-65.5,274.0],[-67.8,273.5],[-68.6,274.5],[-65.8,275.5],[-65.5,274.0]]],[[[-61.7,276.2],[-62.8,277.6],[-66.1,279.1],[-66.7,281.0],[-64.5,281.0],[-63.9,279.7],[-61.7,277.2],[-61.7,276.2]]],[[[-54.7,284.3],[-56.2,283.2],[-56.3,284.2],[-55.5,285.3],[-54.7,284.3]]],[[[-43.1,288.8],[-45.2,289.5],[-44.6,291.0],[-43.2,290.6],[-43.1,288.8]]],[[[-54.0,296.3],[-55.4,296.4],[-55.8,299.3],[-55.1,299.4],[-54.0,296.3]]],[[[-30.9,333.9],[-31.1,331.5],[-32.8,329.3],[-31.8,325.7],[-30.4,323.2],[-30.7,321.5],[-30.3,319.9],[-30.6,314.4],[-31.1,311.1],[-30.5,309.1],[-30.7,307.3],[-29.9,305.5],[-31.3,303.8],[-31.3,303.0],[-30.0,301.3],[-29.7,299.3],[-28.3,297.0],[-27.9,293.7],[-27.0,292.4],[-26.9,290.9],[-28.2,289.6],[-31.3,288.4],[-31.9,289.6],[-33.2,289.0],[-33.6,287.5],[-34.9,285.6],[-34.8,284.2],[-33.4,282.6],[-33.7,280.8],[-32.9,279.2],[-34.6,278.0],[-35.1,276.3],[-34.4,272.7],[-34.0,268.6],[-34.6,264.8],[-33.5,262.6],[-31.6,261.4],[-28.5,261.2],[-26.6,260.5],[-26.0,259.7],[-26.1,256.7],[-29.2,255.8],[-29.9,253.8],[-29.8,252.0],[-28.4,251.9],[-28.4,249.7],[-26.9,249.6],[-25.3,248.2],[-24.8,246.1],[-26.8,244.5],[-27.1,243.6],[-25.9,243.3],[-25.9,241.9],[-23.6,238.9],[-23.8,238.0],[-25.3,235.5],[-26.4,236.7],[-29.9,237.7],[-32.4,237.7],[-33.5,238.2],[-34.9,240.1],[-36.2,241.1],[-36.1,242.1],[-37.9,243.9],[-39.9,243.6],[-41.3,242.6],[-46.6,243.7],[-47.8,246.2],[-48.7,244.6],[-50.2,244.5],[-52.2,243.3],[-52.2,244.3],[-51.1,245.2],[-50.9,246.4],[-49.8,247.4],[-52.0,247.4],[-54.0,250.8],[-53.5,253.1],[-53.6,255.0],[-53.1,255.8],[-50.2,257.4],[-50.8,261.3],[-49.5,263.6],[-48.2,263.8],[-47.9,262.7],[-46.7,262.0],[-47.3,264.0],[-47.2,266.8],[-49.2,268.7],[-49.9,272.7],[-49.2,274.0],[-50.0,274.8],[-49.9,276.7],[-49.3,278.2],[-47.8,278.6],[-46.3,278.3],[-43.7,276.7],[-43.7,277.8],[-46.3,279.0],[-47.5,281.6],[-48.1,281.7],[-48.9,283.8],[-50.0,284.5],[-49.3,285.6],[-46.5,286.6],[-45.4,287.4],[-44.1,286.7],[-41.7,280.3],[-40.9,280.4],[-42.2,285.1],[-41.0,286.1],[-42.3,286.4],[-42.4,287.8],[-41.4,288.6],[-42.4,288.8],[-42.8,290.9],[-42.3,293.2],[-43.5,294.1],[-44.7,291.8],[-47.0,292.6],[-48.1,292.1],[-49.8,293.0],[-51.4,294.9],[-49.9,296.0],[-49.8,296.8],[-46.5,300.4],[-44.9,300.3],[-41.7,301.5],[-40.1,303.4],[-40.1,307.5],[-39.5,309.7],[-40.5,308.2],[-40.9,304.4],[-41.7,302.5],[-45.7,300.9],[-47.2,301.8],[-47.6,303.5],[-48.9,305.3],[-51.2,306.6],[-51.8,306.2],[-53.4,306.9],[-54.7,306.0],[-55.0,304.8],[-56.5,303.8],[-55.3,300.8],[-58.2,298.1],[-63.0,298.1],[-64.4,297.2],[-67.9,298.4],[-70.0,298.5],[-68.9,300.5],[-68.3,302.4],[-65.9,302.7],[-64.8,305.6],[-66.3,303.2],[-68.9,303.0],[-71.1,303.7],[-71.6,305.6],[-72.6,307.7],[-72.4,310.2],[-73.8,314.3],[-74.4,315.2],[-75.3,320.3],[-73.4,322.0],[-74.3,323.4],[-73.8,326.2],[-72.7,328.0],[-73.5,329.0],[-71.8,330.8],[-71.2,332.6],[-72.5,335.6],[-72.2,336.9],[-72.1,340.3],[-70.3,339.7],[-65.6,340.0],[-60.1,338.6],[-57.1,339.1],[-55.6,338.8],[-54.6,337.6],[-53.1,334.1],[-49.4,331.6],[-47.5,330.7],[-45.2,330.2],[-42.4,330.2],[-35.4,330.9],[-34.1,331.2],[-31.6,333.0],[-30.9,333.9]]],[[[-73.7,297.3],[-72.6,296.3],[-73.3,295.7],[-74.7,296.2],[-74.6,294.9],[-72.1,294.4],[-71.3,295.4],[-70.0,294.2],[-70.2,295.4],[-68.5,296.9],[-67.3,296.3],[-66.1,297.3],[-65.2,296.2],[-64.9,294.3],[-65.9,293.2],[-64.9,292.7],[-63.5,290.9],[-62.9,289.5],[-63.9,288.8],[-63.7,287.6],[-61.5,286.3],[-61.1,284.6],[-61.5,283.1],[-62.3,283.3],[-63.9,282.5],[-65.2,282.5],[-67.4,281.1],[-67.4,278.7],[-65.7,277.1],[-67.7,276.3],[-69.5,277.1],[-69.7,274.2],[-68.1,272.9],[-67.3,272.8],[-65.8,270.6],[-63.3,269.4],[-62.8,267.2],[-65.4,266.5],[-67.2,267.0],[-66.0,266.2],[-65.3,264.4],[-64.3,264.3],[-63.1,261.9],[-64.4,262.4],[-62.3,260.6],[-63.0,259.7],[-64.3,260.3],[-67.0,259.2],[-67.4,260.2],[-68.2,259.8],[-67.5,258.4],[-67.4,256.8],[-65.9,255.4],[-65.6,254.5],[-67.0,254.2],[-65.7,253.3],[-66.8,252.1],[-68.3,252.9],[-68.2,251.5],[-69.8,251.1],[-71.0,252.6],[-72.2,251.9],[-73.0,252.5],[-74.1,251.4],[-75.1,252.6],[-78.6,253.5],[-79.5,254.5],[-80.9,255.0],[-80.1,258.1],[-79.2,259.0],[-79.9,259.6],[-77.8,261.9],[-78.0,264.9],[-76.7,266.0],[-76.3,272.9],[-77.3,276.0],[-77.9,276.4],[-78.0,278.7],[-77.2,282.0],[-77.8,283.4],[-77.4,284.8],[-75.6,287.4],[-75.6,289.5],[-75.9,293.0],[-75.1,293.7],[-76.4,296.6],[-75.9,297.6],[-74.0,296.5],[-73.7,297.3]]]]}},{"type":"Feature","id":"CL.LI","properties":{"name":"Libertador General Bernardo O'Higgins","country_code":"cl","country_es":"Chile","hc_key":"cl-li"},"geometry":{"type":"Polygon","coordinates":[[[6.1,512.0],[5.8,511.2],[5.9,508.9],[4.6,507.4],[3.8,505.4],[2.0,503.5],[1.5,500.4],[0.0,498.9],[1.0,497.5],[-0.8,493.1],[-1.2,491.0],[-4.5,491.7],[-6.8,491.2],[-8.3,491.6],[-10.3,493.5],[-11.4,494.0],[-14.8,493.9],[-20.2,496.5],[-22.2,495.5],[-23.4,495.7],[-25.1,493.7],[-26.1,493.2],[-30.7,493.4],[-32.9,492.5],[-34.9,494.5],[-37.8,495.2],[-38.9,496.2],[-41.6,497.6],[-40.6,500.5],[-40.4,505.4],[-40.6,507.7],[-39.4,508.7],[-39.5,513.1],[-40.3,514.5],[-38.8,517.0],[-36.9,521.1],[-34.7,521.0],[-33.2,520.1],[-31.0,518.3],[-29.4,518.8],[-27.2,518.1],[-24.6,516.6],[-23.3,517.1],[-20.5,515.0],[-17.8,514.4],[-15.9,514.8],[-12.0,519.0],[-11.9,521.0],[-8.8,521.7],[-6.6,521.7],[-3.6,522.8],[-1.5,520.9],[-0.5,518.7],[0.4,518.0],[2.4,518.0],[3.1,517.3],[3.8,515.1],[5.1,514.1],[6.1,512.0]]]}},{"type":"Feature","id":"CL.AI","properties":{"name":"Aisén del General Carlos Ibáñez del Campo","country_code":"cl","country_es":"Chile","hc_key":"cl-ai"},"geometry":{"type":"MultiPolygon","coordinates":[[[[-70.8,106.1],[-71.3,106.1],[-73.1,109.3],[-71.1,109.1],[-69.1,107.8],[-69.1,107.3],[-70.8,106.1]]],[[[-64.4,108.6],[-64.6,107.8],[-66.8,108.7],[-68.1,110.0],[-67.2,111.0],[-64.5,109.4],[-64.4,108.6]]],[[[-69.3,110.8],[-67.6,108.6],[-68.5,108.1],[-69.8,109.1],[-72.2,110.0],[-72.9,111.0],[-72.2,111.3],[-70.3,110.6],[-71.1,112.1],[-70.2,113.0],[-69.3,113.0],[-69.3,110.8]]],[[[-72.4,115.5],[-70.8,113.8],[-71.3,112.8],[-73.7,111.3],[-74.3,113.9],[-73.7,115.3],[-75.0,113.7],[-75.0,116.1],[-74.6,117.3],[-72.4,115.5]]],[[[-74.4,125.4],[-74.4,124.5],[-75.8,124.5],[-76.6,122.8],[-77.6,124.5],[-77.7,125.8],[-77.0,126.4],[-74.6,126.1],[-74.4,125.4]]],[[[-85.3,128.5],[-85.2,126.4],[-84.1,125.7],[-84.6,125.1],[-87.8,123.9],[-87.3,125.3],[-89.5,126.2],[-90.2,125.7],[-90.6,127.0],[-89.5,128.1],[-88.5,127.6],[-87.0,128.1],[-86.1,129.0],[-85.3,128.5]]],[[[-82.4,126.6],[-84.3,127.5],[-84.9,128.8],[-84.0,129.7],[-82.1,129.1],[-81.1,127.6],[-82.4,126.6]]],[[[-74.3,144.6],[-75.3,145.8],[-74.4,147.5],[-72.9,148.0],[-72.1,146.8],[-74.3,144.6]]],[[[-68.3,148.8],[-67.5,149.1],[-65.5,148.4],[-67.1,145.8],[-68.6,144.7],[-70.3,146.6],[-69.3,149.2],[-68.3,148.8]]],[[[-88.4,154.5],[-89.0,154.3],[-91.2,155.8],[-92.7,156.3],[-90.4,157.3],[-88.9,156.8],[-88.4,154.5]]],[[[-63.7,177.1],[-62.6,177.2],[-61.5,176.4],[-61.4,175.4],[-63.1,172.7],[-64.0,173.1],[-64.5,174.6],[-66.6,176.2],[-66.0,177.7],[-64.6,177.9],[-63.7,177.1]]],[[[-63.0,180.5],[-62.2,180.6],[-61.6,177.9],[-64.3,178.3],[-64.4,179.1],[-63.2,181.5],[-63.0,180.5]]],[[[-62.3,182.2],[-62.0,181.6],[-63.9,181.8],[-65.1,179.1],[-66.6,178.9],[-66.8,180.7],[-65.6,182.3],[-64.2,182.9],[-63.1,184.2],[-62.3,182.2]]],[[[-68.5,185.2],[-66.8,185.3],[-67.6,184.6],[-67.5,182.1],[-67.9,180.8],[-68.6,180.7],[-70.0,183.2],[-70.1,184.6],[-68.5,185.2]]],[[[-83.6,185.4],[-85.7,186.7],[-85.7,188.2],[-84.7,188.1],[-83.2,185.6],[-83.6,185.4]]],[[[-80.4,184.3],[-82.2,184.8],[-82.2,187.1],[-81.7,188.4],[-79.3,189.2],[-79.8,187.1],[-79.3,186.6],[-80.4,184.3]]],[[[-67.5,186.2],[-69.2,186.0],[-70.5,188.0],[-70.8,189.6],[-69.3,191.2],[-66.8,189.7],[-66.8,186.7],[-67.5,186.2]]],[[[-66.9,193.2],[-65.3,193.8],[-65.4,192.0],[-66.0,190.6],[-69.3,191.7],[-71.5,190.4],[-70.9,192.8],[-70.1,194.3],[-68.6,194.2],[-66.9,193.2]]],[[[-78.5,189.7],[-79.0,189.2],[-80.0,190.8],[-79.2,193.1],[-77.7,193.6],[-78.6,191.5],[-78.5,189.7]]],[[[-67.8,196.0],[-65.5,196.0],[-66.1,194.6],[-67.3,194.2],[-69.1,194.7],[-69.1,195.5],[-67.8,196.0]]],[[[-75.8,194.5],[-78.7,195.6],[-79.6,196.7],[-79.1,197.6],[-76.9,197.9],[-75.1,194.9],[-75.8,194.5]]],[[[-69.8,199.1],[-68.9,198.7],[-65.6,199.0],[-64.8,197.1],[-65.6,196.7],[-69.2,196.3],[-71.6,197.0],[-72.5,199.0],[-70.7,200.5],[-69.8,199.1]]],[[[-75.2,197.6],[-75.8,197.4],[-77.5,198.8],[-77.6,200.1],[-76.5,201.4],[-74.6,199.9],[-75.2,197.6]]],[[[-70.7,210.4],[-73.5,211.2],[-73.3,211.7],[-69.3,212.6],[-69.4,211.0],[-70.7,210.4]]],[[[-66.2,211.2],[-65.0,208.6],[-66.5,207.7],[-68.3,209.5],[-67.6,210.9],[-68.7,211.7],[-67.7,213.1],[-66.7,212.6],[-66.2,211.2]]],[[[-91.5,207.0],[-93.2,207.1],[-93.1,208.5],[-94.1,209.8],[-93.1,211.4],[-92.4,211.4],[-91.3,209.6],[-90.4,209.3],[-90.5,207.6],[-91.5,207.0]]],[[[-62.1,214.0],[-62.4,211.6],[-64.5,211.7],[-64.8,213.6],[-63.0,214.2],[-62.1,214.0]]],[[[-76.5,210.2],[-77.8,209.9],[-79.4,210.6],[-80.6,212.6],[-80.0,213.6],[-78.7,213.7],[-78.2,212.1],[-76.8,211.4],[-76.5,210.2]]],[[[-79.3,215.0],[-79.9,214.2],[-83.6,214.5],[-82.8,216.2],[-79.7,215.9],[-79.3,215.0]]],[[[-86.2,217.9],[-85.1,216.8],[-85.3,214.8],[-86.4,214.5],[-86.9,215.6],[-86.9,217.7],[-86.2,217.9]]],[[[-63.9,219.6],[-62.7,216.9],[-63.3,215.9],[-61.9,215.1],[-65.1,213.9],[-66.9,216.0],[-66.8,218.0],[-66.3,219.2],[-63.9,219.6]]],[[[-74.1,220.1],[-73.5,218.6],[-76.9,217.8],[-77.9,219.3],[-76.4,220.1],[-74.1,220.1]]],[[[-69.6,219.1],[-71.8,218.9],[-72.8,220.0],[-71.2,220.5],[-73.5,221.5],[-70.9,221.7],[-69.7,221.1],[-69.6,219.1]]],[[[-75.1,221.1],[-79.0,219.8],[-78.3,218.6],[-81.0,219.0],[-81.6,220.4],[-80.8,221.7],[-79.5,221.6],[-79.0,220.7],[-78.0,222.5],[-76.9,223.1],[-75.9,222.6],[-75.1,221.1]]],[[[-66.9,221.8],[-68.6,222.1],[-68.7,224.0],[-66.3,222.9],[-66.9,221.8]]],[[[-64.1,222.7],[-66.4,224.0],[-63.7,225.1],[-64.5,223.7],[-64.1,222.7]]],[[[-71.3,224.5],[-69.2,224.7],[-69.4,221.9],[-72.3,223.6],[-73.1,225.2],[-71.3,224.5]]],[[[-55.5,226.7],[-54.0,224.9],[-55.7,224.5],[-56.5,225.0],[-56.4,226.2],[-55.5,226.7]]],[[[-66.9,227.0],[-66.9,225.6],[-68.7,225.3],[-70.0,225.8],[-70.1,226.6],[-67.8,226.4],[-66.9,227.0]]],[[[-76.7,225.8],[-76.9,225.5],[-79.2,226.0],[-78.4,227.1],[-77.1,226.9],[-76.7,225.8]]],[[[-64.1,227.5],[-65.2,226.4],[-65.9,226.9],[-64.8,228.1],[-64.1,227.5]]],[[[-71.8,230.0],[-70.7,228.7],[-68.8,228.0],[-71.1,227.3],[-70.6,225.4],[-71.7,225.5],[-72.8,226.5],[-73.6,228.8],[-72.0,229.0],[-71.8,230.0]]],[[[-76.5,229.3],[-77.9,228.8],[-78.9,229.6],[-77.1,230.2],[-76.5,229.3]]],[[[-68.6,230.3],[-67.7,230.3],[-68.4,229.2],[-70.1,229.4],[-71.4,230.5],[-69.5,231.9],[-68.6,230.3]]],[[[-63.7,231.5],[-64.3,231.3],[-64.8,233.0],[-65.6,233.5],[-66.4,235.3],[-65.9,236.6],[-64.2,235.3],[-64.3,234.0],[-63.3,232.7],[-63.7,231.5]]],[[[-54.4,234.8],[-56.6,235.6],[-56.6,237.7],[-55.5,238.7],[-53.9,238.3],[-54.4,234.8]]],[[[-85.4,246.4],[-83.4,244.4],[-85.8,243.9],[-87.8,242.8],[-88.8,243.8],[-89.1,245.9],[-87.4,245.9],[-87.3,246.9],[-85.4,246.4]]],[[[-88.3,101.9],[-88.1,100.9],[-87.4,101.1],[-87.1,99.1],[-88.0,98.8],[-88.6,99.8],[-90.4,97.7],[-92.9,96.7],[-93.6,97.1],[-93.7,99.3],[-92.0,98.9],[-90.3,99.6],[-88.3,101.9]]],[[[-91.0,102.3],[-93.5,101.3],[-94.6,102.6],[-94.5,105.4],[-93.6,106.8],[-92.0,106.0],[-90.5,107.3],[-90.3,106.5],[-89.3,106.7],[-88.7,107.5],[-88.9,104.3],[-88.1,104.0],[-88.2,102.2],[-91.1,99.7],[-92.4,99.5],[-92.9,100.6],[-91.1,100.7],[-90.1,102.2],[-92.0,101.3],[-91.0,102.3]]],[[[-74.6,101.1],[-77.1,102.7],[-77.9,102.4],[-80.8,102.7],[-82.1,103.5],[-82.7,105.8],[-81.3,108.4],[-79.4,109.3],[-78.9,109.0],[-78.0,106.7],[-76.9,107.7],[-78.8,110.1],[-78.8,112.9],[-78.3,114.5],[-78.4,116.2],[-77.7,116.8],[-77.2,116.1],[-77.4,114.3],[-76.3,113.1],[-76.5,112.0],[-75.3,111.2],[-74.5,109.3],[-76.1,108.8],[-75.0,108.2],[-74.4,104.8],[-73.0,103.2],[-73.0,104.3],[-72.2,103.7],[-72.9,101.7],[-74.6,101.1]]],[[[-85.5,111.1],[-84.9,112.6],[-85.6,112.5],[-86.7,113.8],[-86.3,114.3],[-87.9,117.8],[-86.2,117.7],[-85.3,117.0],[-83.4,117.8],[-79.6,116.3],[-79.1,115.5],[-79.5,113.3],[-79.4,110.6],[-82.8,107.5],[-85.5,111.1]]],[[[-86.3,100.3],[-86.1,101.8],[-86.8,101.6],[-87.6,103.3],[-87.5,104.4],[-88.1,105.7],[-87.4,107.9],[-88.5,108.5],[-88.4,109.8],[-89.2,108.7],[-90.9,107.6],[-92.4,107.5],[-92.8,108.6],[-90.1,109.8],[-89.1,111.1],[-90.2,110.6],[-90.0,111.8],[-91.2,110.5],[-92.4,110.1],[-93.0,111.0],[-91.1,113.0],[-91.0,113.8],[-92.5,112.7],[-93.5,114.4],[-94.1,116.8],[-92.2,118.7],[-91.7,117.6],[-91.1,118.7],[-89.9,119.5],[-89.7,117.9],[-87.9,115.0],[-87.7,113.7],[-86.3,110.3],[-84.0,106.8],[-84.8,106.1],[-83.8,105.8],[-83.2,103.2],[-84.2,101.5],[-85.8,99.8],[-86.3,100.3]]],[[[-85.2,120.3],[-86.0,119.2],[-87.8,118.6],[-87.3,122.2],[-85.2,123.7],[-82.4,123.5],[-81.2,125.5],[-80.4,125.7],[-79.6,125.7],[-79.0,123.7],[-79.8,122.1],[-79.1,120.8],[-80.1,120.1],[-78.7,119.9],[-77.8,117.5],[-79.1,118.2],[-81.1,118.4],[-83.8,119.2],[-84.0,120.4],[-85.2,120.3]]],[[[-71.7,122.6],[-73.9,123.2],[-72.1,125.5],[-71.5,125.8],[-69.2,124.7],[-70.9,126.1],[-69.3,126.7],[-65.9,125.7],[-64.0,125.5],[-62.2,125.0],[-61.4,125.7],[-60.8,124.2],[-61.2,123.0],[-62.6,122.8],[-63.0,124.0],[-64.8,122.8],[-66.5,122.9],[-70.3,121.6],[-71.7,122.6]]],[[[-87.3,177.3],[-89.1,177.0],[-88.2,177.6],[-89.4,178.0],[-90.0,179.7],[-88.9,180.5],[-87.2,180.0],[-86.0,179.0],[-84.9,179.0],[-87.1,180.4],[-85.6,180.2],[-84.6,180.9],[-84.6,182.4],[-82.4,182.5],[-83.0,177.3],[-85.7,173.9],[-87.0,173.5],[-88.8,173.9],[-89.5,175.2],[-87.3,176.5],[-85.8,176.4],[-87.3,177.3]]],[[[-76.2,193.1],[-74.6,192.4],[-73.8,191.4],[-74.1,189.9],[-73.1,189.6],[-74.3,188.3],[-72.6,188.1],[-73.6,186.6],[-75.1,186.4],[-74.8,185.7],[-76.3,184.1],[-77.6,183.8],[-78.3,185.0],[-77.5,186.6],[-77.6,187.9],[-78.3,188.4],[-77.5,189.1],[-77.9,191.1],[-77.2,192.9],[-76.2,193.1]]],[[[-60.5,193.2],[-60.6,190.5],[-61.0,189.3],[-62.2,189.1],[-60.9,187.6],[-60.7,186.6],[-62.0,185.4],[-62.8,186.7],[-64.9,188.4],[-63.4,189.4],[-64.4,190.5],[-64.2,192.1],[-63.3,193.7],[-62.2,194.4],[-60.5,193.2]]],[[[-74.2,201.8],[-74.4,202.9],[-73.7,204.9],[-72.6,205.5],[-71.0,205.3],[-67.9,206.6],[-66.5,206.5],[-65.1,205.5],[-64.9,204.4],[-63.7,203.4],[-63.4,201.5],[-64.5,198.6],[-65.8,199.7],[-68.4,199.3],[-71.5,202.3],[-73.0,201.3],[-74.2,201.8]]],[[[-72.6,209.9],[-69.2,209.1],[-68.0,207.7],[-69.1,206.8],[-71.0,207.3],[-70.9,206.3],[-73.4,206.3],[-75.2,205.2],[-76.7,205.5],[-76.3,206.9],[-75.1,207.6],[-73.6,209.8],[-72.6,209.9]]],[[[-76.3,216.4],[-75.7,217.2],[-70.8,217.5],[-68.8,216.9],[-67.6,215.1],[-70.3,214.3],[-71.9,213.2],[-75.6,211.5],[-77.2,212.5],[-77.6,213.6],[-76.9,214.2],[-78.3,214.4],[-78.3,216.4],[-76.3,216.4]]],[[[-46.7,215.8],[-49.2,213.5],[-50.8,211.4],[-52.6,209.8],[-54.8,208.9],[-55.5,209.1],[-58.0,212.0],[-56.0,213.2],[-54.9,212.4],[-54.0,212.9],[-55.9,214.0],[-57.1,213.0],[-57.9,213.3],[-59.5,217.1],[-57.8,218.7],[-57.2,218.0],[-56.4,218.4],[-54.9,217.4],[-55.9,220.1],[-55.0,220.3],[-53.4,219.4],[-53.0,220.4],[-55.1,221.0],[-55.6,222.0],[-54.6,223.9],[-53.1,223.0],[-52.4,223.5],[-51.0,222.0],[-52.1,224.8],[-50.5,225.5],[-49.0,224.0],[-49.0,223.0],[-49.8,221.3],[-49.3,221.2],[-47.7,223.5],[-45.6,222.7],[-44.6,221.1],[-46.3,217.9],[-48.1,218.0],[-49.7,218.7],[-48.0,217.1],[-46.6,216.7],[-46.7,215.8]]],[[[-74.1,239.8],[-72.6,240.3],[-71.0,239.5],[-68.9,240.7],[-68.8,241.4],[-67.4,239.7],[-66.7,238.0],[-68.4,237.8],[-69.7,238.3],[-68.8,239.1],[-70.2,239.2],[-71.1,238.4],[-69.9,237.6],[-71.4,236.4],[-72.2,237.6],[-74.3,237.5],[-75.0,238.5],[-74.1,239.8]]],[[[-64.1,100.4],[-64.6,101.1],[-66.1,101.4],[-68.6,100.5],[-68.4,101.5],[-70.0,102.1],[-70.5,104.0],[-68.4,106.7],[-67.1,107.9],[-64.2,105.9],[-63.0,104.6],[-62.7,105.5],[-63.6,106.4],[-63.8,109.1],[-61.9,109.7],[-62.3,110.4],[-63.4,109.8],[-65.6,110.4],[-66.5,111.2],[-67.9,111.2],[-67.5,111.9],[-65.2,112.5],[-67.2,112.5],[-68.5,111.7],[-69.0,113.6],[-69.8,115.1],[-72.3,115.8],[-73.8,118.3],[-73.1,120.1],[-75.2,118.5],[-76.0,119.0],[-76.1,120.5],[-74.1,122.0],[-72.1,121.4],[-70.5,120.1],[-69.3,116.3],[-68.1,114.7],[-67.1,115.1],[-68.3,116.5],[-68.3,117.5],[-70.5,121.1],[-68.1,121.5],[-65.4,121.4],[-64.8,120.5],[-63.4,120.2],[-62.1,121.0],[-61.4,120.3],[-61.5,119.0],[-59.8,121.0],[-59.3,119.5],[-57.1,118.7],[-56.2,118.0],[-56.4,116.1],[-55.4,115.0],[-54.5,117.1],[-53.2,117.1],[-51.6,116.0],[-51.6,116.8],[-50.3,118.4],[-50.6,118.7],[-52.6,117.6],[-54.2,118.6],[-56.4,120.8],[-57.9,124.4],[-56.3,124.5],[-55.4,123.0],[-53.3,122.5],[-51.2,122.8],[-49.6,122.2],[-50.2,123.0],[-52.1,123.5],[-54.4,123.1],[-55.3,124.0],[-55.1,124.9],[-57.2,125.8],[-56.0,127.4],[-58.4,127.7],[-59.1,128.2],[-59.8,130.2],[-58.5,131.9],[-59.2,132.3],[-58.8,134.1],[-60.0,134.9],[-60.7,133.2],[-59.8,132.5],[-60.7,129.1],[-60.3,128.2],[-60.8,127.2],[-63.1,126.0],[-65.2,126.5],[-65.9,127.9],[-68.4,127.2],[-70.2,127.7],[-70.7,127.0],[-72.4,127.5],[-71.5,128.3],[-73.8,127.6],[-76.6,127.2],[-78.8,128.9],[-77.7,130.5],[-75.4,130.3],[-77.0,131.4],[-76.7,132.9],[-75.0,133.2],[-74.9,132.0],[-74.1,133.6],[-73.1,133.3],[-72.8,132.2],[-72.1,132.6],[-71.5,131.3],[-73.5,130.2],[-74.0,129.4],[-71.6,130.4],[-69.9,128.7],[-70.6,130.2],[-68.9,130.7],[-69.8,131.6],[-68.3,132.1],[-66.3,131.9],[-67.7,133.0],[-69.3,133.0],[-70.4,132.3],[-71.3,132.8],[-71.7,134.6],[-72.6,134.1],[-73.9,135.6],[-72.6,136.3],[-74.0,137.3],[-74.9,135.8],[-75.4,137.1],[-74.6,138.5],[-73.3,139.6],[-71.9,143.2],[-70.1,142.7],[-69.8,143.7],[-68.9,143.5],[-68.6,141.6],[-67.6,140.1],[-68.3,143.3],[-67.9,144.2],[-66.0,144.7],[-65.1,142.6],[-65.5,145.0],[-66.9,145.3],[-65.1,148.1],[-65.0,149.4],[-66.5,150.4],[-68.4,150.0],[-70.2,152.1],[-68.8,154.5],[-71.0,153.3],[-72.0,154.4],[-71.6,155.6],[-75.0,155.8],[-78.0,156.6],[-75.7,155.6],[-76.6,154.7],[-78.6,155.2],[-79.4,153.1],[-77.0,153.7],[-75.8,153.0],[-74.7,153.3],[-75.5,151.9],[-78.3,152.5],[-79.5,152.1],[-80.3,153.3],[-82.5,155.2],[-83.0,153.9],[-85.1,155.3],[-86.2,155.5],[-86.3,156.3],[-87.8,158.4],[-86.3,161.4],[-85.3,162.2],[-85.3,164.4],[-86.7,162.0],[-87.5,162.1],[-88.5,159.9],[-90.1,158.6],[-90.3,159.5],[-91.4,158.3],[-93.7,157.5],[-94.7,157.6],[-97.0,156.6],[-98.7,153.9],[-98.1,153.5],[-96.6,156.1],[-94.2,155.8],[-95.1,154.1],[-93.4,154.0],[-94.1,151.6],[-92.9,152.1],[-92.4,150.7],[-93.5,149.7],[-96.2,149.0],[-96.9,150.2],[-98.4,151.2],[-98.4,152.1],[-99.6,153.3],[-99.9,157.5],[-98.7,159.5],[-96.4,160.2],[-97.0,161.3],[-95.3,161.6],[-93.5,165.0],[-92.1,166.0],[-91.0,164.9],[-90.9,167.9],[-87.9,166.5],[-87.4,167.0],[-89.6,167.6],[-88.9,170.4],[-88.1,170.7],[-86.2,169.2],[-86.3,170.2],[-85.5,172.6],[-84.6,172.6],[-83.1,171.1],[-82.4,172.0],[-83.8,173.4],[-83.0,175.9],[-81.9,177.5],[-82.3,178.7],[-81.8,181.6],[-81.0,182.4],[-80.1,181.6],[-79.2,182.2],[-79.0,180.1],[-76.9,179.0],[-77.3,177.2],[-76.6,177.2],[-75.9,179.5],[-76.9,180.5],[-77.3,182.7],[-75.3,183.5],[-74.3,182.4],[-73.9,182.9],[-71.3,183.6],[-70.2,182.5],[-71.9,181.1],[-70.4,180.8],[-70.8,179.8],[-69.6,180.2],[-69.2,179.0],[-71.1,177.7],[-69.4,177.1],[-69.6,175.6],[-70.9,174.0],[-69.2,175.2],[-69.1,178.5],[-67.4,177.2],[-67.1,175.7],[-68.0,173.8],[-71.2,171.6],[-74.0,170.5],[-75.8,171.4],[-77.2,172.8],[-77.1,172.1],[-75.0,170.5],[-74.1,170.2],[-71.1,171.0],[-68.3,172.4],[-68.2,171.0],[-68.8,168.8],[-67.8,169.9],[-66.2,169.5],[-65.4,168.7],[-64.2,168.6],[-66.3,170.6],[-66.5,171.6],[-67.8,171.8],[-67.3,173.7],[-65.3,174.2],[-64.7,173.0],[-62.9,171.7],[-62.7,170.6],[-63.2,168.1],[-65.3,164.9],[-66.6,162.2],[-65.3,161.3],[-63.5,161.9],[-62.1,166.5],[-60.8,168.3],[-59.1,169.8],[-58.2,173.7],[-56.4,176.7],[-54.9,178.1],[-56.6,177.9],[-57.2,176.1],[-59.2,172.8],[-59.6,171.5],[-61.2,169.3],[-61.5,170.1],[-60.6,173.0],[-60.2,175.6],[-60.9,177.0],[-61.2,179.1],[-60.3,181.3],[-58.6,182.1],[-59.5,183.0],[-59.0,184.1],[-56.5,187.2],[-55.6,187.6],[-52.5,188.1],[-52.5,188.6],[-54.5,188.8],[-55.2,189.6],[-57.0,188.6],[-58.2,186.4],[-60.2,184.7],[-59.9,189.0],[-59.2,193.9],[-58.4,194.9],[-57.4,195.1],[-56.4,196.7],[-55.4,195.9],[-55.6,197.5],[-53.3,198.7],[-52.3,196.9],[-49.2,194.8],[-46.1,194.4],[-45.6,195.8],[-46.2,196.6],[-48.6,196.1],[-50.6,197.3],[-52.7,199.3],[-54.3,200.2],[-55.7,199.1],[-57.6,198.9],[-58.4,199.4],[-58.0,201.6],[-55.9,202.1],[-55.4,203.0],[-57.7,206.3],[-57.5,207.4],[-56.6,208.3],[-54.3,208.2],[-52.0,208.8],[-49.7,211.4],[-48.0,211.8],[-46.0,214.2],[-44.4,214.5],[-44.1,215.7],[-44.5,217.2],[-43.7,220.7],[-42.1,221.8],[-42.6,222.9],[-42.2,226.2],[-43.9,222.2],[-44.9,222.0],[-45.1,222.9],[-49.1,225.5],[-49.0,226.7],[-51.6,227.9],[-53.8,228.2],[-54.5,229.1],[-53.5,229.6],[-53.1,231.1],[-54.7,230.0],[-56.5,230.5],[-56.4,232.3],[-55.3,231.9],[-55.3,233.3],[-54.4,233.9],[-53.4,232.8],[-53.8,236.0],[-52.5,238.1],[-51.5,242.1],[-50.5,240.8],[-48.2,242.7],[-48.4,244.9],[-48.7,243.1],[-50.8,242.5],[-52.2,243.3],[-50.2,244.5],[-48.7,244.6],[-47.8,246.2],[-46.6,243.7],[-41.3,242.6],[-39.9,243.6],[-37.9,243.9],[-36.1,242.1],[-36.2,241.1],[-34.9,240.1],[-33.5,238.2],[-32.4,237.7],[-29.9,237.7],[-26.4,236.7],[-25.3,235.5],[-27.5,233.6],[-26.4,230.4],[-26.8,229.1],[-26.3,227.3],[-27.4,226.5],[-26.5,225.3],[-24.8,225.6],[-22.9,225.4],[-18.7,225.6],[-14.1,225.0],[-13.3,224.3],[-12.2,222.1],[-12.4,221.0],[-13.5,220.6],[-14.5,218.5],[-14.4,215.9],[-16.3,214.4],[-19.6,215.9],[-22.3,214.8],[-25.4,215.3],[-26.8,214.3],[-30.7,215.2],[-31.5,214.4],[-31.1,211.0],[-29.8,211.0],[-27.3,209.9],[-24.7,210.4],[-23.5,209.3],[-21.3,209.2],[-20.6,208.4],[-19.3,205.5],[-16.0,202.1],[-15.4,200.3],[-17.3,198.0],[-19.3,197.1],[-18.6,195.0],[-19.5,194.0],[-23.2,193.4],[-24.2,192.3],[-23.8,191.5],[-24.5,190.3],[-24.7,187.5],[-23.7,186.2],[-23.5,184.2],[-22.0,183.5],[-20.8,181.1],[-22.9,178.6],[-23.8,177.0],[-26.1,176.3],[-26.6,175.8],[-23.5,173.3],[-23.1,169.1],[-21.7,165.6],[-21.9,163.6],[-21.6,160.7],[-24.8,157.7],[-26.3,157.5],[-26.8,153.6],[-25.7,151.9],[-27.3,150.6],[-27.0,149.5],[-25.2,148.4],[-24.5,147.1],[-25.4,145.2],[-27.3,146.1],[-27.9,146.0],[-27.6,144.1],[-28.1,142.9],[-30.2,140.1],[-33.2,139.4],[-33.9,138.0],[-33.0,137.4],[-33.3,134.4],[-35.3,130.2],[-35.9,127.2],[-36.7,125.4],[-35.3,123.3],[-34.2,122.9],[-33.7,121.7],[-32.7,121.2],[-31.9,117.2],[-32.1,115.1],[-31.5,113.8],[-33.0,113.3],[-34.0,111.8],[-36.6,110.2],[-37.2,108.5],[-36.5,105.6],[-36.3,102.6],[-36.5,100.6],[-39.1,97.0],[-40.6,96.0],[-42.4,95.7],[-44.0,94.6],[-45.1,92.6],[-45.4,90.8],[-46.7,88.8],[-46.5,87.0],[-64.1,100.4],[-64.1,100.4]]]]}},{"type":"Feature","id":"CL.MA","properties":{"name":"Magallanes y Antártica Chilena","country_code":"cl","country_es":"Chile","hc_key":"cl-ma"},"geometry":{"type":"MultiPolygon","coordinates":[[[[58.5,-97.4],[59.1,-98.1],[59.0,-99.4],[57.2,-98.4],[56.9,-96.9],[58.5,-97.4]]],[[[61.1,-99.9],[59.9,-98.9],[60.7,-96.9],[61.4,-99.6],[61.1,-99.9]]],[[[51.3,-91.3],[51.2,-90.5],[51.8,-89.4],[51.6,-88.3],[52.2,-87.7],[52.9,-88.3],[53.4,-90.4],[51.3,-91.3]]],[[[20.1,-84.0],[19.9,-85.0],[17.8,-85.2],[18.2,-84.4],[17.8,-83.1],[20.1,-84.0]]],[[[15.4,-82.2],[14.5,-84.3],[14.1,-82.8],[14.3,-82.4],[15.4,-82.2]]],[[[64.7,-83.5],[62.0,-83.3],[61.8,-81.9],[63.2,-80.5],[65.1,-80.7],[65.6,-82.7],[64.7,-83.5]]],[[[71.7,-79.5],[72.5,-80.1],[71.6,-80.5],[71.1,-81.6],[69.7,-82.3],[68.8,-81.7],[69.1,-80.1],[70.7,-78.9],[71.7,-79.5]]],[[[66.0,-75.9],[66.3,-77.4],[64.4,-75.9],[62.2,-74.7],[62.5,-73.8],[65.4,-74.8],[66.0,-75.9]]],[[[7.6,-69.6],[7.8,-70.2],[4.9,-71.0],[3.3,-71.0],[2.2,-70.2],[3.6,-69.8],[4.4,-69.1],[7.6,-69.6]]],[[[-18.8,-64.5],[-17.3,-67.1],[-18.2,-67.7],[-18.4,-66.1],[-19.2,-64.8],[-19.6,-65.5],[-20.3,-64.7],[-18.8,-64.5]]],[[[-34.6,-59.8],[-35.0,-61.2],[-36.9,-61.0],[-36.2,-60.1],[-34.6,-59.8]]],[[[-24.6,-56.0],[-24.0,-56.9],[-25.2,-56.6],[-26.6,-58.8],[-27.9,-56.5],[-26.0,-56.0],[-25.9,-55.3],[-24.6,-56.0]]],[[[7.7,-50.8],[9.3,-50.8],[10.5,-52.1],[9.7,-53.1],[6.5,-52.2],[5.4,-50.5],[5.9,-49.7],[7.7,-50.8]]],[[[9.2,-47.4],[8.7,-49.7],[7.3,-49.8],[5.5,-48.1],[6.8,-47.9],[8.8,-47.0],[9.2,-47.4]]],[[[-40.0,-48.6],[-40.1,-49.4],[-39.1,-48.9],[-38.8,-50.9],[-39.7,-50.5],[-41.0,-50.9],[-41.4,-49.6],[-43.8,-49.7],[-42.3,-48.3],[-40.0,-48.6]]],[[[-48.4,-34.4],[-49.9,-34.9],[-50.0,-35.9],[-51.0,-36.4],[-50.7,-34.9],[-51.8,-34.7],[-50.9,-34.0],[-51.4,-32.8],[-48.4,-34.4]]],[[[-57.2,-29.5],[-58.2,-28.8],[-56.7,-27.0],[-55.4,-26.5],[-56.0,-28.8],[-57.2,-29.5]]],[[[1.2,-14.9],[0.1,-14.5],[2.7,-12.5],[2.5,-13.8],[1.2,-14.9]]],[[[-61.4,-9.7],[-63.4,-8.9],[-64.0,-7.9],[-63.0,-6.4],[-62.4,-6.8],[-61.4,-9.7]]],[[[-63.8,-4.6],[-65.2,-3.8],[-65.2,-1.6],[-64.3,-1.0],[-64.3,-3.3],[-63.7,-3.4],[-63.8,-4.6]]],[[[-67.8,4.0],[-68.0,2.9],[-69.7,2.1],[-70.3,3.7],[-67.0,5.8],[-67.8,4.0]]],[[[-69.0,5.0],[-68.9,6.7],[-66.3,9.9],[-65.5,9.1],[-65.3,7.9],[-69.0,5.0]]],[[[-53.9,12.8],[-52.9,13.5],[-52.0,13.0],[-51.5,11.3],[-51.5,9.4],[-52.1,8.3],[-53.3,9.1],[-54.0,10.9],[-55.9,11.5],[-56.6,12.9],[-55.3,14.0],[-53.9,12.8]]],[[[-74.4,13.8],[-74.2,13.4],[-74.8,10.7],[-75.9,9.8],[-76.5,10.3],[-76.4,12.3],[-75.7,14.7],[-74.2,14.5],[-74.4,13.8]]],[[[-55.0,17.5],[-54.3,16.1],[-53.5,16.1],[-53.4,13.9],[-54.2,13.8],[-55.4,16.3],[-56.0,16.7],[-56.1,18.2],[-55.0,17.5]]],[[[-73.3,20.0],[-74.9,20.3],[-74.7,21.7],[-73.6,22.0],[-73.3,20.0]]],[[[-63.2,24.4],[-64.8,24.5],[-64.7,26.6],[-64.0,26.5],[-63.1,25.1],[-63.2,24.4]]],[[[-61.0,28.3],[-59.8,25.8],[-59.7,24.4],[-62.0,24.8],[-61.8,25.6],[-62.5,26.3],[-62.5,28.1],[-61.0,28.3]]],[[[-53.7,28.5],[-54.0,26.6],[-56.0,27.0],[-54.9,28.3],[-56.6,28.1],[-55.7,29.5],[-54.4,29.6],[-53.7,28.5]]],[[[-73.9,31.0],[-76.1,30.3],[-76.5,30.7],[-75.6,32.4],[-74.0,32.4],[-73.9,31.0]]],[[[-66.6,34.8],[-67.6,34.3],[-67.6,33.3],[-65.4,32.7],[-65.2,31.4],[-65.7,30.3],[-68.5,31.5],[-69.2,33.6],[-67.5,35.4],[-66.6,34.8]]],[[[-62.8,29.5],[-64.0,33.1],[-64.5,35.3],[-64.4,37.2],[-65.0,38.3],[-64.1,38.0],[-63.5,35.6],[-61.7,31.4],[-62.8,29.5]]],[[[-77.7,44.6],[-77.0,45.0],[-77.0,40.6],[-78.4,41.3],[-79.1,43.0],[-77.9,43.5],[-78.6,44.5],[-77.7,44.6]]],[[[-70.3,48.2],[-71.5,47.7],[-71.6,49.8],[-70.0,49.2],[-70.3,48.2]]],[[[-70.3,53.5],[-69.6,53.1],[-71.0,52.4],[-71.2,51.4],[-72.6,50.1],[-73.7,50.0],[-73.0,52.3],[-73.5,52.6],[-72.4,53.8],[-70.3,53.5]]],[[[-77.3,51.4],[-78.4,50.1],[-80.8,50.3],[-80.0,52.6],[-77.5,55.5],[-76.0,55.4],[-77.2,53.5],[-77.3,51.4]]],[[[-68.5,75.2],[-69.2,75.6],[-69.4,77.8],[-70.0,78.2],[-69.6,80.6],[-68.0,79.6],[-66.7,77.1],[-68.5,75.2]]],[[[-88.8,79.7],[-88.6,78.4],[-87.8,78.0],[-88.1,76.5],[-90.0,78.2],[-89.7,80.3],[-88.8,79.7]]],[[[-82.9,94.1],[-82.4,92.6],[-84.6,91.7],[-85.8,93.6],[-85.7,95.2],[-86.7,95.9],[-87.2,97.2],[-85.3,96.9],[-83.6,95.9],[-82.9,94.1]]],[[[-83.6,96.8],[-86.1,97.6],[-85.8,98.5],[-83.4,102.0],[-82.8,100.3],[-83.6,96.8]]],[[[-81.2,101.7],[-79.9,102.1],[-78.5,101.8],[-81.3,99.2],[-82.4,99.3],[-81.8,101.2],[-81.2,101.7]]],[[[49.8,-96.8],[53.6,-97.6],[53.6,-96.7],[55.1,-97.7],[54.1,-97.7],[53.9,-99.0],[53.1,-98.9],[52.3,-99.7],[52.5,-98.2],[51.5,-99.0],[50.7,-97.8],[49.8,-99.2],[48.2,-98.5],[48.0,-97.4],[49.8,-96.8]]],[[[56.2,-93.7],[56.1,-90.5],[57.1,-90.7],[57.6,-92.4],[56.9,-93.9],[58.4,-94.2],[58.4,-96.0],[57.2,-96.3],[57.2,-95.4],[56.2,-95.0],[53.9,-94.7],[54.1,-92.5],[54.6,-92.4],[56.2,-93.7]]],[[[61.7,-79.4],[59.4,-82.2],[58.6,-82.6],[56.4,-82.2],[55.7,-81.4],[56.2,-80.0],[55.9,-79.0],[55.0,-78.7],[53.2,-79.2],[52.6,-81.2],[50.1,-81.3],[49.2,-80.3],[51.1,-80.5],[49.1,-79.5],[48.6,-78.5],[47.1,-80.0],[45.6,-80.3],[44.4,-79.2],[45.0,-78.6],[43.9,-76.6],[44.3,-75.2],[44.0,-73.1],[41.6,-73.4],[41.4,-71.4],[43.6,-71.1],[48.0,-71.0],[50.2,-71.3],[51.5,-71.9],[52.7,-71.6],[58.4,-71.9],[60.3,-73.1],[62.2,-76.1],[62.3,-77.5],[61.7,-79.4]]],[[[10.1,-77.0],[9.0,-77.4],[8.3,-76.3],[7.1,-76.8],[8.5,-78.4],[7.3,-78.8],[6.5,-79.8],[6.2,-78.3],[5.6,-79.9],[5.3,-78.4],[6.1,-76.9],[5.1,-75.6],[2.9,-77.4],[2.2,-75.4],[1.3,-76.4],[0.5,-75.7],[-0.8,-76.1],[-1.8,-74.2],[-0.5,-73.8],[-1.8,-73.4],[-1.7,-72.6],[-0.4,-72.6],[1.5,-73.3],[1.4,-72.1],[2.9,-73.1],[5.2,-73.0],[4.4,-72.6],[6.3,-71.0],[8.7,-70.8],[9.2,-71.2],[6.2,-72.5],[5.9,-73.8],[4.7,-74.0],[2.7,-73.5],[2.5,-74.3],[3.8,-74.8],[5.6,-74.4],[7.8,-75.3],[9.4,-74.6],[9.9,-75.2],[8.9,-75.8],[10.1,-77.0]]],[[[22.6,-73.8],[21.1,-73.7],[20.3,-74.3],[18.1,-74.6],[17.4,-74.1],[15.8,-74.8],[15.8,-73.3],[15.2,-72.4],[17.0,-72.2],[15.9,-71.6],[15.8,-70.5],[17.0,-70.1],[17.9,-71.0],[18.1,-72.4],[19.1,-72.2],[19.1,-70.7],[18.3,-69.9],[19.7,-69.9],[22.3,-70.6],[22.4,-71.0],[22.1,-72.1],[23.7,-70.8],[28.0,-72.3],[26.5,-72.8],[24.9,-72.4],[25.3,-73.0],[23.8,-73.5],[22.6,-73.0],[22.6,-73.8]]],[[[-6.5,-70.4],[-7.1,-72.6],[-7.8,-72.6],[-7.7,-71.4],[-8.5,-72.6],[-9.5,-70.9],[-8.8,-69.6],[-7.6,-69.4],[-5.3,-69.8],[-4.4,-69.6],[-3.2,-70.7],[-2.1,-70.0],[-1.1,-70.4],[-1.4,-71.4],[-2.9,-72.7],[-4.2,-71.9],[-3.9,-71.1],[-5.3,-71.5],[-5.4,-70.4],[-6.5,-70.4]]],[[[-24.1,-49.8],[-25.8,-49.3],[-24.5,-48.4],[-23.5,-49.4],[-22.6,-50.5],[-24.0,-52.1],[-24.0,-53.7],[-25.4,-53.0],[-26.1,-53.9],[-27.4,-53.6],[-27.7,-52.5],[-26.4,-51.5],[-25.3,-51.4],[-24.7,-50.6],[-25.7,-50.3],[-24.1,-49.8]]],[[[-3.8,-47.6],[-2.8,-48.6],[-3.5,-51.5],[-2.6,-50.5],[-2.3,-53.3],[-3.5,-54.0],[-3.6,-54.9],[-4.8,-56.6],[-5.3,-55.1],[-5.8,-56.3],[-8.2,-54.0],[-6.5,-53.7],[-6.3,-52.0],[-7.4,-53.3],[-8.1,-51.8],[-8.4,-52.9],[-9.7,-52.1],[-9.9,-51.2],[-8.7,-50.3],[-10.7,-49.8],[-10.8,-52.0],[-11.4,-52.3],[-11.4,-53.7],[-12.4,-52.6],[-11.6,-51.2],[-12.6,-51.8],[-12.8,-52.8],[-13.5,-52.4],[-14.2,-50.8],[-12.6,-48.3],[-13.1,-48.3],[-13.6,-45.6],[-13.2,-44.8],[-12.0,-44.4],[-11.4,-45.6],[-10.5,-44.3],[-9.2,-47.7],[-9.0,-45.1],[-7.7,-45.7],[-7.0,-48.0],[-6.5,-50.6],[-5.6,-48.3],[-5.4,-50.1],[-4.8,-49.9],[-4.5,-47.8],[-3.8,-47.6]]],[[[-13.6,-49.0],[-15.3,-50.8],[-16.0,-50.4],[-18.1,-47.4],[-18.5,-47.7],[-17.8,-49.6],[-16.4,-50.8],[-15.7,-52.1],[-15.1,-52.4],[-15.1,-53.6],[-16.3,-53.3],[-16.9,-54.3],[-16.2,-54.6],[-16.4,-55.8],[-18.8,-55.3],[-17.5,-52.8],[-18.4,-52.1],[-19.8,-51.9],[-21.0,-50.8],[-19.9,-50.3],[-21.3,-50.2],[-19.9,-49.6],[-21.0,-48.1],[-22.0,-49.4],[-23.1,-48.2],[-22.7,-46.4],[-23.8,-44.5],[-21.6,-44.6],[-20.4,-45.9],[-20.1,-44.5],[-18.8,-43.3],[-19.4,-42.5],[-18.6,-42.1],[-17.2,-43.0],[-16.6,-44.0],[-16.5,-45.4],[-16.1,-43.5],[-14.9,-43.3],[-13.6,-44.0],[-15.8,-46.4],[-14.4,-45.7],[-14.3,-47.0],[-15.4,-47.6],[-14.9,-48.6],[-13.7,-48.2],[-13.6,-49.0]]],[[[5.2,-50.0],[4.3,-51.6],[2.7,-50.9],[0.4,-48.9],[0.6,-48.4],[-0.7,-46.5],[-1.0,-44.2],[-0.5,-43.4],[-1.1,-42.1],[-0.8,-41.2],[0.9,-40.7],[3.4,-42.0],[3.9,-40.7],[2.2,-39.6],[1.9,-37.2],[4.3,-35.0],[4.8,-33.1],[5.9,-33.2],[6.2,-34.5],[5.9,-36.1],[6.9,-39.9],[6.9,-41.9],[6.4,-42.3],[8.4,-45.7],[7.6,-46.9],[6.7,-47.2],[5.8,-46.5],[3.8,-44.1],[2.8,-44.7],[4.6,-47.4],[4.4,-48.4],[5.2,-50.0]]],[[[-50.4,-31.5],[-48.5,-32.8],[-46.4,-33.1],[-47.3,-32.4],[-46.0,-32.3],[-47.0,-31.5],[-46.4,-30.9],[-44.6,-30.4],[-43.6,-31.0],[-45.1,-32.1],[-43.4,-34.3],[-45.3,-35.5],[-46.0,-33.9],[-46.1,-34.7],[-47.8,-34.1],[-48.8,-33.0],[-50.1,-32.4],[-50.4,-31.5]]],[[[-49.4,-15.3],[-48.1,-15.7],[-48.4,-14.4],[-47.3,-15.3],[-46.9,-14.8],[-45.2,-15.5],[-44.4,-16.3],[-44.6,-17.9],[-46.1,-17.5],[-45.6,-16.7],[-46.4,-16.1],[-48.6,-16.1],[-51.2,-17.2],[-50.6,-15.9],[-49.4,-15.3]]],[[[-56.1,-18.5],[-53.6,-19.8],[-54.0,-20.4],[-52.9,-20.9],[-52.6,-19.9],[-51.4,-21.5],[-49.9,-21.6],[-48.1,-23.7],[-48.8,-21.2],[-46.8,-22.8],[-47.1,-24.8],[-45.8,-26.8],[-45.2,-25.6],[-45.9,-24.7],[-45.6,-23.1],[-43.3,-25.0],[-42.7,-26.0],[-43.4,-26.9],[-42.1,-26.6],[-38.6,-29.0],[-38.9,-29.4],[-40.9,-29.5],[-42.4,-29.2],[-44.3,-27.3],[-44.9,-28.4],[-46.6,-28.6],[-47.5,-28.0],[-45.5,-27.6],[-47.0,-27.1],[-47.7,-24.8],[-48.4,-25.4],[-49.2,-24.0],[-50.3,-23.9],[-50.5,-22.7],[-51.6,-22.8],[-52.5,-21.4],[-53.0,-22.1],[-55.2,-21.6],[-54.8,-22.4],[-55.9,-23.0],[-57.4,-22.7],[-58.9,-21.3],[-58.5,-22.3],[-59.5,-23.1],[-60.1,-21.7],[-61.6,-21.3],[-61.7,-19.6],[-63.3,-19.7],[-63.7,-18.9],[-65.0,-18.5],[-64.8,-16.5],[-65.5,-15.7],[-68.0,-14.0],[-66.8,-12.9],[-65.4,-14.2],[-63.5,-14.8],[-63.6,-15.6],[-62.4,-16.8],[-61.3,-16.8],[-61.8,-18.0],[-60.9,-18.9],[-60.4,-18.2],[-59.4,-19.1],[-57.8,-18.6],[-57.1,-19.8],[-56.1,-18.5]]],[[[-54.9,-9.0],[-53.5,-7.5],[-54.0,-7.4],[-56.0,-10.3],[-57.4,-11.8],[-57.5,-10.6],[-58.5,-10.2],[-58.7,-8.5],[-56.4,-7.7],[-54.7,-5.2],[-56.3,-5.2],[-56.3,-3.8],[-54.0,-3.1],[-52.2,-3.5],[-51.1,-2.8],[-50.2,-4.7],[-50.4,-5.7],[-51.8,-7.3],[-51.0,-8.1],[-51.8,-10.8],[-54.1,-11.9],[-54.5,-11.1],[-53.1,-8.8],[-54.7,-10.2],[-54.9,-9.0]]],[[[-71.9,0.5],[-71.6,1.9],[-70.7,1.1],[-67.5,1.7],[-66.5,1.6],[-65.4,0.0],[-66.1,-3.6],[-68.1,-3.5],[-68.1,-2.4],[-69.0,-2.9],[-70.1,-2.6],[-70.1,-0.7],[-71.9,0.5]]],[[[-57.9,3.0],[-57.7,4.1],[-56.6,3.8],[-55.4,2.8],[-53.0,1.8],[-52.3,0.8],[-52.5,-0.8],[-51.6,-1.5],[-52.9,-2.6],[-53.8,-1.6],[-52.9,-1.2],[-56.2,1.1],[-57.9,3.0]]],[[[-59.8,1.7],[-58.5,1.2],[-58.4,1.7],[-60.1,2.8],[-58.8,2.7],[-61.5,3.8],[-62.2,3.2],[-63.6,4.2],[-61.7,5.6],[-60.6,5.0],[-58.4,3.1],[-55.2,-0.3],[-55.4,-1.4],[-58.0,-3.0],[-59.2,-2.3],[-59.3,-1.0],[-60.3,-0.9],[-59.5,0.2],[-60.3,1.0],[-59.8,1.7]]],[[[-55.9,7.0],[-58.2,8.0],[-58.6,9.1],[-58.2,10.5],[-57.1,10.5],[-52.8,6.9],[-51.2,4.2],[-50.9,1.9],[-54.2,5.8],[-55.9,7.0]]],[[[-71.3,6.9],[-70.5,11.0],[-70.1,12.1],[-69.7,11.2],[-68.5,11.2],[-67.4,12.2],[-67.8,11.0],[-69.5,7.9],[-68.6,8.4],[-70.1,5.0],[-71.1,4.7],[-71.5,3.3],[-72.0,4.0],[-71.5,5.6],[-70.3,7.1],[-71.3,6.9]]],[[[-64.8,13.5],[-66.0,16.0],[-63.7,15.2],[-63.6,14.4],[-62.7,14.7],[-62.5,13.2],[-61.2,13.2],[-59.8,12.2],[-60.8,11.7],[-58.6,11.7],[-59.3,9.7],[-61.0,9.7],[-62.3,10.8],[-63.3,11.0],[-64.6,12.2],[-64.8,13.5]]],[[[-75.3,7.1],[-73.7,9.1],[-74.9,9.2],[-73.8,12.3],[-73.3,11.2],[-72.0,10.6],[-71.5,11.9],[-72.6,13.8],[-71.9,14.0],[-72.2,15.5],[-73.0,15.6],[-73.5,16.9],[-73.3,17.9],[-72.4,17.5],[-71.6,17.6],[-70.4,13.5],[-71.4,10.2],[-71.3,8.8],[-72.4,7.0],[-72.0,6.0],[-73.0,4.0],[-73.1,5.5],[-74.1,4.1],[-73.9,5.9],[-75.3,7.1]]],[[[-59.3,21.3],[-58.7,21.1],[-58.0,19.6],[-57.1,17.5],[-57.4,16.8],[-56.0,15.7],[-55.8,14.8],[-56.7,14.1],[-57.9,14.1],[-61.3,16.3],[-61.1,17.4],[-59.7,17.6],[-60.0,19.4],[-58.7,19.4],[-59.3,21.3]]],[[[-80.5,17.0],[-80.7,19.7],[-79.3,21.1],[-79.3,24.7],[-79.6,26.3],[-78.0,27.5],[-78.3,24.8],[-77.7,26.7],[-75.7,25.6],[-75.8,23.6],[-76.7,23.9],[-77.7,22.0],[-78.3,23.0],[-77.5,20.0],[-78.0,18.9],[-78.9,19.4],[-78.7,18.0],[-80.5,17.0]]],[[[-71.6,23.5],[-75.3,21.9],[-75.5,23.1],[-73.3,24.8],[-72.0,26.6],[-74.2,25.1],[-75.0,26.0],[-74.2,27.2],[-72.9,27.7],[-72.3,29.6],[-70.2,30.1],[-68.9,30.0],[-67.8,27.9],[-69.2,28.4],[-67.5,25.6],[-68.3,24.6],[-69.3,24.7],[-70.2,27.7],[-71.6,23.5]]],[[[-71.9,34.5],[-70.7,35.5],[-72.4,35.8],[-72.4,34.5],[-73.3,33.4],[-74.4,34.1],[-73.6,36.3],[-75.0,36.5],[-75.5,35.9],[-75.8,37.5],[-74.8,37.7],[-75.4,38.6],[-74.5,38.7],[-69.9,38.0],[-69.3,39.1],[-70.3,39.1],[-70.4,40.1],[-69.1,40.6],[-71.2,42.9],[-71.0,43.5],[-68.9,43.0],[-67.5,41.7],[-65.9,39.8],[-66.5,38.2],[-65.5,36.7],[-65.8,35.5],[-65.5,33.7],[-66.8,36.0],[-69.8,34.7],[-69.6,33.4],[-71.6,32.8],[-71.9,34.5]]],[[[-76.3,43.0],[-74.2,42.6],[-75.2,43.5],[-75.4,44.6],[-74.1,43.8],[-74.1,45.0],[-72.5,43.9],[-72.6,42.6],[-71.8,41.3],[-72.9,41.2],[-71.7,39.6],[-70.7,40.8],[-71.2,38.8],[-75.5,39.6],[-74.3,40.5],[-76.3,41.9],[-76.3,43.0]]],[[[-82.4,40.8],[-83.4,41.5],[-85.3,41.3],[-85.3,42.7],[-84.5,44.0],[-86.1,43.8],[-85.5,45.7],[-84.0,45.7],[-83.8,46.3],[-85.3,48.4],[-86.0,48.9],[-84.6,49.9],[-84.2,49.3],[-83.6,49.9],[-82.6,49.0],[-79.3,49.4],[-81.0,46.5],[-82.2,46.5],[-82.9,47.4],[-83.7,47.2],[-82.2,45.6],[-82.5,44.9],[-82.0,41.4],[-82.4,40.8]]],[[[-64.6,41.9],[-64.6,40.6],[-65.6,41.0],[-66.7,42.8],[-66.2,43.3],[-68.4,43.6],[-69.7,46.3],[-68.6,47.9],[-67.8,48.2],[-67.9,49.2],[-67.1,49.4],[-69.6,49.9],[-70.5,50.7],[-71.7,50.6],[-69.7,52.2],[-68.4,50.9],[-66.5,51.5],[-65.4,48.2],[-64.2,46.9],[-63.5,45.5],[-65.4,45.6],[-63.5,44.4],[-62.2,42.6],[-62.4,40.7],[-63.1,40.8],[-63.8,42.3],[-64.6,41.9]]],[[[-75.1,60.5],[-74.6,59.1],[-75.2,57.6],[-77.2,57.4],[-77.3,56.4],[-79.1,55.1],[-81.1,52.5],[-81.7,50.9],[-83.5,51.0],[-83.6,52.0],[-82.5,52.9],[-81.6,54.7],[-83.6,53.4],[-83.2,54.2],[-84.7,53.7],[-85.7,52.5],[-86.3,53.0],[-86.2,55.1],[-85.5,58.1],[-84.7,58.9],[-83.0,58.4],[-84.7,57.4],[-83.1,56.1],[-80.8,56.3],[-81.1,57.1],[-80.6,59.5],[-81.8,58.7],[-83.1,59.7],[-84.0,59.6],[-85.5,60.8],[-85.9,61.9],[-84.6,63.0],[-84.0,62.3],[-83.5,61.3],[-82.9,62.3],[-81.0,62.6],[-81.0,61.0],[-80.0,61.1],[-79.4,60.0],[-77.7,61.4],[-77.6,60.6],[-79.6,58.4],[-77.1,58.8],[-75.1,60.5]]],[[[-86.1,70.9],[-86.3,70.1],[-89.0,68.2],[-89.0,67.4],[-90.3,66.5],[-90.8,69.5],[-88.9,70.1],[-88.9,71.1],[-90.2,71.5],[-90.8,72.9],[-88.6,75.1],[-86.1,74.1],[-84.8,71.4],[-83.1,69.1],[-82.2,66.6],[-83.3,66.9],[-84.3,68.0],[-83.8,66.4],[-85.2,67.0],[-86.1,68.7],[-85.5,69.2],[-86.1,70.9]]],[[[-85.0,88.2],[-83.8,90.2],[-82.4,90.7],[-80.8,89.6],[-80.4,91.0],[-78.7,89.3],[-78.9,84.3],[-80.7,85.1],[-82.3,87.2],[-84.3,86.7],[-83.6,88.0],[-85.0,87.4],[-85.0,88.2]]],[[[-90.9,86.9],[-88.5,89.5],[-89.1,89.6],[-88.3,91.3],[-87.3,91.6],[-87.7,90.1],[-86.1,89.0],[-86.5,87.6],[-87.1,87.8],[-87.8,86.2],[-89.1,86.1],[-89.5,83.6],[-90.1,83.5],[-92.2,84.4],[-91.9,86.6],[-90.6,87.9],[-90.9,86.9]]],[[[-90.6,90.2],[-90.1,92.5],[-91.1,91.4],[-93.1,91.8],[-93.3,93.9],[-92.8,94.9],[-92.2,94.4],[-91.4,95.7],[-90.1,95.6],[-90.7,93.6],[-88.7,96.1],[-89.2,94.6],[-87.9,93.6],[-88.4,95.5],[-87.0,95.2],[-86.2,94.1],[-84.8,90.6],[-85.4,89.4],[-86.3,90.3],[-87.0,92.7],[-88.8,91.9],[-89.5,90.1],[-90.6,90.2]]],[[[36.6,-67.9],[36.4,-70.4],[31.9,-67.3],[31.3,-67.7],[32.6,-68.2],[33.0,-68.9],[35.0,-70.7],[34.2,-71.3],[29.6,-72.1],[28.6,-72.0],[26.1,-70.7],[22.4,-69.7],[20.1,-68.6],[19.7,-67.4],[20.4,-67.2],[20.4,-64.9],[19.8,-66.7],[18.9,-65.1],[18.9,-67.9],[18.1,-67.8],[18.2,-65.9],[17.7,-65.8],[17.7,-67.7],[16.9,-68.6],[15.8,-68.6],[14.8,-66.9],[14.8,-64.6],[14.4,-65.6],[14.7,-68.7],[13.1,-69.5],[12.1,-68.0],[11.7,-69.4],[10.4,-69.7],[9.3,-69.2],[9.0,-68.1],[10.6,-65.1],[9.0,-66.6],[8.5,-69.1],[4.3,-67.7],[2.0,-69.4],[0.9,-68.9],[0.6,-68.0],[1.6,-67.2],[4.1,-66.3],[5.3,-65.3],[6.8,-63.5],[5.3,-63.2],[3.9,-64.5],[4.7,-65.1],[2.9,-66.3],[2.1,-66.0],[1.0,-66.9],[-0.9,-66.6],[-0.3,-65.5],[1.2,-64.7],[-1.5,-65.2],[-1.3,-66.1],[-2.2,-67.6],[-2.8,-66.9],[-2.1,-66.0],[-2.1,-64.5],[-1.3,-63.5],[-3.2,-62.6],[-3.0,-64.4],[-3.9,-63.8],[-4.8,-65.6],[-7.1,-64.4],[-5.3,-63.6],[-6.4,-63.3],[-6.6,-62.0],[-8.0,-60.6],[-7.7,-61.9],[-8.8,-61.7],[-9.0,-64.4],[-9.4,-63.9],[-10.4,-65.4],[-10.7,-64.1],[-11.9,-64.1],[-11.3,-62.6],[-12.0,-62.5],[-12.6,-64.5],[-13.2,-64.5],[-13.5,-63.3],[-14.6,-62.9],[-14.6,-63.8],[-15.6,-63.8],[-15.6,-64.8],[-17.9,-64.6],[-18.3,-63.7],[-16.8,-62.3],[-18.7,-62.5],[-18.8,-60.5],[-17.7,-60.8],[-18.8,-59.3],[-17.5,-59.4],[-16.2,-61.5],[-13.3,-62.3],[-14.6,-60.6],[-12.6,-61.6],[-11.8,-61.5],[-13.1,-60.6],[-14.1,-59.2],[-16.2,-59.4],[-16.4,-58.0],[-15.1,-57.3],[-14.3,-57.6],[-12.4,-60.3],[-10.4,-60.0],[-10.8,-59.2],[-12.3,-58.8],[-12.2,-57.4],[-11.3,-58.6],[-11.2,-57.6],[-8.7,-58.9],[-7.7,-58.0],[-9.5,-57.3],[-8.4,-56.5],[-5.4,-58.0],[-3.7,-60.3],[-4.6,-58.6],[-4.4,-58.1],[-2.5,-58.5],[-1.8,-59.0],[-1.2,-57.5],[-1.6,-55.3],[0.9,-54.6],[1.8,-55.4],[3.1,-54.8],[4.1,-55.2],[2.2,-57.7],[2.5,-59.2],[1.5,-61.1],[1.7,-62.6],[2.1,-61.2],[3.0,-62.4],[3.8,-62.6],[2.7,-60.7],[3.4,-57.7],[4.5,-56.6],[7.0,-59.1],[8.8,-60.1],[10.1,-61.8],[10.4,-61.1],[9.2,-59.5],[12.1,-60.9],[10.0,-59.2],[7.1,-57.9],[6.6,-56.4],[5.7,-55.7],[5.7,-54.6],[4.6,-53.3],[3.2,-53.1],[0.7,-53.3],[-0.3,-52.7],[-0.8,-50.8],[0.4,-51.2],[-0.9,-50.1],[-1.5,-48.9],[5.2,-52.8],[8.8,-54.7],[10.1,-55.6],[11.9,-57.5],[11.8,-56.5],[12.6,-55.6],[11.4,-55.3],[10.9,-54.5],[12.9,-52.5],[14.6,-53.8],[14.7,-56.1],[15.6,-56.1],[16.3,-57.3],[16.1,-59.6],[17.1,-58.6],[17.8,-59.1],[17.5,-60.6],[17.9,-61.1],[18.5,-59.2],[17.2,-57.3],[17.3,-56.2],[16.1,-54.2],[16.5,-53.3],[19.2,-54.3],[20.2,-56.0],[21.9,-57.8],[21.3,-55.9],[22.4,-55.0],[26.7,-57.8],[27.0,-58.8],[24.7,-61.2],[23.8,-62.9],[24.5,-64.6],[24.6,-62.7],[25.2,-62.3],[26.6,-60.2],[28.1,-61.1],[27.8,-58.8],[28.3,-58.0],[30.8,-58.5],[30.9,-57.5],[29.2,-56.4],[27.9,-56.1],[26.1,-54.4],[21.8,-52.5],[20.5,-51.6],[16.0,-49.9],[13.1,-47.9],[12.3,-44.6],[11.5,-43.2],[10.8,-40.1],[11.0,-38.7],[11.6,-38.0],[15.3,-35.8],[17.1,-35.9],[19.7,-35.0],[24.6,-31.7],[25.3,-29.7],[24.7,-27.0],[19.3,-27.2],[14.6,-28.4],[13.4,-29.4],[11.8,-29.4],[10.4,-30.4],[9.5,-30.2],[7.9,-28.3],[6.3,-27.5],[5.7,-26.0],[5.8,-23.5],[6.3,-22.0],[6.2,-20.2],[6.5,-17.5],[8.0,-16.2],[7.8,-17.3],[8.1,-18.9],[9.5,-18.9],[11.3,-17.4],[12.1,-14.6],[11.7,-13.9],[9.8,-13.3],[8.4,-14.7],[9.2,-13.4],[8.7,-11.4],[7.8,-10.9],[6.4,-10.9],[6.4,-10.3],[8.8,-9.7],[11.3,-9.5],[13.5,-12.6],[15.1,-12.7],[16.6,-10.9],[18.1,-10.6],[20.5,-6.9],[19.9,-4.6],[20.6,-3.1],[23.5,-1.4],[24.2,-2.0],[26.8,-6.7],[28.3,-8.0],[30.4,-7.0],[32.1,-6.8],[33.9,-5.4],[34.5,-4.2],[35.1,-4.4],[37.1,-6.8],[36.6,-67.9]]],[[[-46.5,87.0],[-45.2,86.7],[-46.0,85.6],[-51.8,85.1],[-51.7,83.2],[-53.3,81.2],[-53.0,79.9],[-53.8,78.7],[-52.3,76.0],[-52.6,74.2],[-51.1,72.3],[-51.4,70.9],[-52.3,69.8],[-52.8,67.3],[-51.4,66.1],[-51.0,64.9],[-51.8,63.1],[-51.7,61.5],[-47.7,58.1],[-46.7,55.4],[-46.1,50.0],[-44.7,47.7],[-44.3,44.6],[-42.8,44.1],[-41.3,45.2],[-39.5,47.3],[-37.3,48.7],[-35.2,47.4],[-34.4,47.5],[-32.4,49.5],[-30.2,49.0],[-28.7,48.3],[-29.3,46.4],[-29.2,45.1],[-27.8,43.0],[-27.7,39.5],[-28.1,37.5],[-28.9,37.3],[-29.8,35.7],[-29.5,33.7],[-27.2,31.9],[-28.1,29.9],[-28.2,27.3],[-28.5,24.8],[-30.2,22.6],[-29.8,21.9],[-28.4,21.8],[-27.6,19.3],[-27.0,18.5],[-25.3,18.0],[-23.2,16.5],[-21.1,14.0],[-21.1,11.1],[-20.3,10.6],[14.1,11.0],[22.2,7.6],[27.0,7.4],[30.6,6.3],[33.8,4.5],[37.3,3.9],[40.2,2.8],[40.3,1.5],[38.2,1.7],[35.7,2.7],[32.5,2.8],[30.6,3.8],[28.4,5.5],[26.6,5.6],[24.7,4.4],[23.0,4.2],[22.3,3.1],[22.1,0.4],[21.3,0.0],[21.0,-1.5],[19.1,-3.7],[17.2,-3.5],[16.1,-2.5],[14.4,-3.8],[10.8,-5.4],[9.9,-7.2],[7.9,-6.9],[4.6,-9.4],[4.0,-8.8],[4.9,-8.1],[3.5,-8.0],[3.7,-8.8],[1.2,-9.9],[1.1,-8.9],[-1.2,-9.8],[-0.3,-10.2],[0.7,-11.6],[-0.4,-12.3],[-0.8,-14.6],[-0.3,-15.3],[-0.3,-17.1],[-1.1,-18.8],[-1.4,-20.6],[-2.6,-23.7],[-2.6,-26.7],[-3.0,-28.3],[-2.8,-30.7],[-2.0,-34.2],[-2.6,-36.7],[-2.4,-38.8],[-3.4,-40.4],[-6.6,-42.3],[-8.4,-42.5],[-10.8,-41.2],[-13.6,-41.1],[-17.4,-38.7],[-17.6,-37.7],[-18.7,-38.5],[-19.6,-37.2],[-20.6,-38.1],[-21.6,-37.5],[-22.9,-35.9],[-24.6,-34.7],[-24.9,-33.8],[-26.7,-31.9],[-27.7,-29.9],[-27.0,-28.6],[-27.3,-27.7],[-25.0,-25.1],[-21.9,-25.7],[-21.4,-28.0],[-21.9,-29.2],[-22.4,-28.6],[-23.6,-30.7],[-21.6,-30.1],[-20.3,-29.2],[-20.2,-27.9],[-20.6,-25.0],[-20.0,-24.3],[-17.8,-24.3],[-17.4,-25.0],[-16.7,-30.8],[-20.0,-33.0],[-20.0,-33.9],[-16.8,-32.6],[-15.9,-31.2],[-16.3,-26.9],[-15.9,-24.2],[-13.9,-23.3],[-13.3,-22.5],[-11.3,-21.4],[-9.9,-21.2],[-8.8,-20.1],[-7.8,-18.0],[-6.9,-15.4],[-5.6,-15.2],[-5.6,-14.1],[-6.5,-12.2],[-7.9,-11.6],[-9.7,-12.2],[-10.5,-9.9],[-10.4,-12.9],[-11.9,-12.7],[-12.7,-13.9],[-18.9,-18.3],[-20.6,-21.4],[-21.8,-21.9],[-23.1,-21.2],[-24.0,-19.7],[-25.8,-19.2],[-25.0,-20.2],[-27.0,-19.7],[-28.9,-20.0],[-27.5,-20.8],[-26.7,-20.2],[-25.9,-22.0],[-24.2,-22.4],[-23.8,-23.9],[-25.9,-23.7],[-26.5,-24.6],[-28.0,-23.7],[-28.1,-24.9],[-27.2,-25.6],[-28.1,-26.4],[-29.3,-26.1],[-28.7,-27.3],[-28.9,-28.8],[-31.2,-28.2],[-29.5,-30.3],[-28.2,-30.0],[-26.0,-33.5],[-28.7,-33.8],[-30.3,-32.9],[-31.1,-31.9],[-32.2,-31.7],[-33.0,-29.6],[-33.4,-31.1],[-33.8,-29.6],[-36.1,-28.8],[-38.5,-27.0],[-40.6,-25.9],[-42.5,-23.5],[-40.4,-24.3],[-37.0,-23.4],[-35.9,-24.2],[-33.0,-25.5],[-33.4,-26.7],[-32.3,-26.8],[-32.0,-25.4],[-33.9,-23.6],[-32.7,-23.9],[-33.4,-22.8],[-31.5,-22.9],[-32.4,-22.1],[-34.1,-22.0],[-34.7,-23.0],[-36.3,-21.8],[-35.4,-19.8],[-36.1,-19.8],[-36.8,-16.7],[-36.5,-15.6],[-37.5,-14.3],[-33.9,-12.1],[-33.0,-10.3],[-31.3,-11.2],[-31.3,-12.1],[-32.7,-13.7],[-32.9,-14.9],[-30.9,-12.7],[-30.9,-13.8],[-28.9,-12.9],[-28.1,-14.3],[-27.6,-12.2],[-26.2,-11.2],[-25.5,-9.8],[-24.3,-9.5],[-23.7,-8.3],[-21.2,-8.8],[-21.0,-8.0],[-18.3,-9.3],[-14.5,-8.8],[-13.8,-8.1],[-12.0,-7.7],[-12.2,-6.7],[-13.7,-5.3],[-14.7,-5.7],[-16.9,-5.6],[-19.5,-5.0],[-21.9,-5.5],[-22.6,-4.5],[-26.0,-4.5],[-26.8,-4.8],[-27.5,-6.7],[-28.2,-7.2],[-28.1,-8.4],[-30.5,-6.9],[-29.8,-5.7],[-28.0,-5.1],[-27.8,-4.4],[-29.8,-4.7],[-30.9,-5.9],[-32.4,-5.0],[-34.5,-5.7],[-35.8,-4.6],[-36.6,-8.3],[-37.9,-10.5],[-37.6,-10.8],[-35.9,-7.8],[-35.1,-7.0],[-34.8,-7.8],[-32.9,-8.2],[-32.6,-9.0],[-34.4,-11.7],[-35.6,-12.8],[-36.9,-13.1],[-38.1,-14.4],[-37.0,-15.8],[-37.1,-17.7],[-36.8,-19.5],[-39.4,-21.7],[-41.1,-21.0],[-40.8,-22.0],[-43.1,-21.2],[-45.2,-18.8],[-43.6,-19.1],[-43.9,-18.0],[-43.1,-17.3],[-41.8,-18.0],[-41.4,-15.9],[-42.7,-16.4],[-43.8,-16.0],[-44.4,-14.9],[-46.3,-14.4],[-47.6,-13.7],[-47.2,-13.2],[-45.2,-13.1],[-44.5,-13.7],[-43.0,-13.0],[-43.3,-11.1],[-42.4,-10.7],[-42.1,-9.2],[-41.0,-8.9],[-40.0,-4.6],[-38.6,-4.6],[-36.6,-5.5],[-36.8,-4.5],[-39.4,-4.0],[-40.5,-4.6],[-41.8,-4.0],[-42.5,-4.8],[-41.5,-5.3],[-41.1,-6.7],[-42.3,-8.3],[-42.8,-9.9],[-44.0,-8.7],[-43.6,-7.4],[-44.5,-7.6],[-45.1,-6.4],[-45.0,-9.0],[-46.0,-9.8],[-46.9,-9.6],[-48.6,-12.4],[-50.1,-11.5],[-49.5,-10.3],[-48.0,-9.0],[-49.7,-9.5],[-50.1,-8.2],[-49.3,-7.2],[-47.9,-6.7],[-49.1,-5.9],[-47.6,-4.0],[-47.8,-2.9],[-48.5,-3.8],[-50.0,-3.3],[-50.0,-2.1],[-49.1,-2.1],[-48.4,-0.3],[-49.4,1.0],[-48.9,2.9],[-52.1,6.8],[-51.3,8.0],[-49.7,4.7],[-49.1,5.0],[-48.1,3.4],[-47.1,4.2],[-48.1,5.0],[-46.5,4.7],[-44.6,2.9],[-43.6,3.1],[-42.8,4.1],[-42.4,6.3],[-41.5,5.7],[-40.6,7.0],[-38.9,7.5],[-38.8,5.1],[-39.7,5.2],[-40.3,3.0],[-38.8,4.2],[-37.5,3.5],[-37.5,2.8],[-36.0,2.8],[-35.5,6.0],[-34.8,7.5],[-35.1,8.2],[-36.4,6.0],[-36.6,4.0],[-38.0,4.8],[-37.9,8.4],[-37.4,7.7],[-36.7,11.0],[-35.8,11.4],[-33.9,10.2],[-34.2,8.6],[-32.6,6.6],[-32.1,6.6],[-30.8,4.3],[-31.3,1.1],[-31.7,0.2],[-33.1,0.6],[-34.1,-0.9],[-35.2,-1.3],[-36.6,-3.2],[-33.2,-1.8],[-31.4,-2.3],[-30.7,-3.0],[-30.0,-2.4],[-32.2,-1.7],[-30.0,1.0],[-29.8,4.6],[-33.2,8.7],[-33.5,10.8],[-32.4,10.5],[-31.8,11.5],[-31.0,11.1],[-29.7,12.4],[-30.8,14.5],[-30.2,15.9],[-31.2,18.0],[-33.3,19.5],[-34.8,21.5],[-36.8,21.8],[-38.6,22.4],[-39.4,23.7],[-41.2,24.1],[-41.7,25.7],[-42.5,24.9],[-44.4,24.3],[-44.0,23.1],[-42.5,23.8],[-40.9,23.5],[-40.6,22.5],[-41.7,21.1],[-41.5,20.5],[-39.9,22.8],[-37.3,21.0],[-36.2,21.1],[-34.4,18.3],[-31.9,17.6],[-31.7,16.7],[-33.0,14.7],[-34.6,14.3],[-36.6,16.2],[-39.1,16.0],[-39.4,17.3],[-40.9,18.0],[-42.3,17.7],[-43.0,19.5],[-44.3,20.4],[-45.0,19.9],[-43.9,19.2],[-43.1,17.1],[-40.8,17.2],[-39.4,15.4],[-40.4,15.7],[-40.3,14.2],[-40.9,13.5],[-43.0,12.7],[-40.7,13.0],[-39.6,14.2],[-38.4,14.4],[-38.0,13.5],[-41.8,11.0],[-42.1,7.0],[-42.9,6.6],[-43.9,8.0],[-43.9,10.0],[-44.6,12.0],[-44.7,13.9],[-45.3,16.8],[-46.5,18.9],[-45.6,16.1],[-44.0,6.2],[-44.0,4.5],[-45.8,5.2],[-46.3,6.2],[-48.5,7.3],[-49.3,8.2],[-49.2,9.3],[-50.0,10.7],[-49.4,10.9],[-50.8,13.6],[-50.0,13.8],[-48.6,11.9],[-48.1,10.3],[-46.8,8.6],[-46.1,8.6],[-47.7,11.4],[-48.7,14.5],[-49.9,15.9],[-49.4,17.9],[-50.4,16.7],[-51.2,17.6],[-51.8,14.8],[-53.9,17.4],[-52.3,18.9],[-53.5,18.7],[-55.7,19.5],[-54.3,21.7],[-56.0,21.8],[-56.6,25.4],[-55.8,26.4],[-54.5,25.8],[-53.9,24.6],[-52.1,23.0],[-50.7,19.3],[-50.6,20.7],[-51.2,21.9],[-50.6,22.6],[-51.6,23.0],[-51.3,24.4],[-52.3,25.3],[-52.9,26.9],[-53.0,28.8],[-54.3,30.6],[-53.9,31.4],[-52.9,30.2],[-52.4,31.7],[-53.4,31.9],[-52.9,33.1],[-54.3,33.6],[-54.0,32.3],[-56.0,30.1],[-57.6,31.2],[-58.5,33.3],[-58.5,31.2],[-59.1,30.6],[-60.5,31.2],[-61.1,35.0],[-60.0,36.9],[-60.5,37.5],[-61.8,35.5],[-62.7,35.3],[-63.3,38.0],[-62.3,39.6],[-60.7,40.2],[-57.9,39.7],[-57.5,40.6],[-56.5,39.9],[-56.2,38.7],[-55.1,38.0],[-55.0,39.2],[-56.7,41.3],[-56.4,42.5],[-54.9,41.8],[-55.3,45.8],[-54.5,46.7],[-52.7,47.2],[-51.1,45.4],[-50.0,46.8],[-51.4,47.7],[-52.8,47.9],[-54.5,49.4],[-54.1,50.7],[-52.5,51.7],[-51.8,54.0],[-52.3,54.0],[-53.2,51.9],[-55.2,50.6],[-56.1,45.9],[-55.7,44.2],[-58.0,41.5],[-59.7,41.6],[-61.3,43.2],[-60.1,44.3],[-61.3,45.4],[-61.7,44.1],[-63.6,47.5],[-63.0,48.9],[-64.1,49.5],[-64.9,51.0],[-63.4,51.6],[-61.9,48.3],[-62.3,51.1],[-60.5,50.1],[-57.6,49.5],[-57.8,50.0],[-59.8,50.7],[-59.8,52.0],[-61.1,51.6],[-62.0,52.8],[-60.1,54.6],[-61.3,54.7],[-61.4,53.9],[-63.0,53.0],[-63.9,53.2],[-64.2,52.1],[-65.6,53.6],[-64.6,55.6],[-65.5,57.2],[-66.2,54.3],[-68.4,54.6],[-69.6,55.9],[-68.8,57.3],[-70.0,57.0],[-69.6,58.0],[-71.3,57.5],[-71.0,58.7],[-72.5,58.1],[-72.7,59.3],[-71.7,60.9],[-70.1,61.4],[-69.3,60.8],[-69.4,62.1],[-68.7,61.6],[-66.7,62.0],[-65.5,60.8],[-66.1,59.6],[-65.1,59.8],[-63.9,58.7],[-63.5,57.3],[-61.8,58.4],[-59.2,56.8],[-57.7,57.3],[-59.6,57.7],[-60.2,59.2],[-63.0,59.0],[-63.7,59.4],[-64.9,62.3],[-65.8,62.9],[-67.2,64.7],[-67.2,65.8],[-66.4,66.5],[-64.2,65.8],[-63.2,64.4],[-62.5,64.7],[-61.3,63.8],[-59.6,64.2],[-58.3,62.9],[-58.9,64.8],[-60.6,65.2],[-59.7,67.1],[-58.9,67.4],[-59.0,69.1],[-59.7,67.7],[-60.5,67.6],[-61.2,65.9],[-62.6,66.1],[-63.3,67.2],[-66.0,67.6],[-66.7,68.2],[-67.3,70.4],[-66.3,70.3],[-64.6,71.8],[-62.7,71.9],[-62.2,72.9],[-65.6,72.3],[-66.8,72.5],[-67.1,74.9],[-65.6,76.9],[-62.4,77.9],[-61.6,75.7],[-61.0,77.6],[-60.0,77.2],[-59.2,74.7],[-57.6,74.0],[-56.2,72.4],[-55.9,71.4],[-55.3,73.2],[-56.9,74.6],[-58.4,74.9],[-59.2,78.4],[-59.9,78.9],[-62.9,78.9],[-63.9,81.1],[-63.3,85.7],[-62.0,85.4],[-61.1,83.9],[-60.4,84.2],[-61.6,85.5],[-62.1,86.8],[-61.6,88.4],[-63.0,90.8],[-61.3,92.6],[-59.6,91.8],[-59.0,92.2],[-60.3,93.1],[-62.9,92.5],[-63.4,92.8],[-62.8,89.1],[-63.5,87.5],[-64.4,86.6],[-65.1,87.3],[-64.6,85.4],[-65.3,78.1],[-65.8,78.0],[-67.8,80.5],[-68.9,81.0],[-69.5,82.2],[-69.0,83.3],[-69.6,86.5],[-68.9,87.5],[-70.4,90.1],[-70.9,92.1],[-69.9,93.4],[-70.4,94.5],[-69.3,94.7],[-70.5,95.4],[-71.2,97.4],[-69.9,100.7],[-69.2,99.8],[-66.6,100.9],[-64.1,100.4],[-64.1,100.4],[-46.5,87.0]]],[[[24.0,-78.0],[26.0,-78.4],[26.4,-80.1],[24.6,-80.5],[22.9,-80.3],[23.3,-82.3],[23.9,-81.7],[25.1,-82.5],[26.2,-82.6],[25.7,-83.8],[26.8,-84.1],[25.9,-85.3],[27.0,-86.3],[28.5,-86.1],[27.9,-86.7],[28.1,-88.2],[27.1,-86.9],[25.9,-87.5],[25.1,-86.8],[25.1,-85.2],[24.5,-85.1],[24.3,-86.9],[23.7,-87.5],[23.4,-85.2],[22.5,-85.2],[22.6,-84.4],[24.3,-83.8],[20.5,-83.8],[20.7,-83.0],[18.0,-82.3],[19.9,-81.4],[20.1,-80.4],[21.9,-79.5],[22.5,-78.5],[20.0,-79.5],[19.1,-80.6],[17.0,-81.0],[16.5,-80.0],[17.2,-79.4],[16.1,-79.0],[17.0,-78.4],[14.0,-78.1],[15.3,-76.2],[16.3,-75.5],[20.1,-75.1],[21.1,-74.8],[21.9,-77.7],[21.8,-74.7],[23.6,-74.1],[23.7,-75.1],[25.4,-75.1],[24.5,-74.1],[25.5,-73.4],[33.4,-73.1],[35.0,-72.2],[37.6,-72.0],[38.6,-71.6],[39.8,-71.9],[41.4,-73.6],[41.5,-75.4],[40.9,-75.8],[40.0,-74.9],[39.9,-75.9],[38.6,-76.8],[37.2,-75.5],[37.7,-77.5],[36.9,-77.9],[33.5,-76.9],[32.5,-75.8],[30.8,-75.1],[29.9,-74.1],[29.8,-75.3],[30.6,-75.4],[31.5,-76.7],[34.2,-78.3],[37.0,-78.6],[37.8,-79.1],[40.2,-78.7],[41.6,-80.4],[43.5,-81.1],[43.0,-81.9],[39.9,-82.1],[38.8,-82.4],[36.9,-82.3],[36.4,-81.1],[35.9,-82.0],[36.7,-82.9],[37.8,-82.9],[37.4,-83.8],[39.6,-82.9],[41.3,-83.4],[41.6,-85.0],[42.5,-84.4],[44.5,-85.1],[44.3,-87.0],[45.9,-87.0],[45.1,-88.6],[46.1,-90.1],[47.1,-90.4],[46.2,-92.4],[46.9,-92.8],[45.6,-94.0],[44.4,-92.7],[44.3,-90.6],[43.3,-91.1],[42.1,-90.9],[42.7,-88.5],[41.5,-87.9],[41.1,-87.1],[39.9,-87.9],[38.1,-87.0],[37.9,-85.6],[37.1,-86.7],[35.0,-86.8],[33.9,-85.5],[34.4,-87.6],[32.9,-87.9],[31.2,-85.8],[32.2,-84.6],[34.4,-84.3],[34.2,-83.0],[31.5,-84.4],[32.4,-82.9],[32.8,-80.5],[33.5,-78.9],[31.4,-80.3],[31.2,-81.0],[30.1,-81.0],[28.8,-79.4],[28.7,-77.8],[28.2,-78.4],[28.9,-80.5],[27.3,-79.7],[26.7,-77.7],[25.5,-77.6],[24.0,-78.0]]],[[[-46.9,-37.9],[-46.5,-35.9],[-44.8,-36.0],[-44.2,-35.3],[-42.3,-35.9],[-41.7,-37.1],[-40.0,-37.9],[-36.1,-37.8],[-35.9,-36.7],[-36.8,-37.4],[-37.9,-37.3],[-37.3,-35.9],[-38.0,-36.0],[-39.2,-37.4],[-41.0,-37.1],[-41.6,-36.3],[-41.1,-34.9],[-42.5,-34.7],[-43.8,-33.2],[-43.4,-32.3],[-41.9,-32.8],[-41.2,-33.6],[-39.7,-33.1],[-38.1,-34.0],[-39.1,-32.8],[-39.7,-30.7],[-37.5,-29.9],[-37.6,-31.2],[-37.0,-32.7],[-36.8,-31.1],[-37.2,-30.4],[-35.5,-30.9],[-35.8,-33.5],[-34.6,-33.9],[-35.1,-36.7],[-34.6,-38.0],[-33.6,-33.9],[-34.5,-32.0],[-33.1,-32.3],[-32.3,-33.2],[-32.5,-34.0],[-31.5,-35.1],[-31.1,-37.6],[-30.4,-37.2],[-31.0,-33.7],[-28.8,-35.2],[-28.0,-34.6],[-26.5,-36.3],[-27.9,-37.5],[-27.1,-38.3],[-27.0,-39.6],[-26.0,-37.8],[-25.5,-38.4],[-23.6,-38.8],[-24.2,-39.7],[-22.1,-40.7],[-23.4,-41.8],[-23.7,-43.1],[-25.0,-42.0],[-25.3,-44.6],[-26.3,-43.6],[-25.6,-45.2],[-26.4,-45.8],[-24.8,-46.3],[-24.8,-47.6],[-26.5,-47.9],[-26.9,-46.4],[-28.0,-46.2],[-28.3,-49.6],[-29.8,-48.5],[-29.7,-47.6],[-31.0,-49.2],[-31.0,-49.8],[-32.3,-49.6],[-33.2,-50.8],[-34.6,-50.5],[-34.0,-49.4],[-35.6,-49.9],[-36.3,-49.3],[-34.8,-48.7],[-32.5,-48.6],[-34.0,-48.0],[-33.7,-47.5],[-32.0,-47.8],[-33.1,-46.9],[-32.3,-46.3],[-33.4,-45.9],[-31.9,-43.9],[-30.3,-42.9],[-32.4,-43.3],[-31.7,-42.3],[-33.1,-43.0],[-33.2,-41.9],[-34.5,-43.3],[-35.7,-42.9],[-36.3,-43.6],[-37.0,-41.8],[-37.9,-44.7],[-37.6,-45.9],[-36.8,-46.5],[-37.4,-48.1],[-39.4,-47.1],[-40.6,-47.0],[-41.7,-46.2],[-40.6,-45.5],[-40.1,-44.5],[-41.5,-43.1],[-40.6,-41.4],[-41.6,-40.2],[-40.6,-39.4],[-41.1,-39.0],[-45.4,-40.7],[-46.3,-40.9],[-44.6,-39.2],[-44.9,-38.2],[-46.9,-37.9]]],[[[-83.4,71.8],[-84.3,72.2],[-84.9,74.4],[-84.1,75.8],[-85.3,75.6],[-84.6,77.5],[-85.8,76.9],[-85.9,78.4],[-87.5,79.2],[-88.9,81.7],[-88.3,83.3],[-87.4,83.3],[-85.4,79.7],[-82.9,77.4],[-83.4,79.2],[-84.9,80.1],[-86.2,82.5],[-86.4,83.9],[-85.2,84.0],[-83.3,81.2],[-83.8,83.4],[-82.3,82.7],[-82.4,84.0],[-81.1,84.4],[-81.7,85.8],[-79.0,83.1],[-78.2,81.7],[-78.3,86.3],[-77.7,87.0],[-78.1,88.9],[-77.1,89.2],[-80.1,91.7],[-78.4,92.7],[-77.6,91.9],[-77.8,93.5],[-78.6,93.6],[-79.9,92.4],[-80.8,92.8],[-80.3,94.2],[-81.5,94.3],[-81.3,95.1],[-79.0,96.5],[-81.5,95.4],[-82.5,96.4],[-81.9,97.6],[-80.4,96.9],[-81.7,98.2],[-78.5,100.9],[-77.7,99.3],[-77.6,101.0],[-75.7,101.2],[-75.3,100.0],[-74.4,99.9],[-74.4,97.6],[-75.1,96.4],[-74.1,96.9],[-74.3,99.1],[-73.6,100.6],[-72.7,100.4],[-72.5,96.3],[-72.9,94.8],[-72.0,95.2],[-71.3,94.1],[-71.7,91.4],[-70.7,89.2],[-70.9,88.4],[-70.2,86.6],[-70.1,83.5],[-70.5,79.6],[-71.3,78.1],[-70.5,76.4],[-71.4,74.9],[-71.4,73.9],[-72.1,72.8],[-71.9,72.0],[-71.0,73.6],[-70.9,74.8],[-69.3,74.5],[-68.7,71.6],[-70.8,71.4],[-69.2,70.8],[-68.8,69.7],[-69.0,67.6],[-69.3,68.5],[-70.3,68.3],[-69.3,66.9],[-69.2,65.9],[-70.3,65.4],[-71.8,66.6],[-70.3,64.4],[-72.4,62.6],[-73.2,63.2],[-72.8,64.2],[-74.4,62.4],[-76.3,63.3],[-75.6,64.8],[-73.5,66.6],[-74.7,66.6],[-76.6,64.9],[-77.3,66.1],[-77.2,67.2],[-75.4,67.3],[-74.1,68.4],[-76.1,68.4],[-75.0,70.4],[-75.9,70.4],[-77.0,69.4],[-76.8,71.1],[-77.9,72.4],[-77.7,73.0],[-76.6,72.5],[-77.6,73.7],[-77.6,74.6],[-75.3,74.0],[-74.4,74.6],[-77.5,75.7],[-77.7,76.9],[-75.9,78.6],[-75.1,77.6],[-75.4,79.3],[-73.9,81.7],[-74.1,82.3],[-75.4,81.0],[-75.4,80.2],[-77.1,78.0],[-77.8,78.6],[-78.4,76.9],[-79.1,76.9],[-79.7,78.3],[-80.0,76.9],[-79.7,72.7],[-78.7,73.8],[-79.7,70.8],[-78.5,69.7],[-79.9,68.4],[-79.3,68.2],[-79.1,66.4],[-81.5,67.4],[-83.0,70.0],[-83.4,71.8]]]]}},{"type":"Feature","id":"CL.CO","properties":{"name":"Coquimbo","country_code":"cl","country_es":"Chile","hc_key":"cl-co"},"geometry":{"type":"Polygon","coordinates":[[[-25.3,654.2],[-23.7,651.3],[-21.8,651.4],[-20.5,649.9],[-19.3,650.6],[-18.2,655.0],[-13.7,656.3],[-12.4,657.4],[-12.1,658.5],[-10.7,658.9],[-8.3,657.7],[-7.7,656.0],[-5.6,647.6],[-4.4,645.4],[-2.8,644.3],[-0.7,641.6],[1.4,641.2],[3.9,640.0],[6.0,640.0],[7.8,640.9],[8.2,638.4],[8.0,634.6],[6.8,630.4],[8.2,630.5],[9.9,629.4],[9.9,627.3],[9.0,626.7],[8.6,624.1],[7.1,622.4],[5.5,621.7],[2.6,622.9],[2.0,622.6],[2.6,619.9],[1.0,618.3],[-0.3,614.3],[-0.4,612.4],[-1.4,610.3],[-1.9,606.4],[-0.1,604.0],[-1.8,603.4],[-2.8,601.2],[-4.1,600.6],[-5.2,601.9],[-6.6,599.7],[-6.8,597.1],[-7.3,596.0],[-6.9,594.3],[-7.4,592.9],[-7.7,589.0],[-6.1,585.3],[-5.1,584.0],[-5.1,582.1],[-3.7,580.0],[-0.9,579.7],[0.8,577.5],[0.0,575.4],[-2.3,575.5],[-2.6,574.6],[-1.4,572.5],[-1.2,570.5],[-2.4,570.2],[-4.4,570.6],[-5.6,572.3],[-8.8,573.7],[-10.7,575.4],[-13.4,575.8],[-16.4,576.9],[-17.5,575.5],[-18.5,575.3],[-20.7,576.4],[-22.3,575.9],[-25.5,573.8],[-27.6,574.9],[-30.3,570.4],[-29.6,576.5],[-30.1,578.3],[-29.5,579.0],[-30.5,580.5],[-29.9,582.2],[-31.4,587.4],[-31.4,589.4],[-32.4,592.2],[-33.5,598.4],[-34.0,599.8],[-33.7,602.1],[-33.8,604.7],[-34.4,606.3],[-35.2,610.2],[-35.1,612.2],[-35.5,614.9],[-35.1,616.9],[-34.8,622.6],[-33.8,625.6],[-33.2,624.5],[-30.9,624.5],[-29.3,627.8],[-28.5,627.1],[-27.7,628.3],[-27.8,631.1],[-28.5,632.6],[-25.5,635.0],[-25.4,636.7],[-26.5,638.5],[-26.8,640.6],[-25.7,643.7],[-26.9,645.8],[-26.3,648.8],[-27.3,651.7],[-28.1,652.7],[-30.8,654.6],[-28.5,655.4],[-27.1,655.2],[-25.3,654.2]]]}},{"type":"Feature","id":"CL.AT","properties":{"name":"Atacama","country_code":"cl","country_es":"Chile","hc_key":"cl-at"},"geometry":{"type":"Polygon","coordinates":[[[-25.3,654.2],[-28.5,655.4],[-30.8,654.6],[-31.0,659.6],[-31.9,662.3],[-31.1,665.0],[-28.7,666.3],[-27.9,668.4],[-26.6,669.9],[-26.3,671.8],[-26.8,673.0],[-25.8,673.7],[-25.9,675.2],[-24.4,676.3],[-23.5,678.8],[-24.1,680.6],[-23.5,681.4],[-23.2,684.9],[-23.6,686.3],[-23.0,687.6],[-22.8,690.5],[-21.9,692.5],[-22.1,693.5],[-20.7,696.8],[-20.5,698.4],[-18.3,698.6],[-17.3,699.7],[-17.5,701.9],[-16.9,703.4],[-18.3,706.8],[-18.0,708.9],[-18.6,710.4],[-18.7,712.7],[-18.3,714.1],[-16.5,714.0],[-16.0,715.9],[-14.5,717.4],[-15.4,720.5],[-14.5,723.3],[-13.2,724.4],[-13.8,725.4],[-13.1,726.3],[-12.2,730.2],[-12.6,731.6],[-12.1,732.7],[-12.4,734.5],[-10.7,735.9],[-12.0,737.0],[-11.2,738.9],[-11.8,741.0],[-11.6,743.5],[-10.9,744.8],[-8.8,747.8],[-5.0,750.6],[-1.7,750.6],[1.4,753.1],[3.8,753.6],[4.8,752.5],[8.2,752.9],[12.5,755.3],[16.2,755.7],[19.4,754.8],[28.7,755.7],[29.1,757.3],[30.7,760.0],[30.3,762.7],[30.7,763.2],[34.9,763.5],[38.0,763.3],[41.2,765.5],[42.1,765.8],[40.8,761.7],[40.9,759.6],[42.1,757.9],[42.0,755.3],[43.5,752.7],[43.8,750.4],[45.5,743.1],[45.5,740.7],[42.2,738.2],[41.5,737.2],[41.0,732.9],[41.6,730.3],[47.9,721.2],[48.3,719.7],[47.6,716.3],[46.4,716.3],[42.9,715.4],[41.1,713.0],[39.5,713.4],[37.8,714.6],[35.7,714.4],[33.7,711.4],[33.6,709.3],[32.4,706.5],[30.4,705.0],[30.0,702.1],[28.4,699.1],[28.8,698.0],[27.6,696.9],[26.4,691.6],[25.3,690.3],[23.1,689.4],[21.5,685.7],[20.2,683.4],[18.8,684.1],[18.0,681.9],[14.4,678.2],[13.9,676.5],[13.9,673.5],[12.3,671.3],[11.9,669.4],[12.4,666.5],[10.7,662.3],[10.8,658.4],[8.1,657.1],[6.3,655.3],[6.6,654.3],[5.2,653.3],[4.9,650.9],[5.5,649.7],[6.8,644.7],[6.7,642.3],[7.8,640.9],[6.0,640.0],[3.9,640.0],[1.4,641.2],[-0.7,641.6],[-2.8,644.3],[-4.4,645.4],[-5.6,647.6],[-7.7,656.0],[-8.3,657.7],[-10.7,658.9],[-12.1,658.5],[-12.4,657.4],[-13.7,656.3],[-18.2,655.0],[-19.3,650.6],[-20.5,649.9],[-21.8,651.4],[-23.7,651.3],[-25.3,654.2]]]}},{"type":"Feature","id":"CL.VS","properties":{"name":"Valparaíso","country_code":"cl","country_es":"Chile","hc_key":"cl-vs"},"geometry":{"type":"Polygon","coordinates":[[[-33.2,520.1],[-34.7,521.0],[-36.9,521.1],[-35.5,525.6],[-32.7,527.2],[-32.0,529.1],[-31.3,532.3],[-31.7,533.5],[-33.3,535.3],[-33.4,536.6],[-32.6,537.5],[-32.7,539.1],[-33.5,540.6],[-33.9,542.8],[-34.9,544.7],[-33.2,545.2],[-32.2,547.1],[-30.4,547.6],[-30.1,549.6],[-29.3,551.3],[-30.0,553.4],[-28.9,554.3],[-29.1,555.8],[-28.1,556.2],[-27.7,557.8],[-28.5,560.8],[-27.7,562.3],[-27.1,565.5],[-28.3,566.5],[-28.7,568.1],[-30.3,570.4],[-27.6,574.9],[-25.5,573.8],[-22.3,575.9],[-20.7,576.4],[-18.5,575.3],[-17.5,575.5],[-16.4,576.9],[-13.4,575.8],[-10.7,575.4],[-8.8,573.7],[-5.6,572.3],[-4.4,570.6],[-2.4,570.2],[-1.2,570.5],[-1.0,568.5],[0.9,567.1],[0.9,565.0],[2.7,563.3],[3.0,561.2],[2.5,558.7],[3.5,554.8],[5.6,552.5],[6.9,551.8],[6.1,548.9],[4.8,548.0],[4.4,546.8],[3.4,546.6],[-0.2,543.4],[-2.7,545.7],[-4.7,546.2],[-7.7,548.8],[-9.2,547.7],[-10.8,549.2],[-14.9,548.4],[-18.4,546.3],[-27.2,538.2],[-27.3,535.5],[-25.3,533.3],[-25.2,528.7],[-26.4,527.1],[-25.9,525.2],[-28.6,524.1],[-30.4,521.8],[-33.2,520.1]]]}},{"type":"Feature","id":"CL.RM","properties":{"name":"Región Metropolitana de Santiago","country_code":"cl","country_es":"Chile","hc_key":"cl-rm"},"geometry":{"type":"Polygon","coordinates":[[[-33.2,520.1],[-30.4,521.8],[-28.6,524.1],[-25.9,525.2],[-26.4,527.1],[-25.2,528.7],[-25.3,533.3],[-27.3,535.5],[-27.2,538.2],[-18.4,546.3],[-14.9,548.4],[-10.8,549.2],[-9.2,547.7],[-7.7,548.8],[-4.7,546.2],[-2.7,545.7],[-0.2,543.4],[3.4,546.6],[4.4,546.8],[4.8,545.7],[4.6,543.0],[5.8,541.9],[6.8,539.8],[8.4,541.4],[9.2,541.6],[11.4,540.1],[12.1,537.6],[11.0,535.4],[10.8,533.3],[9.9,532.6],[9.6,529.6],[10.4,527.8],[9.3,526.8],[9.6,523.7],[9.3,521.3],[10.6,520.5],[10.2,516.1],[11.2,513.2],[9.3,512.0],[7.5,512.5],[6.1,512.0],[5.1,514.1],[3.8,515.1],[3.1,517.3],[2.4,518.0],[0.4,518.0],[-0.5,518.7],[-1.5,520.9],[-3.6,522.8],[-6.6,521.7],[-8.8,521.7],[-11.9,521.0],[-12.0,519.0],[-15.9,514.8],[-17.8,514.4],[-20.5,515.0],[-23.3,517.1],[-24.6,516.6],[-27.2,518.1],[-29.4,518.8],[-31.0,518.3],[-33.2,520.1]]]}},{"type":"Feature","id":"CL.AR","properties":{"name":"Los Ríos","country_code":"cl","country_es":"Chile","hc_key":"cl-ar"},"geometry":{"type":"Polygon","coordinates":[[[-27.0,361.2],[-28.4,361.6],[-28.6,359.9],[-28.1,359.1],[-28.5,357.6],[-27.4,353.9],[-26.3,352.9],[-26.4,351.9],[-27.6,349.4],[-27.5,347.1],[-30.1,347.5],[-30.5,343.8],[-28.8,341.6],[-27.8,341.9],[-27.2,340.3],[-28.2,337.9],[-29.8,337.7],[-30.9,333.9],[-31.6,333.0],[-34.1,331.2],[-35.4,330.9],[-42.4,330.2],[-45.2,330.2],[-47.5,330.7],[-49.4,331.6],[-53.1,334.1],[-54.6,337.6],[-55.6,338.8],[-57.1,339.1],[-60.1,338.6],[-65.6,340.0],[-70.3,339.7],[-72.1,340.3],[-71.6,342.3],[-71.9,343.1],[-70.4,345.0],[-70.8,347.2],[-71.8,348.6],[-71.0,349.9],[-70.1,350.0],[-67.6,351.4],[-66.4,353.0],[-65.5,352.8],[-65.2,351.3],[-64.6,352.4],[-65.2,353.9],[-64.8,355.7],[-65.5,357.0],[-63.3,360.3],[-62.2,363.0],[-61.9,365.0],[-62.4,365.9],[-60.1,365.9],[-57.8,366.7],[-56.1,366.4],[-55.7,365.6],[-56.3,361.2],[-56.0,360.4],[-52.1,360.7],[-46.8,359.9],[-44.3,358.6],[-42.9,356.9],[-41.1,357.5],[-39.5,356.7],[-36.2,356.8],[-34.6,357.3],[-33.4,358.5],[-30.6,364.9],[-29.5,365.2],[-28.0,364.1],[-27.0,361.2]]]}},{"type":"Feature","id":"CL.ML","properties":{"name":"Maule","country_code":"cl","country_es":"Chile","hc_key":"cl-ml"},"geometry":{"type":"Polygon","coordinates":[[[-1.2,491.0],[-1.0,489.0],[-1.4,487.0],[-5.0,485.8],[-5.9,484.3],[-5.4,483.2],[-3.4,482.8],[-2.3,481.6],[-3.3,481.0],[-2.7,478.7],[-1.8,477.4],[-2.0,473.1],[-0.5,468.7],[-1.9,467.2],[-1.2,466.1],[-1.7,464.4],[-0.9,462.2],[-2.5,459.2],[-3.6,458.8],[-5.2,459.5],[-6.1,457.8],[-8.2,456.0],[-8.8,453.6],[-8.5,451.7],[-10.5,451.1],[-12.4,452.0],[-13.4,449.9],[-15.5,449.6],[-16.5,451.4],[-17.4,451.8],[-20.7,451.3],[-23.9,452.5],[-32.1,456.7],[-33.0,456.8],[-39.2,459.1],[-48.9,460.2],[-49.5,460.6],[-54.1,461.7],[-56.4,460.5],[-56.6,462.3],[-56.1,463.4],[-54.0,465.4],[-53.6,466.5],[-52.1,467.6],[-51.8,468.7],[-52.2,470.9],[-53.4,473.2],[-53.4,474.4],[-50.8,476.6],[-49.9,478.7],[-49.8,480.3],[-48.7,481.1],[-48.0,484.0],[-45.5,485.9],[-44.2,487.5],[-43.7,489.6],[-43.5,494.0],[-41.6,497.6],[-38.9,496.2],[-37.8,495.2],[-34.9,494.5],[-32.9,492.5],[-30.7,493.4],[-26.1,493.2],[-25.1,493.7],[-23.4,495.7],[-22.2,495.5],[-20.2,496.5],[-14.8,493.9],[-11.4,494.0],[-10.3,493.5],[-8.3,491.6],[-6.8,491.2],[-4.5,491.7],[-1.2,491.0]]]}},{"type":"Feature","id":"CL.TA","properties":{"name":"Tarapacá","country_code":"cl","country_es":"Chile","hc_key":"cl-ta"},"geometry":{"type":"Polygon","coordinates":[[[2.7,874.0],[1.8,876.9],[2.5,878.0],[2.2,880.1],[0.8,883.1],[0.9,884.1],[-0.2,886.7],[0.9,888.4],[0.1,890.7],[-0.9,891.8],[-1.2,893.9],[-1.0,896.6],[-1.3,899.9],[-0.3,902.2],[-1.0,904.4],[0.3,905.5],[0.6,907.3],[-0.2,908.6],[0.1,910.9],[0.8,912.8],[0.8,914.8],[-0.2,919.9],[0.0,922.7],[-0.9,925.2],[-1.7,926.1],[-1.3,927.9],[-2.1,931.4],[-3.7,934.5],[-3.3,938.1],[-1.7,938.6],[3.6,941.7],[9.6,943.3],[13.0,943.4],[15.7,942.3],[18.3,942.1],[22.7,940.5],[25.5,940.2],[27.1,940.5],[28.6,941.7],[31.0,944.6],[32.9,941.5],[35.6,939.9],[38.8,937.0],[39.7,935.3],[44.3,932.4],[45.5,930.8],[44.2,930.1],[40.6,925.0],[39.0,923.5],[38.7,922.0],[42.6,918.9],[42.9,917.1],[41.7,913.3],[39.9,913.4],[36.7,912.4],[36.3,911.3],[38.0,910.6],[37.9,908.4],[39.2,905.6],[37.7,905.1],[36.8,903.9],[37.9,901.4],[39.0,900.3],[41.8,899.0],[44.5,897.3],[42.0,894.0],[42.0,890.3],[43.1,888.7],[42.7,886.0],[42.1,884.6],[39.9,883.9],[38.6,882.8],[37.2,880.8],[36.1,879.9],[27.5,877.2],[21.6,875.0],[18.8,874.1],[17.4,874.2],[14.5,875.6],[9.2,875.7],[7.3,875.0],[6.6,873.9],[2.7,874.0]]]}},{"type":"Feature","id":"CL.2740","properties":{"name":"Arica y Parinacota","country_code":"cl","country_es":"Chile","hc_key":"cl-2740"},"geometry":{"type":"Polygon","coordinates":[[[-3.3,938.1],[-3.5,939.9],[-4.5,942.3],[-4.4,943.7],[-5.7,949.3],[-5.2,952.1],[-5.6,953.2],[-4.3,958.6],[-6.8,961.6],[-4.7,962.0],[-1.9,961.8],[0.2,962.1],[4.6,964.1],[7.4,967.1],[9.6,971.7],[8.3,976.7],[7.6,978.7],[8.6,980.8],[12.2,980.9],[13.5,981.7],[16.9,985.1],[17.0,982.9],[17.9,981.0],[21.0,978.0],[21.7,976.7],[21.9,973.6],[22.6,971.9],[23.6,972.2],[24.4,971.4],[26.9,970.4],[28.2,970.6],[28.3,968.9],[26.5,967.3],[28.0,964.6],[28.6,960.0],[29.8,957.8],[29.6,954.3],[30.6,951.4],[30.4,950.2],[31.9,947.1],[31.0,944.6],[28.6,941.7],[27.1,940.5],[25.5,940.2],[22.7,940.5],[18.3,942.1],[15.7,942.3],[13.0,943.4],[9.6,943.3],[3.6,941.7],[-1.7,938.6],[-3.3,938.1]]]}},{"type":"Feature","id":"CL.AN","properties":{"name":"Antofagasta","country_code":"cl","country_es":"Chile","hc_key":"cl-an"},"geometry":{"type":"Polygon","coordinates":[[[42.1,765.8],[41.2,765.5],[38.0,763.3],[34.9,763.5],[30.7,763.2],[30.3,762.7],[30.7,760.0],[29.1,757.3],[28.7,755.7],[19.4,754.8],[16.2,755.7],[12.5,755.3],[8.2,752.9],[4.8,752.5],[3.8,753.6],[1.4,753.1],[-1.7,750.6],[-5.0,750.6],[-8.8,747.8],[-10.9,744.8],[-11.3,747.1],[-13.7,750.3],[-12.7,751.9],[-12.5,754.2],[-11.1,756.1],[-11.5,758.5],[-10.8,759.5],[-8.5,760.9],[-8.1,762.9],[-6.8,763.0],[-6.3,764.1],[-6.2,768.4],[-7.7,770.9],[-7.1,774.5],[-8.4,776.1],[-9.9,781.3],[-9.9,783.5],[-9.4,784.9],[-10.1,787.2],[-9.1,790.3],[-9.4,791.7],[-8.2,797.3],[-8.1,799.2],[-8.8,802.1],[-8.2,804.4],[-8.5,806.0],[-8.2,808.1],[-5.8,811.9],[-5.4,813.9],[-6.0,815.8],[-8.2,816.9],[-9.3,815.2],[-11.7,815.6],[-10.5,818.2],[-11.0,820.1],[-11.0,823.3],[-10.1,824.5],[-10.5,827.1],[-10.0,828.5],[-8.6,829.9],[-8.0,827.8],[-7.1,827.4],[-5.1,828.8],[-3.2,832.5],[-2.9,833.9],[-3.6,836.1],[-2.5,841.0],[-2.8,842.7],[-1.8,844.4],[-2.1,845.5],[-1.2,856.1],[-0.1,860.3],[-0.6,861.7],[0.5,862.3],[0.4,867.9],[1.6,869.5],[2.7,874.0],[6.6,873.9],[7.3,875.0],[9.2,875.7],[14.5,875.6],[17.4,874.2],[18.8,874.1],[21.6,875.0],[27.5,877.2],[36.1,879.9],[37.2,880.8],[38.6,882.8],[39.9,883.9],[42.1,884.6],[42.7,886.0],[43.1,888.7],[46.1,887.8],[51.6,878.7],[52.0,877.4],[51.8,870.6],[53.7,866.6],[54.2,864.4],[54.5,859.8],[57.2,856.8],[58.1,854.9],[57.6,854.0],[58.6,851.4],[58.3,848.5],[59.6,846.0],[60.6,842.5],[59.7,838.3],[60.1,835.0],[61.2,834.8],[62.8,833.4],[68.6,833.2],[77.9,835.1],[82.5,830.0],[82.4,829.1],[73.7,801.9],[73.1,801.1],[56.3,793.8],[50.2,791.3],[48.4,788.4],[46.2,788.1],[44.8,784.4],[43.5,784.9],[41.7,780.5],[42.1,777.9],[44.1,776.8],[45.1,774.9],[45.0,773.4],[46.9,771.1],[46.6,770.1],[44.2,769.9],[43.1,768.8],[42.1,765.8]]]}}]}