{"type":"FeatureCollection","features":[{"type":"Feature","properties":{"name":"San Andrés y Providencia","country_code":"co","country_es":"Colombia"},"geometry":{"type":"Polygon","coordinates":[[[-81.704565,12.503756],[-81.71644,12.56266],[-81.691206,12.59127],[-81.686753,12.581172],[-81.704565,12.503756]]]}},{"type":"Feature","properties":{"name":"Cauca","country_code":"co","country_es":"Colombia"},"geometry":{"type":"MultiPolygon","coordinates":[[[[-77.808146,2.577754],[-77.888301,2.594583],[-77.86752,2.640023],[-77.785881,2.594583],[-77.808146,2.577754]]],[[[-76.075909,3.212224],[-76.113018,3.094418],[-76.043254,3.035515],[-76.031379,2.929489],[-75.805758,2.720804],[-75.780524,2.670316],[-75.822085,2.528949],[-75.795367,2.475094],[-75.844351,2.427972],[-75.966067,2.490241],[-76.050675,2.419557],[-76.15458,2.372435],[-76.277781,2.355605],[-76.378717,2.419557],[-76.392076,2.365703],[-76.356451,2.286605],[-76.38317,2.212555],[-76.455903,2.113262],[-76.536058,2.128408],[-76.567229,2.101481],[-76.565745,2.015651],[-76.599885,1.971894],[-76.57762,1.879332],[-76.504886,1.823795],[-76.408404,1.685794],[-76.347545,1.638671],[-76.145674,1.57472],[-76.225829,1.463645],[-76.285203,1.327327],[-76.297077,1.196057],[-76.255516,1.138837],[-76.159033,1.132105],[-76.059581,1.042909],[-76.210985,0.972226],[-76.351998,0.977274],[-76.493012,1.024397],[-76.536058,1.074885],[-76.541995,1.204472],[-76.516761,1.275156],[-76.58801,1.408108],[-76.669649,1.435035],[-76.745351,1.32901],[-76.911598,1.313863],[-76.924958,1.502353],[-76.855193,1.55789],[-76.844803,1.606695],[-76.939801,1.727867],[-77.233702,1.662233],[-77.324248,1.68916],[-77.282686,1.855771],[-77.199562,1.960114],[-77.330185,2.069505],[-77.312373,2.170482],[-77.431121,2.22097],[-77.624087,2.158701],[-77.744319,2.145237],[-77.840802,2.177213],[-77.949159,2.38085],[-77.932831,2.456582],[-77.952128,2.555876],[-78.073845,2.646755],[-77.950644,2.675365],[-77.888301,2.634974],[-77.904629,2.579437],[-77.776975,2.577754],[-77.756194,2.619828],[-77.848223,2.648438],[-77.870489,2.714072],[-77.848223,2.72417],[-77.756194,2.619828],[-77.751741,2.626559],[-77.797756,2.682097],[-77.785881,2.794854],[-77.708695,2.860489],[-77.710179,2.919392],[-77.643383,2.899196],[-77.624087,2.981661],[-77.722054,2.981661],[-77.572134,3.136491],[-77.465261,3.30142],[-77.364325,3.165101],[-77.31831,3.175199],[-77.261905,3.124711],[-77.109017,3.192029],[-77.014019,3.168467],[-76.887849,3.096101],[-76.810663,3.124711],[-76.778007,3.183614],[-76.691915,3.116296],[-76.55387,3.111247],[-76.466293,3.178565],[-76.438091,3.318249],[-76.255516,3.282907],[-76.075909,3.212224]]]]}},{"type":"Feature","properties":{"name":"Nariño","country_code":"co","country_es":"Colombia"},"geometry":{"type":"MultiPolygon","coordinates":[[[[-78.204468,2.687145],[-78.145094,2.673682],[-78.09611,2.572705],[-78.107985,2.512119],[-78.156968,2.518851],[-78.216342,2.597949],[-78.204468,2.687145]]],[[[-77.10308,0.354585],[-77.206984,0.33439],[-77.361357,0.374781],[-77.423699,0.408439],[-77.466745,0.650783],[-77.543932,0.655832],[-77.646352,0.716418],[-77.67307,0.820761],[-77.727991,0.842639],[-77.848223,0.80898],[-77.909082,0.862834],[-78.11986,0.921737],[-78.250482,1.019348],[-78.372199,1.073202],[-78.467198,1.179228],[-78.571102,1.196057],[-78.600789,1.263375],[-78.664616,1.266741],[-78.770005,1.392962],[-78.829379,1.433352],[-78.866488,1.559573],[-78.899143,1.546109],[-79.02086,1.638671],[-78.845707,1.822112],[-78.759615,1.830527],[-78.571102,1.781722],[-78.548837,1.919723],[-78.591883,1.896162],[-78.585946,1.998821],[-78.618601,2.030797],[-78.664616,1.981992],[-78.703209,2.188994],[-78.559227,2.44985],[-78.431573,2.587852],[-78.333606,2.646755],[-78.278685,2.542412],[-78.271263,2.634974],[-78.185171,2.515485],[-78.087204,2.510436],[-78.105016,2.643389],[-78.073845,2.646755],[-77.952128,2.555876],[-77.932831,2.456582],[-77.949159,2.38085],[-77.840802,2.177213],[-77.744319,2.145237],[-77.624087,2.158701],[-77.431121,2.22097],[-77.312373,2.170482],[-77.330185,2.069505],[-77.199562,1.960114],[-77.282686,1.855771],[-77.324248,1.68916],[-77.233702,1.662233],[-76.939801,1.727867],[-76.844803,1.606695],[-76.855193,1.55789],[-76.924958,1.502353],[-76.911598,1.313863],[-76.97691,1.236448],[-77.088236,1.18596],[-77.086752,1.073202],[-77.031831,1.041226],[-77.08972,0.884713],[-77.238156,0.697906],[-77.109017,0.585149],[-77.125345,0.55149],[-77.085267,0.396659],[-77.10308,0.354585]]]]}},{"type":"Feature","properties":{"name":"Chocó","country_code":"co","country_es":"Colombia"},"geometry":{"type":"MultiPolygon","coordinates":[[[[-77.35245,4.265747],[-77.333154,4.245551],[-77.545416,4.232088],[-77.414793,4.319601],[-77.35245,4.265747]]],[[[-77.435574,4.152989],[-77.347997,4.225356],[-77.285655,4.211892],[-77.350966,4.195063],[-77.435574,4.152989]]],[[[-76.075909,5.034852],[-76.139736,4.9709],[-76.169423,4.890119],[-76.29114,4.773996],[-76.303015,4.699946],[-76.4277,4.580457],[-76.442544,4.4677],[-76.475199,4.405431],[-76.546448,4.395333],[-76.49598,4.319601],[-76.49598,4.237137],[-76.439575,4.200112],[-76.595432,4.05033],[-76.666681,4.057062],[-76.730508,3.998159],[-76.893786,4.041915],[-76.957613,4.122696],[-77.065971,4.104184],[-77.125345,4.166453],[-77.21589,4.166453],[-77.254483,4.242185],[-77.336123,4.269113],[-77.386591,4.346528],[-77.358388,4.386919],[-77.319795,4.546798],[-77.327217,4.752117],[-77.270811,4.735288],[-77.339091,4.812703],[-77.367294,4.997827],[-77.359872,5.251952],[-77.407371,5.464003],[-77.462292,5.501027],[-77.552838,5.492613],[-77.490495,5.595272],[-77.404403,5.628931],[-77.355419,5.608736],[-77.261905,5.701298],[-77.245577,5.787128],[-77.353935,6.026106],[-77.367294,5.997496],[-77.484558,6.189351],[-77.477136,6.300426],[-77.416278,6.23984],[-77.382137,6.300426],[-77.39995,6.387939],[-77.34206,6.544453],[-77.414793,6.635332],[-77.41034,6.694235],[-77.462292,6.721162],[-77.537994,6.662259],[-77.573619,6.801943],[-77.681976,6.875992],[-77.692367,6.946676],[-77.653774,6.976969],[-77.689398,7.054385],[-77.895723,7.236142],[-77.820021,7.476803],[-77.774006,7.47512],[-77.733928,7.550853],[-77.771037,7.670342],[-77.739866,7.719147],[-77.670101,7.660244],[-77.613696,7.537389],[-77.579556,7.527292],[-77.509792,7.594609],[-77.340576,7.707367],[-77.379169,7.774684],[-77.321279,7.88071],[-77.269327,7.919418],[-77.169875,7.934564],[-77.230734,8.09781],[-77.324248,8.261055],[-77.362841,8.271153],[-77.422215,8.456277],[-77.489011,8.473106],[-77.367294,8.678425],[-77.27378,8.494984],[-77.134251,8.407471],[-77.052612,8.276202],[-76.985816,8.256006],[-76.95316,8.086029],[-77.002144,8.000199],[-77.022925,7.899222],[-77.120892,7.842002],[-77.109017,7.754489],[-76.875974,7.565999],[-76.691915,7.353949],[-76.586526,7.30346],[-76.528636,7.249606],[-76.504886,7.07458],[-76.546448,6.990433],[-76.684493,7.025774],[-76.829959,6.998847],[-76.797303,6.889456],[-76.835897,6.840651],[-76.972457,6.810358],[-76.938317,6.675722],[-76.905661,6.694235],[-76.893786,6.58316],[-76.788397,6.483867],[-76.801757,6.317255],[-76.699336,6.169156],[-76.568714,6.160741],[-76.387623,6.189351],[-76.277781,6.187668],[-76.216923,6.034521],[-76.111534,5.975618],[-76.132315,5.86286],[-76.0863,5.728225],[-76.098175,5.644078],[-76.043254,5.57676],[-76.093721,5.455588],[-76.16497,5.410148],[-76.179814,5.309172],[-76.098175,5.176219],[-76.075909,5.034852]]]]}},{"type":"Feature","properties":{"name":"Tolima","country_code":"co","country_es":"Colombia"},"geometry":{"type":"Polygon","coordinates":[[[-74.7489,5.290659],[-74.735541,5.107219],[-74.762259,4.964168],[-74.762259,4.800923],[-74.827571,4.721824],[-74.794915,4.641043],[-74.818665,4.607384],[-74.815696,4.466017],[-74.888429,4.309503],[-74.879523,4.269113],[-74.78304,4.282576],[-74.653902,4.21021],[-74.55445,4.269113],[-74.487655,4.169819],[-74.530701,3.984695],[-74.512888,3.949353],[-74.563356,3.772644],[-74.671714,3.675033],[-74.768197,3.525251],[-74.77265,3.454568],[-74.90921,3.289639],[-74.965615,3.277859],[-75.072489,3.311518],[-75.036864,3.434372],[-75.134831,3.432689],[-75.177877,3.388933],[-75.258032,3.373786],[-75.315922,3.410811],[-75.477716,3.360323],[-75.541543,3.277859],[-75.646932,3.069174],[-75.854741,2.890782],[-75.973489,2.948002],[-76.031379,2.929489],[-76.043254,3.035515],[-76.113018,3.094418],[-76.075909,3.212224],[-76.044738,3.314883],[-76.049191,3.442787],[-75.997239,3.560593],[-75.961614,3.712058],[-75.85771,3.868572],[-75.761227,4.07894],[-75.602402,4.29604],[-75.581621,4.427309],[-75.482169,4.593921],[-75.43467,4.619165],[-75.391624,4.716776],[-75.378265,4.79924],[-75.329281,4.895168],[-75.354515,4.938924],[-75.317406,5.02812],[-75.348578,5.060096],[-75.293657,5.132463],[-75.170456,5.172853],[-75.134831,5.161073],[-75.063582,5.268781],[-74.940381,5.309172],[-74.833508,5.314221],[-74.7489,5.290659]]]}},{"type":"Feature","properties":{"name":"Caquetá","country_code":"co","country_es":"Colombia"},"geometry":{"type":"Polygon","coordinates":[[[-76.059581,1.042909],[-76.159033,1.132105],[-76.255516,1.138837],[-76.297077,1.196057],[-76.285203,1.327327],[-76.225829,1.463645],[-76.145674,1.57472],[-75.96013,1.573037],[-75.839898,1.680745],[-75.626151,1.965162],[-75.550449,2.034163],[-75.421311,2.247897],[-75.344125,2.303434],[-75.277329,2.395996],[-75.217955,2.544095],[-75.155612,2.5239],[-75.036864,2.599632],[-74.995302,2.655169],[-75.057645,2.749414],[-74.976006,2.892465],[-74.897335,2.951368],[-74.729604,2.907611],[-74.596012,2.720804],[-74.652417,2.464997],[-74.644996,2.318581],[-74.54406,2.182262],[-74.615309,2.042578],[-74.606403,1.961797],[-74.50992,1.843991],[-73.917664,1.633623],[-73.675715,1.625208],[-73.562904,1.436718],[-73.444156,1.302083],[-73.42486,1.209521],[-73.175489,0.96886],[-73.081975,0.925103],[-73.010726,0.948664],[-72.893462,1.046275],[-72.871197,1.157349],[-72.817761,1.19774],[-72.761355,1.152301],[-72.73909,1.19774],[-72.67081,1.191008],[-72.543156,1.103495],[-72.473391,1.084983],[-72.41847,1.02608],[-72.402142,0.948664],[-72.313081,0.88303],[-72.311597,0.814029],[-72.238864,0.736614],[-72.106757,0.709686],[-72.035508,0.664247],[-71.99543,0.576734],[-71.92715,0.539709],[-71.936056,0.487538],[-71.842542,0.416854],[-71.852933,0.368049],[-71.787621,0.373098],[-71.689654,0.256975],[-71.539735,0.177876],[-71.420987,0.19134],[-71.32302,0.132437],[-71.389816,0.066802],[-71.625827,-0.044272],[-71.726763,-0.130103],[-71.774262,-0.224347],[-71.844027,-0.246226],[-72.036992,-0.259689],[-72.129022,-0.327007],[-72.232927,-0.466691],[-72.241833,-0.587863],[-72.323472,-0.629937],[-72.421439,-0.555887],[-72.550577,-0.683791],[-72.615889,-0.656864],[-72.721278,-0.571034],[-72.779167,-0.564302],[-72.886041,-0.601327],[-72.997367,-0.525594],[-73.080491,-0.592912],[-73.205176,-0.604693],[-73.33283,-0.507082],[-73.479781,-0.532326],[-73.565873,-0.513814],[-73.59556,-0.461642],[-73.727667,-0.38591],[-73.864227,-0.394325],[-74.012662,-0.335422],[-74.118051,-0.246226],[-74.239768,-0.227713],[-74.29172,-0.141883],[-74.382266,-0.133468],[-74.413437,-0.089712],[-74.469842,-0.126737],[-74.591559,-0.101492],[-74.664292,-0.05437],[-74.696948,0.075217],[-74.682104,0.150949],[-74.742963,0.199754],[-74.855773,0.221633],[-74.962647,0.270438],[-74.995302,0.470708],[-75.201627,0.517831],[-75.213502,0.62049],[-75.253579,0.718101],[-75.317406,0.75176],[-75.459904,0.750077],[-75.599433,0.847688],[-75.713728,0.847688],[-75.845835,0.889761],[-75.917084,1.019348],[-76.059581,1.042909]]]}},{"type":"Feature","properties":{"name":"Huila","country_code":"co","country_es":"Colombia"},"geometry":{"type":"Polygon","coordinates":[[[-74.897335,2.951368],[-74.976006,2.892465],[-75.057645,2.749414],[-74.995302,2.655169],[-75.036864,2.599632],[-75.155612,2.5239],[-75.217955,2.544095],[-75.277329,2.395996],[-75.344125,2.303434],[-75.421311,2.247897],[-75.550449,2.034163],[-75.626151,1.965162],[-75.839898,1.680745],[-75.96013,1.573037],[-76.145674,1.57472],[-76.347545,1.638671],[-76.408404,1.685794],[-76.504886,1.823795],[-76.57762,1.879332],[-76.599885,1.971894],[-76.565745,2.015651],[-76.567229,2.101481],[-76.536058,2.128408],[-76.455903,2.113262],[-76.38317,2.212555],[-76.356451,2.286605],[-76.392076,2.365703],[-76.378717,2.419557],[-76.277781,2.355605],[-76.15458,2.372435],[-76.050675,2.419557],[-75.966067,2.490241],[-75.844351,2.427972],[-75.795367,2.475094],[-75.822085,2.528949],[-75.780524,2.670316],[-75.805758,2.720804],[-76.031379,2.929489],[-75.973489,2.948002],[-75.854741,2.890782],[-75.646932,3.069174],[-75.541543,3.277859],[-75.477716,3.360323],[-75.315922,3.410811],[-75.258032,3.373786],[-75.177877,3.388933],[-75.134831,3.432689],[-75.036864,3.434372],[-75.072489,3.311518],[-74.965615,3.277859],[-74.90921,3.289639],[-74.77265,3.454568],[-74.768197,3.525251],[-74.671714,3.675033],[-74.563356,3.772644],[-74.530701,3.730571],[-74.493592,3.703643],[-74.542575,3.584154],[-74.616793,3.484861],[-74.652417,3.259346],[-74.682104,3.210541],[-74.824602,3.106198],[-74.897335,2.951368]]]}},{"type":"Feature","properties":{"name":"Putumayo","country_code":"co","country_es":"Colombia"},"geometry":{"type":"Polygon","coordinates":[[[-76.059581,1.042909],[-75.917084,1.019348],[-75.845835,0.889761],[-75.713728,0.847688],[-75.599433,0.847688],[-75.459904,0.750077],[-75.317406,0.75176],[-75.253579,0.718101],[-75.213502,0.62049],[-75.201627,0.517831],[-74.995302,0.470708],[-74.962647,0.270438],[-74.855773,0.221633],[-74.742963,0.199754],[-74.682104,0.150949],[-74.696948,0.075217],[-74.664292,-0.05437],[-74.591559,-0.101492],[-74.469842,-0.126737],[-74.413437,-0.089712],[-74.382266,-0.133468],[-74.29172,-0.141883],[-74.239768,-0.227713],[-74.118051,-0.246226],[-74.012662,-0.335422],[-73.864227,-0.394325],[-74.414921,-0.564302],[-74.536638,-0.45996],[-74.642027,-0.340471],[-74.790462,-0.31186],[-74.754838,-0.278202],[-74.824602,-0.170493],[-74.873586,-0.220981],[-74.93296,-0.209201],[-75.050223,-0.133468],[-75.142253,-0.044272],[-75.222408,-0.032492],[-75.283266,-0.108224],[-75.421311,-0.062785],[-75.646932,0.085314],[-75.78943,0.083631],[-75.92599,0.181242],[-76.053644,0.363],[-76.118955,0.351219],[-76.145674,0.400025],[-76.224344,0.406757],[-76.310437,0.458928],[-76.415825,0.401708],[-76.408404,0.255292],[-76.583557,0.223316],[-76.72457,0.27717],[-76.734961,0.23173],[-76.896755,0.245194],[-76.945739,0.287268],[-77.043706,0.30578],[-77.10308,0.354585],[-77.085267,0.396659],[-77.125345,0.55149],[-77.109017,0.585149],[-77.238156,0.697906],[-77.08972,0.884713],[-77.031831,1.041226],[-77.086752,1.073202],[-77.088236,1.18596],[-76.97691,1.236448],[-76.911598,1.313863],[-76.745351,1.32901],[-76.669649,1.435035],[-76.58801,1.408108],[-76.516761,1.275156],[-76.541995,1.204472],[-76.536058,1.074885],[-76.493012,1.024397],[-76.351998,0.977274],[-76.210985,0.972226],[-76.059581,1.042909]]]}},{"type":"Feature","properties":{"name":"Amazonas","country_code":"co","country_es":"Colombia"},"geometry":{"type":"Polygon","coordinates":[[[-73.864227,-0.394325],[-73.727667,-0.38591],[-73.59556,-0.461642],[-73.565873,-0.513814],[-73.479781,-0.532326],[-73.33283,-0.507082],[-73.205176,-0.604693],[-73.080491,-0.592912],[-72.997367,-0.525594],[-72.886041,-0.601327],[-72.779167,-0.564302],[-72.721278,-0.571034],[-72.615889,-0.656864],[-72.550577,-0.683791],[-72.421439,-0.555887],[-72.323472,-0.629937],[-72.241833,-0.587863],[-72.232927,-0.466691],[-72.129022,-0.327007],[-72.036992,-0.259689],[-71.844027,-0.246226],[-71.774262,-0.224347],[-71.726763,-0.130103],[-71.625827,-0.044272],[-71.389816,0.066802],[-71.32302,0.132437],[-71.268099,0.098778],[-71.1731,0.115607],[-71.13896,0.038192],[-71.042478,-0.003882],[-70.996463,0.009582],[-70.943026,-0.056053],[-70.940057,-0.145249],[-70.852481,-0.31186],[-70.803497,-0.323641],[-70.760451,-0.279885],[-70.50069,-0.360666],[-70.448738,-0.466691],[-70.353739,-0.475106],[-70.279522,-0.404422],[-70.215695,-0.424618],[-70.304756,-0.555887],[-70.240929,-0.581131],[-70.234991,-0.720816],[-70.273584,-0.752792],[-70.212726,-0.852085],[-70.279522,-0.932867],[-70.223116,-0.985038],[-70.186008,-0.954745],[-70.187492,-1.033843],[-70.138508,-1.070868],[-70.071713,-1.043941],[-70.123665,-0.973257],[-69.896559,-0.924452],[-69.948512,-1.030477],[-69.794139,-1.043941],[-69.731796,-0.99177],[-69.662032,-1.040575],[-69.630861,-1.165113],[-69.578908,-1.13482],[-69.464613,-1.180259],[-69.421567,-1.239162],[-69.433442,-1.42092],[-69.467582,-1.562288],[-69.947027,-4.201144],[-69.964839,-4.236485],[-70.059838,-4.106899],[-70.187492,-4.029483],[-70.217179,-3.925141],[-70.312177,-3.829213],[-70.378973,-3.819115],[-70.438347,-3.867921],[-70.543736,-3.864555],[-70.733733,-3.782091],[-70.050932,-2.715104],[-70.093978,-2.63264],[-70.142961,-2.666299],[-70.234991,-2.624225],[-70.295849,-2.536712],[-70.359677,-2.561956],[-70.358192,-2.486224],[-70.457644,-2.492956],[-70.57936,-2.405443],[-70.64764,-2.450882],[-70.70553,-2.328027],[-70.788654,-2.307832],[-70.873262,-2.230416],[-70.993494,-2.19844],[-71.020212,-2.259026],[-71.143413,-2.262392],[-71.219115,-2.341491],[-71.315598,-2.334759],[-71.420987,-2.376832],[-71.456611,-2.255661],[-71.498173,-2.314564],[-71.538251,-2.222002],[-71.679264,-2.16983],[-71.731216,-2.190026],[-71.738638,-2.137854],[-71.841058,-2.190026],[-71.967228,-2.32971],[-72.088945,-2.331393],[-72.161678,-2.405443],[-72.241833,-2.395345],[-72.283394,-2.43237],[-72.396205,-2.447516],[-72.44222,-2.405443],[-72.562452,-2.383564],[-72.644092,-2.334759],[-72.718309,-2.418906],[-72.805886,-2.378515],[-72.94393,-2.418906],[-72.969164,-2.356637],[-73.056741,-2.299417],[-73.083459,-2.344857],[-73.159161,-2.292685],[-73.197754,-2.213587],[-73.111662,-2.07222],[-73.169552,-1.959462],[-73.185879,-1.799583],[-73.246738,-1.742363],[-73.340252,-1.791168],[-73.530249,-1.673362],[-73.484234,-1.572385],[-73.496109,-1.478141],[-73.583685,-1.400725],[-73.562904,-1.372115],[-73.635637,-1.255992],[-73.754386,-1.183625],[-73.801885,-1.222333],[-73.880555,-1.190357],[-73.920633,-1.114625],[-74.017116,-1.092746],[-74.064615,-1.001867],[-74.119536,-1.022063],[-74.239768,-0.986721],[-74.343673,-0.858817],[-74.294689,-0.847037],[-74.302111,-0.786451],[-74.377813,-0.737645],[-74.364453,-0.677059],[-74.414921,-0.564302],[-73.864227,-0.394325]]]}},{"type":"Feature","properties":{"name":"Bolívar","country_code":"co","country_es":"Colombia"},"geometry":{"type":"MultiPolygon","coordinates":[[[[-75.581621,10.092098],[-75.590527,10.12744],[-75.531153,10.240197],[-75.643963,10.154367],[-75.703337,10.134172],[-75.592011,10.268807],[-75.514825,10.319295],[-75.523731,10.391662],[-75.569746,10.425321],[-75.50295,10.48759],[-75.510372,10.585201],[-75.403499,10.679445],[-75.256548,10.708055],[-75.228345,10.627274],[-75.266938,10.531346],[-75.243189,10.489273],[-75.17194,10.475809],[-75.131863,10.403443],[-75.076942,10.41354],[-74.918116,10.267124],[-74.94335,10.137538],[-74.858742,10.097147],[-74.808274,10.033195],[-74.812727,9.986073],[-74.876554,9.937267],[-74.878039,9.869949],[-74.815696,9.768973],[-74.830539,9.705021],[-74.781556,9.630971],[-74.799368,9.447531],[-74.717729,9.429018],[-74.512888,9.240528],[-74.431249,9.267456],[-74.413437,9.227065],[-74.303595,9.203504],[-74.196722,9.092429],[-74.091333,9.028478],[-74.043834,9.055405],[-73.98446,8.98977],[-73.873134,8.97294],[-73.870165,8.888793],[-73.806338,8.816427],[-73.828603,8.643083],[-73.761807,8.45796],[-73.75587,8.328373],[-73.794463,8.217299],[-73.785557,8.161762],[-73.856806,8.106224],[-73.871649,8.006931],[-73.815244,7.779733],[-73.83454,7.594609],[-73.908758,7.510462],[-73.899852,7.412852],[-73.929539,7.301777],[-74.251643,6.997164],[-74.343673,7.010628],[-74.397109,7.168825],[-74.401562,7.321973],[-74.348126,7.433047],[-74.364453,7.488584],[-74.468358,7.362363],[-74.561872,7.422949],[-74.587106,7.523926],[-74.560388,7.629951],[-74.499529,7.677074],[-74.48617,7.73766],[-74.530701,7.801612],[-74.542575,7.900905],[-74.598981,7.996833],[-74.833508,8.188689],[-74.800852,8.250958],[-74.805305,8.279568],[-74.68062,8.309861],[-74.573747,8.40074],[-74.551482,8.463008],[-74.603434,8.727231],[-74.541091,8.806329],[-74.659839,8.966209],[-74.824602,9.077283],[-74.900304,9.176577],[-74.940381,9.346554],[-74.900304,9.430701],[-74.941866,9.469409],[-75.030927,9.482872],[-75.008661,9.531678],[-75.068035,9.540092],[-75.183815,9.642752],[-75.29811,9.678094],[-75.373812,9.639386],[-75.327797,9.880047],[-75.4792,9.915389],[-75.476232,10.039927],[-75.532637,10.038244],[-75.486622,10.142586],[-75.581621,10.092098]]],[[[-75.22983,10.763593],[-75.269907,10.758544],[-75.228345,10.810715],[-75.222408,10.778739],[-75.22983,10.763593]]]]}},{"type":"Feature","properties":{"name":"Valle del Cauca","country_code":"co","country_es":"Colombia"},"geometry":{"type":"Polygon","coordinates":[[[-75.761227,4.07894],[-75.85771,3.868572],[-75.961614,3.712058],[-75.997239,3.560593],[-76.049191,3.442787],[-76.044738,3.314883],[-76.075909,3.212224],[-76.255516,3.282907],[-76.438091,3.318249],[-76.466293,3.178565],[-76.55387,3.111247],[-76.691915,3.116296],[-76.778007,3.183614],[-76.810663,3.124711],[-76.887849,3.096101],[-77.014019,3.168467],[-77.109017,3.192029],[-77.261905,3.124711],[-77.31831,3.175199],[-77.364325,3.165101],[-77.465261,3.30142],[-77.457839,3.355274],[-77.367294,3.400714],[-77.28417,3.580789],[-77.221828,3.599301],[-77.17136,3.676716],[-77.195109,3.757498],[-77.143157,3.759181],[-77.134251,3.826498],[-77.030346,3.922426],[-77.125345,3.929158],[-77.122376,3.885401],[-77.252999,3.839962],[-77.312373,3.908963],[-77.300498,3.969549],[-77.244093,3.977963],[-77.190656,4.067159],[-77.264874,4.109233],[-77.299014,4.067159],[-77.346513,3.929158],[-77.425184,4.00489],[-77.408856,4.045281],[-77.435574,4.152989],[-77.350966,4.195063],[-77.285655,4.211892],[-77.264874,4.228722],[-77.254483,4.242185],[-77.21589,4.166453],[-77.125345,4.166453],[-77.065971,4.104184],[-76.957613,4.122696],[-76.893786,4.041915],[-76.730508,3.998159],[-76.666681,4.057062],[-76.595432,4.05033],[-76.439575,4.200112],[-76.49598,4.237137],[-76.49598,4.319601],[-76.546448,4.395333],[-76.475199,4.405431],[-76.442544,4.4677],[-76.4277,4.580457],[-76.303015,4.699946],[-76.29114,4.773996],[-76.169423,4.890119],[-76.139736,4.9709],[-76.075909,5.034852],[-75.908178,4.763898],[-75.713728,4.71341],[-75.70779,4.66797],[-75.825054,4.664604],[-75.875522,4.55353],[-75.890365,4.423943],[-75.808726,4.397016],[-75.78943,4.287625],[-75.829507,4.21021],[-75.829507,4.109233],[-75.761227,4.07894]]]}},{"type":"Feature","properties":{"name":"Sucre","country_code":"co","country_es":"Colombia"},"geometry":{"type":"Polygon","coordinates":[[[-75.698884,9.417238],[-75.620214,9.452579],[-75.577168,9.620874],[-75.617245,9.689874],[-75.704822,9.701655],[-75.649901,9.755509],[-75.589042,9.964194],[-75.581621,10.092098],[-75.486622,10.142586],[-75.532637,10.038244],[-75.476232,10.039927],[-75.4792,9.915389],[-75.327797,9.880047],[-75.373812,9.639386],[-75.29811,9.678094],[-75.183815,9.642752],[-75.068035,9.540092],[-75.008661,9.531678],[-75.030927,9.482872],[-74.941866,9.469409],[-74.900304,9.430701],[-74.940381,9.346554],[-74.900304,9.176577],[-74.824602,9.077283],[-74.659839,8.966209],[-74.541091,8.806329],[-74.603434,8.727231],[-74.551482,8.463008],[-74.573747,8.40074],[-74.68062,8.309861],[-74.805305,8.279568],[-74.809759,8.350251],[-74.94335,8.48657],[-75.078426,8.452911],[-75.18233,8.402422],[-75.293657,8.479838],[-75.360452,8.802963],[-75.296625,8.897208],[-75.209049,8.924135],[-75.213502,9.041941],[-75.430217,9.153015],[-75.464357,9.238846],[-75.700369,9.354969],[-75.698884,9.417238]]]}},{"type":"Feature","properties":{"name":"Atlántico","country_code":"co","country_es":"Colombia"},"geometry":{"type":"Polygon","coordinates":[[[-75.256548,10.708055],[-75.222408,10.734983],[-75.22983,10.763593],[-75.222408,10.778739],[-75.228345,10.810715],[-75.036864,10.916741],[-75.023505,10.975644],[-74.846867,11.088401],[-74.766712,10.995839],[-74.725151,10.899911],[-74.729604,10.583518],[-74.80679,10.509468],[-74.836477,10.405126],[-74.918116,10.267124],[-75.076942,10.41354],[-75.131863,10.403443],[-75.17194,10.475809],[-75.243189,10.489273],[-75.266938,10.531346],[-75.228345,10.627274],[-75.256548,10.708055]]]}},{"type":"Feature","properties":{"name":"Cesar","country_code":"co","country_es":"Colombia"},"geometry":{"type":"Polygon","coordinates":[[[-73.785557,8.161762],[-73.794463,8.217299],[-73.75587,8.328373],[-73.761807,8.45796],[-73.828603,8.643083],[-73.806338,8.816427],[-73.870165,8.888793],[-73.8004,9.055405],[-73.879071,9.184991],[-73.953288,9.195089],[-73.956257,9.294383],[-74.002272,9.398725],[-74.137348,9.499702],[-74.026022,9.590581],[-73.876102,9.568703],[-73.784073,9.597313],[-73.841962,9.73868],[-73.841962,9.789168],[-74.008209,9.957463],[-74.066099,10.05339],[-74.049771,10.171196],[-73.893914,10.37315],[-73.770713,10.389979],[-73.577748,10.502736],[-73.614857,10.650835],[-73.562904,10.729934],[-73.646028,10.772007],[-73.60595,10.844374],[-73.451578,10.866252],[-73.271972,10.844374],[-73.249706,10.7333],[-73.123537,10.677762],[-73.074553,10.628957],[-73.181426,10.457297],[-73.130958,10.400077],[-73.01221,10.40176],[-72.915728,10.427004],[-72.936509,10.174562],[-72.988461,9.999536],[-72.97807,9.837974],[-73.123537,9.561971],[-73.178458,9.523263],[-73.276425,9.3617],[-73.312049,9.27587],[-73.378845,9.213601],[-73.364001,9.164796],[-73.417438,9.14965],[-73.447125,8.865232],[-73.426344,8.792865],[-73.553998,8.632986],[-73.562904,8.587546],[-73.491656,8.463008],[-73.528764,8.392325],[-73.456031,8.323324],[-73.405563,8.373812],[-73.42486,8.444496],[-73.374392,8.452911],[-73.353611,8.394008],[-73.408532,8.227396],[-73.408532,8.12642],[-73.362517,8.015345],[-73.2883,7.986735],[-73.350642,7.895856],[-73.35658,7.810026],[-73.432282,7.70905],[-73.496109,7.678757],[-73.626731,7.734294],[-73.751417,7.739343],[-73.746964,7.821807],[-73.677199,7.892491],[-73.675715,7.946345],[-73.729152,7.986735],[-73.785557,8.161762]]]}},{"type":"Feature","properties":{"name":"La Guajira","country_code":"co","country_es":"Colombia"},"geometry":{"type":"Polygon","coordinates":[[[-73.565873,11.27689],[-73.402595,11.27689],[-73.292753,11.29372],[-73.053772,11.49399],[-72.93354,11.556259],[-72.759871,11.697626],[-72.45261,11.791871],[-72.264098,11.886116],[-72.137928,12.104899],[-72.170584,12.234485],[-71.968712,12.254681],[-72.016211,12.194095],[-71.967228,12.153704],[-71.867776,12.209241],[-71.89301,12.278242],[-71.96129,12.283291],[-71.867776,12.364072],[-71.803949,12.323682],[-71.692623,12.428024],[-71.697076,12.465049],[-71.530829,12.448219],[-71.241381,12.32873],[-71.113726,12.094801],[-71.13896,12.015703],[-71.297786,11.919775],[-71.327473,11.849091],[-71.450674,11.795237],[-71.970197,11.662285],[-72.00879,11.62526],[-72.256676,11.167499],[-72.498625,11.120377],[-72.575811,10.957131],[-72.706434,10.810715],[-72.753933,10.674397],[-72.842994,10.559956],[-72.915728,10.427004],[-73.01221,10.40176],[-73.130958,10.400077],[-73.181426,10.457297],[-73.074553,10.628957],[-73.123537,10.677762],[-73.249706,10.7333],[-73.271972,10.844374],[-73.451578,10.866252],[-73.60595,10.844374],[-73.650481,10.99079],[-73.637122,11.138889],[-73.582201,11.19106],[-73.565873,11.27689]]]}},{"type":"Feature","properties":{"name":"Magdalena","country_code":"co","country_es":"Colombia"},"geometry":{"type":"Polygon","coordinates":[[[-73.60595,10.844374],[-73.646028,10.772007],[-73.562904,10.729934],[-73.614857,10.650835],[-73.577748,10.502736],[-73.770713,10.389979],[-73.893914,10.37315],[-74.049771,10.171196],[-74.066099,10.05339],[-74.008209,9.957463],[-73.841962,9.789168],[-73.841962,9.73868],[-73.784073,9.597313],[-73.876102,9.568703],[-74.026022,9.590581],[-74.137348,9.499702],[-74.002272,9.398725],[-73.956257,9.294383],[-73.953288,9.195089],[-73.879071,9.184991],[-73.8004,9.055405],[-73.870165,8.888793],[-73.873134,8.97294],[-73.98446,8.98977],[-74.043834,9.055405],[-74.091333,9.028478],[-74.196722,9.092429],[-74.303595,9.203504],[-74.413437,9.227065],[-74.431249,9.267456],[-74.512888,9.240528],[-74.717729,9.429018],[-74.799368,9.447531],[-74.781556,9.630971],[-74.830539,9.705021],[-74.815696,9.768973],[-74.878039,9.869949],[-74.876554,9.937267],[-74.812727,9.986073],[-74.808274,10.033195],[-74.858742,10.097147],[-74.94335,10.137538],[-74.918116,10.267124],[-74.836477,10.405126],[-74.80679,10.509468],[-74.729604,10.583518],[-74.725151,10.899911],[-74.766712,10.995839],[-74.846867,11.088401],[-74.843899,11.110279],[-74.523279,10.995839],[-74.361485,10.972278],[-74.502498,10.973961],[-74.517342,10.926838],[-74.481717,10.851106],[-74.58859,10.884765],[-74.604918,10.788837],[-74.489139,10.841008],[-74.456483,10.748446],[-74.362969,10.777056],[-74.28133,10.99079],[-74.217503,11.079986],[-74.241252,11.199475],[-74.187816,11.317281],[-74.003756,11.355989],[-73.825634,11.275208],[-73.565873,11.27689],[-73.582201,11.19106],[-73.637122,11.138889],[-73.650481,10.99079],[-73.60595,10.844374]]]}},{"type":"Feature","properties":{"name":"Arauca","country_code":"co","country_es":"Colombia"},"geometry":{"type":"Polygon","coordinates":[[[-71.964259,7.005579],[-71.832152,6.987067],[-71.774262,7.02914],[-71.61989,7.052702],[-71.282942,7.01736],[-71.275521,6.983701],[-71.184975,6.963506],[-70.960838,7.010628],[-70.902949,7.062799],[-70.702561,7.099824],[-70.577876,7.084677],[-70.521471,7.015677],[-70.462097,7.007262],[-70.319599,6.938261],[-70.157805,6.978652],[-70.096947,6.94331],[-69.443832,6.122034],[-69.431958,6.122034],[-69.571487,6.054716],[-69.785233,6.063131],[-69.854997,6.026106],[-69.958902,6.1254],[-70.025698,6.150644],[-70.119212,6.249937],[-70.190461,6.270133],[-70.373036,6.276864],[-70.505143,6.224693],[-70.727795,6.209547],[-70.864356,6.214596],[-71.207241,6.273499],[-71.462549,6.197766],[-71.608015,6.209547],[-71.72231,6.199449],[-71.857386,6.155693],[-71.947931,6.150644],[-72.157225,6.073228],[-72.259645,6.13718],[-72.345737,6.263401],[-72.320503,6.352597],[-72.264098,6.436744],[-72.157225,6.473769],[-72.124569,6.537721],[-72.100819,6.729576],[-72.051836,6.781748],[-71.964259,7.005579]]]}},{"type":"Feature","properties":{"name":"Norte de Santander","country_code":"co","country_es":"Colombia"},"geometry":{"type":"Polygon","coordinates":[[[-73.626731,7.734294],[-73.496109,7.678757],[-73.432282,7.70905],[-73.35658,7.810026],[-73.350642,7.895856],[-73.2883,7.986735],[-73.362517,8.015345],[-73.408532,8.12642],[-73.408532,8.227396],[-73.353611,8.394008],[-73.374392,8.452911],[-73.42486,8.444496],[-73.405563,8.373812],[-73.456031,8.323324],[-73.528764,8.392325],[-73.491656,8.463008],[-73.562904,8.587546],[-73.553998,8.632986],[-73.426344,8.792865],[-73.447125,8.865232],[-73.417438,9.14965],[-73.364001,9.164796],[-73.212598,9.173211],[-73.009242,9.296066],[-72.97807,9.151332],[-72.936509,9.099161],[-72.826667,9.142918],[-72.782136,9.058771],[-72.675263,8.651498],[-72.655966,8.617839],[-72.387299,8.338471],[-72.396205,8.257689],[-72.335347,8.102858],[-72.35019,8.042273],[-72.406595,8.042273],[-72.48675,7.949711],[-72.451126,7.831905],[-72.483782,7.650147],[-72.463001,7.569365],[-72.482297,7.507096],[-72.451126,7.439779],[-72.321988,7.38929],[-72.206208,7.382559],[-72.164646,7.328704],[-72.154256,7.192386],[-72.081523,7.066165],[-71.993946,7.012311],[-72.180974,7.039238],[-72.252223,6.975286],[-72.287847,7.005579],[-72.382846,6.877675],[-72.504563,6.9147],[-72.547609,6.884407],[-72.575811,7.003896],[-72.745027,6.98875],[-72.886041,7.072897],[-72.83112,7.162093],[-72.881588,7.256338],[-72.842994,7.357314],[-72.903853,7.476803],[-72.975102,7.532341],[-72.991429,7.613122],[-73.215566,7.629951],[-73.260097,7.544121],[-73.371423,7.552536],[-73.50353,7.60639],[-73.626731,7.734294]]]}},{"type":"Feature","properties":{"name":"Casanare","country_code":"co","country_es":"Colombia"},"geometry":{"type":"Polygon","coordinates":[[[-72.320503,6.352597],[-72.345737,6.263401],[-72.259645,6.13718],[-72.157225,6.073228],[-71.947931,6.150644],[-71.857386,6.155693],[-71.72231,6.199449],[-71.608015,6.209547],[-71.462549,6.197766],[-71.207241,6.273499],[-70.864356,6.214596],[-70.727795,6.209547],[-70.505143,6.224693],[-70.373036,6.276864],[-70.190461,6.270133],[-70.119212,6.249937],[-70.025698,6.150644],[-69.958902,6.1254],[-69.854997,6.026106],[-69.898044,5.970569],[-69.969292,5.809006],[-70.068744,5.669322],[-70.186008,5.586858],[-70.343349,5.568345],[-70.448738,5.533003],[-70.678812,5.389953],[-70.687718,5.324318],[-70.888105,5.154341],[-70.959354,5.117316],[-71.06029,4.918729],[-71.214662,4.814386],[-71.275521,4.807655],[-71.564969,4.681434],[-71.685201,4.607384],[-71.818793,4.570359],[-71.897463,4.484529],[-72.011758,4.398699],[-72.069648,4.395333],[-72.151287,4.45087],[-72.323472,4.408797],[-72.366518,4.344845],[-72.433314,4.354943],[-72.506047,4.321284],[-72.559484,4.354943],[-72.587686,4.309503],[-72.747996,4.312869],[-72.752449,4.349894],[-72.927602,4.52492],[-73.052288,4.733605],[-73.068616,4.81102],[-73.030023,4.986047],[-72.975102,4.979315],[-72.905337,5.083657],[-72.954321,5.145926],[-72.937993,5.240171],[-72.808854,5.383221],[-72.709403,5.280562],[-72.590655,5.354611],[-72.419955,5.556565],[-72.319019,5.506076],[-72.27152,5.649126],[-72.23738,5.682785],[-72.35019,5.802274],[-72.446673,5.854446],[-72.393236,5.901568],[-72.341284,6.078277],[-72.415502,6.204498],[-72.353159,6.334085],[-72.320503,6.352597]]]}},{"type":"Feature","properties":{"name":"Guaviare","country_code":"co","country_es":"Colombia"},"geometry":{"type":"Polygon","coordinates":[[[-72.035508,0.664247],[-72.106757,0.709686],[-72.238864,0.736614],[-72.311597,0.814029],[-72.313081,0.88303],[-72.402142,0.948664],[-72.41847,1.02608],[-72.473391,1.084983],[-72.543156,1.103495],[-72.67081,1.191008],[-72.73909,1.19774],[-72.761355,1.152301],[-72.817761,1.19774],[-72.871197,1.157349],[-72.893462,1.046275],[-73.010726,0.948664],[-73.081975,0.925103],[-73.175489,0.96886],[-73.42486,1.209521],[-73.444156,1.302083],[-73.562904,1.436718],[-73.675715,1.625208],[-73.660871,1.642037],[-73.654934,2.293337],[-73.598529,2.387581],[-73.426344,2.330361],[-73.242285,2.350557],[-73.215566,2.387581],[-73.153224,2.362337],[-73.021116,2.411143],[-72.927602,2.476777],[-72.905337,2.547461],[-72.791042,2.599632],[-72.736121,2.559242],[-72.703466,2.608047],[-72.632217,2.565973],[-72.609951,2.619828],[-72.421439,2.693877],[-72.366518,2.737634],[-72.252223,2.698926],[-72.24777,2.754463],[-72.192849,2.772976],[-72.197302,2.833561],[-72.1216,2.86722],[-71.992462,2.799903],[-71.838089,2.831879],[-71.792074,2.860489],[-71.759419,2.816732],[-71.734185,2.880684],[-71.622859,2.815049],[-71.560516,2.85544],[-71.382394,2.847025],[-71.303723,2.905928],[-71.225053,2.85544],[-71.168647,2.88405],[-71.064743,2.868903],[-70.962323,2.865537],[-70.821309,2.796537],[-70.59272,2.841976],[-70.50069,2.784756],[-70.895527,2.619828],[-70.898496,2.592901],[-70.747092,2.528949],[-70.675843,2.43807],[-70.622407,2.328678],[-70.503658,2.276507],[-70.304756,2.226019],[-70.036088,2.276507],[-69.998979,2.197409],[-70.105853,2.101481],[-70.200851,2.030797],[-70.444284,1.987041],[-70.499205,1.951699],[-70.702561,1.901211],[-70.745608,1.91804],[-70.911855,1.914674],[-70.966776,1.852405],[-71.159741,1.756477],[-71.263646,1.67233],[-71.3913,1.732916],[-71.404659,1.598281],[-71.432862,1.562939],[-71.541219,1.280204],[-71.541219,1.157349],[-71.609499,1.042909],[-71.673326,0.982323],[-71.75645,0.970543],[-71.787621,0.916689],[-72.035508,0.664247]]]}},{"type":"Feature","properties":{"name":"Meta","country_code":"co","country_es":"Colombia"},"geometry":{"type":"Polygon","coordinates":[[[-71.064743,2.868903],[-71.168647,2.88405],[-71.225053,2.85544],[-71.303723,2.905928],[-71.382394,2.847025],[-71.560516,2.85544],[-71.622859,2.815049],[-71.734185,2.880684],[-71.759419,2.816732],[-71.792074,2.860489],[-71.838089,2.831879],[-71.992462,2.799903],[-72.1216,2.86722],[-72.197302,2.833561],[-72.192849,2.772976],[-72.24777,2.754463],[-72.252223,2.698926],[-72.366518,2.737634],[-72.421439,2.693877],[-72.609951,2.619828],[-72.632217,2.565973],[-72.703466,2.608047],[-72.736121,2.559242],[-72.791042,2.599632],[-72.905337,2.547461],[-72.927602,2.476777],[-73.021116,2.411143],[-73.153224,2.362337],[-73.215566,2.387581],[-73.242285,2.350557],[-73.426344,2.330361],[-73.598529,2.387581],[-73.654934,2.293337],[-73.660871,1.642037],[-73.675715,1.625208],[-73.917664,1.633623],[-74.50992,1.843991],[-74.606403,1.961797],[-74.615309,2.042578],[-74.54406,2.182262],[-74.644996,2.318581],[-74.652417,2.464997],[-74.596012,2.720804],[-74.729604,2.907611],[-74.897335,2.951368],[-74.824602,3.106198],[-74.682104,3.210541],[-74.652417,3.259346],[-74.616793,3.484861],[-74.542575,3.584154],[-74.493592,3.703643],[-74.428281,3.678399],[-74.336251,3.809669],[-74.309532,3.887084],[-74.207112,4.020037],[-74.15516,4.006573],[-74.123989,4.00489],[-74.005241,4.102501],[-73.81376,4.203478],[-73.751417,4.201795],[-73.787041,4.292674],[-73.794463,4.444139],[-73.69798,4.521554],[-73.622278,4.482846],[-73.539155,4.306137],[-73.487202,4.285942],[-73.365486,4.322967],[-73.243769,4.290991],[-73.132443,4.23882],[-73.062678,4.716776],[-73.052288,4.733605],[-72.927602,4.52492],[-72.752449,4.349894],[-72.747996,4.312869],[-72.587686,4.309503],[-72.559484,4.354943],[-72.506047,4.321284],[-72.433314,4.354943],[-72.366518,4.344845],[-72.323472,4.408797],[-72.151287,4.45087],[-72.069648,4.395333],[-72.011758,4.398699],[-71.897463,4.484529],[-71.818793,4.570359],[-71.685201,4.607384],[-71.564969,4.681434],[-71.275521,4.807655],[-71.214662,4.814386],[-71.06029,4.918729],[-71.063259,3.362006],[-71.064743,2.868903]]]}},{"type":"Feature","properties":{"name":"Vaupés","country_code":"co","country_es":"Colombia"},"geometry":{"type":"Polygon","coordinates":[[[-71.32302,0.132437],[-71.420987,0.19134],[-71.539735,0.177876],[-71.689654,0.256975],[-71.787621,0.373098],[-71.852933,0.368049],[-71.842542,0.416854],[-71.936056,0.487538],[-71.92715,0.539709],[-71.99543,0.576734],[-72.035508,0.664247],[-71.787621,0.916689],[-71.75645,0.970543],[-71.673326,0.982323],[-71.609499,1.042909],[-71.541219,1.157349],[-71.541219,1.280204],[-71.432862,1.562939],[-71.404659,1.598281],[-71.3913,1.732916],[-71.263646,1.67233],[-71.159741,1.756477],[-70.966776,1.852405],[-70.911855,1.914674],[-70.745608,1.91804],[-70.702561,1.901211],[-70.499205,1.951699],[-70.444284,1.987041],[-70.200851,2.030797],[-70.105853,2.101481],[-70.156321,1.869235],[-70.050932,1.781722],[-69.841638,1.707672],[-69.84906,1.668964],[-69.852029,1.059739],[-69.761483,1.090032],[-69.715469,1.059739],[-69.618986,1.073202],[-69.479457,1.059739],[-69.418598,1.029446],[-69.371099,1.063105],[-69.287976,1.03786],[-69.1529,0.867883],[-69.188524,0.714735],[-69.138056,0.650783],[-69.225633,0.615442],[-69.362193,0.640686],[-69.439379,0.716418],[-69.504691,0.729882],[-69.618986,0.650783],[-69.694688,0.667613],[-69.806014,0.607027],[-70.0539,0.586832],[-70.073197,-0.125054],[-70.06726,-0.160396],[-69.944058,-0.305129],[-69.857966,-0.340471],[-69.74664,-0.453228],[-69.632345,-0.505399],[-69.584846,-0.645083],[-69.627892,-0.734279],[-69.571487,-0.813378],[-69.538831,-0.921086],[-69.44977,-0.996819],[-69.448285,-1.091063],[-69.399302,-1.183625],[-69.421567,-1.239162],[-69.464613,-1.180259],[-69.578908,-1.13482],[-69.630861,-1.165113],[-69.662032,-1.040575],[-69.731796,-0.99177],[-69.794139,-1.043941],[-69.948512,-1.030477],[-69.896559,-0.924452],[-70.123665,-0.973257],[-70.071713,-1.043941],[-70.138508,-1.070868],[-70.187492,-1.033843],[-70.186008,-0.954745],[-70.223116,-0.985038],[-70.279522,-0.932867],[-70.212726,-0.852085],[-70.273584,-0.752792],[-70.234991,-0.720816],[-70.240929,-0.581131],[-70.304756,-0.555887],[-70.215695,-0.424618],[-70.279522,-0.404422],[-70.353739,-0.475106],[-70.448738,-0.466691],[-70.50069,-0.360666],[-70.760451,-0.279885],[-70.803497,-0.323641],[-70.852481,-0.31186],[-70.940057,-0.145249],[-70.943026,-0.056053],[-70.996463,0.009582],[-71.042478,-0.003882],[-71.13896,0.038192],[-71.1731,0.115607],[-71.268099,0.098778],[-71.32302,0.132437]]]}},{"type":"Feature","properties":{"name":"Vichada","country_code":"co","country_es":"Colombia"},"geometry":{"type":"Polygon","coordinates":[[[-70.50069,2.784756],[-70.59272,2.841976],[-70.821309,2.796537],[-70.962323,2.865537],[-71.064743,2.868903],[-71.063259,3.362006],[-71.06029,4.918729],[-70.959354,5.117316],[-70.888105,5.154341],[-70.687718,5.324318],[-70.678812,5.389953],[-70.448738,5.533003],[-70.343349,5.568345],[-70.186008,5.586858],[-70.068744,5.669322],[-69.969292,5.809006],[-69.898044,5.970569],[-69.854997,6.026106],[-69.785233,6.063131],[-69.571487,6.054716],[-69.431958,6.122034],[-69.311725,6.145595],[-69.246414,6.07996],[-69.06087,6.217961],[-68.829311,6.187668],[-68.634862,6.13718],[-68.585878,6.170839],[-68.447833,6.1944],[-68.303851,6.175888],[-68.14651,6.224693],[-68.020341,6.212913],[-67.925342,6.234791],[-67.837765,6.307157],[-67.730892,6.303792],[-67.573551,6.265084],[-67.490428,6.201132],[-67.491912,6.113619],[-67.429569,6.039569],[-67.434022,5.967203],[-67.48449,5.943642],[-67.600269,5.820787],[-67.641831,5.745054],[-67.649253,5.655858],[-67.615113,5.553199],[-67.646284,5.482515],[-67.809563,5.378172],[-67.843703,5.297391],[-67.814016,5.186317],[-67.824406,5.110584],[-67.793235,5.063462],[-67.827375,4.871606],[-67.814016,4.83963],[-67.864484,4.511456],[-67.828859,4.491261],[-67.782845,4.338113],[-67.80511,4.269113],[-67.785813,4.173185],[-67.717533,4.040232],[-67.796204,3.952719],[-67.877843,3.922426],[-67.950576,3.957768],[-67.9862,3.934207],[-68.093074,4.00489],[-68.168776,3.920743],[-68.188072,3.972914],[-68.253384,3.942621],[-68.268227,4.003207],[-68.355804,4.020037],[-68.381038,3.917377],[-68.545801,3.796205],[-68.688298,3.797888],[-68.804077,3.69018],[-68.945091,3.703643],[-68.962903,3.641375],[-69.041574,3.654838],[-69.075714,3.612764],[-69.139541,3.675033],[-69.175165,3.653155],[-69.292429,3.727205],[-69.431958,3.685131],[-69.475004,3.715424],[-69.604142,3.691863],[-69.651641,3.542081],[-69.706562,3.569008],[-69.893591,3.565642],[-69.961871,3.505056],[-70.083587,3.525251],[-70.068744,3.425958],[-70.119212,3.41586],[-70.150383,3.346859],[-70.129602,3.203809],[-70.199367,3.197077],[-70.307724,3.082637],[-70.275069,2.959782],[-70.383426,2.847025],[-70.50069,2.784756]]]}},{"type":"Feature","properties":{"name":"Antioquia","country_code":"co","country_es":"Colombia"},"geometry":{"type":"Polygon","coordinates":[[[-74.833508,8.188689],[-74.598981,7.996833],[-74.542575,7.900905],[-74.530701,7.801612],[-74.48617,7.73766],[-74.499529,7.677074],[-74.560388,7.629951],[-74.587106,7.523926],[-74.561872,7.422949],[-74.468358,7.362363],[-74.364453,7.488584],[-74.348126,7.433047],[-74.401562,7.321973],[-74.397109,7.168825],[-74.343673,7.010628],[-74.251643,6.997164],[-73.929539,7.301777],[-73.922117,7.106556],[-73.887977,7.020726],[-74.006725,6.934895],[-74.107661,6.790162],[-74.293205,6.653844],[-74.386719,6.626917],[-74.406015,6.475452],[-74.377813,6.423281],[-74.518826,6.283596],[-74.579684,6.216278],[-74.604918,6.122034],[-74.576716,6.064814],[-74.590075,5.918397],[-74.640543,5.86286],[-74.661324,5.771981],[-74.711791,5.775347],[-74.777103,5.689517],[-74.866164,5.743371],[-74.990849,5.713078],[-75.090301,5.659224],[-75.091785,5.596955],[-75.143737,5.53132],[-75.194205,5.516174],[-75.275845,5.43371],[-75.317406,5.464003],[-75.339672,5.586858],[-75.385686,5.674371],[-75.470294,5.671005],[-75.612792,5.734957],[-75.592011,5.682785],[-75.586074,5.51954],[-75.738962,5.558247],[-75.859194,5.489247],[-75.96013,5.506076],[-76.043254,5.57676],[-76.098175,5.644078],[-76.0863,5.728225],[-76.132315,5.86286],[-76.111534,5.975618],[-76.216923,6.034521],[-76.277781,6.187668],[-76.387623,6.189351],[-76.568714,6.160741],[-76.699336,6.169156],[-76.801757,6.317255],[-76.788397,6.483867],[-76.893786,6.58316],[-76.905661,6.694235],[-76.938317,6.675722],[-76.972457,6.810358],[-76.835897,6.840651],[-76.797303,6.889456],[-76.829959,6.998847],[-76.684493,7.025774],[-76.546448,6.990433],[-76.504886,7.07458],[-76.528636,7.249606],[-76.586526,7.30346],[-76.691915,7.353949],[-76.875974,7.565999],[-77.109017,7.754489],[-77.120892,7.842002],[-77.022925,7.899222],[-77.002144,8.000199],[-76.95316,8.086029],[-76.985816,8.256006],[-76.935348,8.185323],[-76.94277,8.128103],[-76.831444,8.136517],[-76.832928,8.027126],[-76.907145,8.043955],[-76.933864,7.964857],[-76.853709,7.912686],[-76.757226,7.924466],[-76.731992,8.079297],[-76.769101,8.259372],[-76.770585,8.397374],[-76.838865,8.500033],[-76.947223,8.545473],[-76.892302,8.619522],[-76.674102,8.681791],[-76.647384,8.747426],[-76.559807,8.776036],[-76.444028,8.870281],[-76.389107,8.739011],[-76.331218,8.659913],[-76.228797,8.577449],[-76.216923,8.410837],[-76.317858,8.281251],[-76.418794,8.099493],[-76.432153,7.931198],[-76.504886,7.741026],[-76.497465,7.599658],[-76.408404,7.379193],[-75.8681,7.364046],[-75.768649,7.500365],[-75.590527,7.569365],[-75.547481,7.688854],[-75.45842,7.808343],[-75.361937,7.884076],[-75.228345,8.045638],[-75.11405,8.067517],[-74.941866,8.072565],[-74.833508,8.188689]]]}},{"type":"Feature","properties":{"name":"Córdoba","country_code":"co","country_es":"Colombia"},"geometry":{"type":"Polygon","coordinates":[[[-74.833508,8.188689],[-74.941866,8.072565],[-75.11405,8.067517],[-75.228345,8.045638],[-75.361937,7.884076],[-75.45842,7.808343],[-75.547481,7.688854],[-75.590527,7.569365],[-75.768649,7.500365],[-75.8681,7.364046],[-76.408404,7.379193],[-76.497465,7.599658],[-76.504886,7.741026],[-76.432153,7.931198],[-76.418794,8.099493],[-76.317858,8.281251],[-76.216923,8.410837],[-76.228797,8.577449],[-76.331218,8.659913],[-76.389107,8.739011],[-76.444028,8.870281],[-76.4277,8.910672],[-76.323796,8.940964],[-76.255516,9.006599],[-76.254031,9.070551],[-76.187236,9.14965],[-76.167939,9.24726],[-76.117471,9.265773],[-76.078878,9.343188],[-75.911146,9.429018],[-75.817632,9.445848],[-75.811695,9.391993],[-75.698884,9.417238],[-75.700369,9.354969],[-75.464357,9.238846],[-75.430217,9.153015],[-75.213502,9.041941],[-75.209049,8.924135],[-75.296625,8.897208],[-75.360452,8.802963],[-75.293657,8.479838],[-75.18233,8.402422],[-75.078426,8.452911],[-74.94335,8.48657],[-74.809759,8.350251],[-74.805305,8.279568],[-74.800852,8.250958],[-74.833508,8.188689]]]}},{"type":"Feature","properties":{"name":"Boyacá","country_code":"co","country_es":"Colombia"},"geometry":{"type":"Polygon","coordinates":[[[-72.504563,6.9147],[-72.382846,6.877675],[-72.287847,7.005579],[-72.252223,6.975286],[-72.180974,7.039238],[-71.993946,7.012311],[-71.964259,7.005579],[-72.051836,6.781748],[-72.100819,6.729576],[-72.124569,6.537721],[-72.157225,6.473769],[-72.264098,6.436744],[-72.320503,6.352597],[-72.353159,6.334085],[-72.415502,6.204498],[-72.341284,6.078277],[-72.393236,5.901568],[-72.446673,5.854446],[-72.35019,5.802274],[-72.23738,5.682785],[-72.27152,5.649126],[-72.319019,5.506076],[-72.419955,5.556565],[-72.590655,5.354611],[-72.709403,5.280562],[-72.808854,5.383221],[-72.937993,5.240171],[-72.954321,5.145926],[-72.905337,5.083657],[-72.975102,4.979315],[-73.030023,4.986047],[-73.068616,4.81102],[-73.052288,4.733605],[-73.09385,4.678068],[-73.217051,4.678068],[-73.228926,4.723507],[-73.304627,4.736971],[-73.402595,4.871606],[-73.522827,4.888436],[-73.546576,4.933875],[-73.518374,5.023071],[-73.478296,5.051681],[-73.522827,5.238488],[-73.58517,5.304123],[-73.591107,5.386587],[-73.65345,5.460637],[-73.791494,5.507759],[-73.821181,5.558247],[-74.000788,5.373124],[-74.088364,5.418563],[-74.09727,5.455588],[-74.244221,5.482515],[-74.300626,5.586858],[-74.290236,5.669322],[-74.312501,5.788811],[-74.346641,5.827518],[-74.440155,5.766933],[-74.533669,5.790494],[-74.64648,5.753469],[-74.658355,5.763567],[-74.661324,5.771981],[-74.640543,5.86286],[-74.590075,5.918397],[-74.576716,6.064814],[-74.604918,6.122034],[-74.579684,6.216278],[-74.518826,6.283596],[-74.440155,6.095107],[-74.357032,6.039569],[-74.290236,6.069862],[-74.239768,5.980666],[-74.270939,5.883056],[-74.232346,5.846031],[-74.174457,5.899885],[-74.112114,5.871275],[-73.972585,5.733274],[-73.736573,5.761884],[-73.638606,5.721493],[-73.613372,5.921763],[-73.577748,6.007593],[-73.499077,6.106887],[-73.396657,6.032838],[-73.399626,5.921763],[-73.472359,5.847714],[-73.404079,5.756835],[-73.355095,5.857811],[-73.286815,5.856129],[-73.218535,5.982349],[-73.034476,5.941959],[-72.894947,6.123717],[-72.817761,6.15401],[-72.755418,6.229742],[-72.733153,6.456939],[-72.795495,6.532672],[-72.761355,6.573063],[-72.709403,6.529306],[-72.660419,6.433378],[-72.617373,6.438427],[-72.541671,6.502379],[-72.498625,6.645429],[-72.477844,6.844017],[-72.504563,6.9147]]]}},{"type":"Feature","properties":{"name":"Santander","country_code":"co","country_es":"Colombia"},"geometry":{"type":"Polygon","coordinates":[[[-72.504563,6.9147],[-72.477844,6.844017],[-72.498625,6.645429],[-72.541671,6.502379],[-72.617373,6.438427],[-72.660419,6.433378],[-72.709403,6.529306],[-72.761355,6.573063],[-72.795495,6.532672],[-72.733153,6.456939],[-72.755418,6.229742],[-72.817761,6.15401],[-72.894947,6.123717],[-73.034476,5.941959],[-73.218535,5.982349],[-73.286815,5.856129],[-73.355095,5.857811],[-73.404079,5.756835],[-73.472359,5.847714],[-73.399626,5.921763],[-73.396657,6.032838],[-73.499077,6.106887],[-73.577748,6.007593],[-73.613372,5.921763],[-73.638606,5.721493],[-73.736573,5.761884],[-73.972585,5.733274],[-74.112114,5.871275],[-74.174457,5.899885],[-74.232346,5.846031],[-74.270939,5.883056],[-74.239768,5.980666],[-74.290236,6.069862],[-74.357032,6.039569],[-74.440155,6.095107],[-74.518826,6.283596],[-74.377813,6.423281],[-74.406015,6.475452],[-74.386719,6.626917],[-74.293205,6.653844],[-74.107661,6.790162],[-74.006725,6.934895],[-73.887977,7.020726],[-73.922117,7.106556],[-73.929539,7.301777],[-73.899852,7.412852],[-73.908758,7.510462],[-73.83454,7.594609],[-73.815244,7.779733],[-73.871649,8.006931],[-73.856806,8.106224],[-73.785557,8.161762],[-73.729152,7.986735],[-73.675715,7.946345],[-73.677199,7.892491],[-73.746964,7.821807],[-73.751417,7.739343],[-73.626731,7.734294],[-73.50353,7.60639],[-73.371423,7.552536],[-73.260097,7.544121],[-73.215566,7.629951],[-72.991429,7.613122],[-72.975102,7.532341],[-72.903853,7.476803],[-72.842994,7.357314],[-72.881588,7.256338],[-72.83112,7.162093],[-72.886041,7.072897],[-72.745027,6.98875],[-72.575811,7.003896],[-72.547609,6.884407],[-72.504563,6.9147]]]}},{"type":"Feature","properties":{"name":"Caldas","country_code":"co","country_es":"Colombia"},"geometry":{"type":"Polygon","coordinates":[[[-74.661324,5.771981],[-74.658355,5.763567],[-74.64648,5.753469],[-74.637574,5.644078],[-74.677651,5.549833],[-74.659839,5.457271],[-74.7489,5.290659],[-74.833508,5.314221],[-74.940381,5.309172],[-75.063582,5.268781],[-75.134831,5.161073],[-75.170456,5.172853],[-75.293657,5.132463],[-75.348578,5.060096],[-75.317406,5.02812],[-75.354515,4.938924],[-75.329281,4.895168],[-75.378265,4.79924],[-75.49256,4.918729],[-75.611308,4.933875],[-75.638026,4.974266],[-75.709275,4.952388],[-75.747868,5.04495],[-75.796851,4.938924],[-75.859194,4.932192],[-75.927474,5.043267],[-75.89185,5.120682],[-75.836929,5.110584],[-75.807242,5.191366],[-75.817632,5.27383],[-75.692947,5.257001],[-75.642479,5.304123],[-75.718181,5.396685],[-75.856225,5.374807],[-75.859194,5.489247],[-75.738962,5.558247],[-75.586074,5.51954],[-75.592011,5.682785],[-75.612792,5.734957],[-75.470294,5.671005],[-75.385686,5.674371],[-75.339672,5.586858],[-75.317406,5.464003],[-75.275845,5.43371],[-75.194205,5.516174],[-75.143737,5.53132],[-75.091785,5.596955],[-75.090301,5.659224],[-74.990849,5.713078],[-74.866164,5.743371],[-74.777103,5.689517],[-74.711791,5.775347],[-74.661324,5.771981]]]}},{"type":"Feature","properties":{"name":"Cundinamarca","country_code":"co","country_es":"Colombia"},"geometry":{"type":"Polygon","coordinates":[[[-74.7489,5.290659],[-74.659839,5.457271],[-74.677651,5.549833],[-74.637574,5.644078],[-74.64648,5.753469],[-74.533669,5.790494],[-74.440155,5.766933],[-74.346641,5.827518],[-74.312501,5.788811],[-74.290236,5.669322],[-74.300626,5.586858],[-74.244221,5.482515],[-74.09727,5.455588],[-74.088364,5.418563],[-74.000788,5.373124],[-73.821181,5.558247],[-73.791494,5.507759],[-73.65345,5.460637],[-73.591107,5.386587],[-73.58517,5.304123],[-73.522827,5.238488],[-73.478296,5.051681],[-73.518374,5.023071],[-73.546576,4.933875],[-73.522827,4.888436],[-73.402595,4.871606],[-73.304627,4.736971],[-73.228926,4.723507],[-73.217051,4.678068],[-73.09385,4.678068],[-73.052288,4.733605],[-73.062678,4.716776],[-73.132443,4.23882],[-73.243769,4.290991],[-73.365486,4.322967],[-73.487202,4.285942],[-73.539155,4.306137],[-73.622278,4.482846],[-73.69798,4.521554],[-73.794463,4.444139],[-73.787041,4.292674],[-73.751417,4.201795],[-73.81376,4.203478],[-74.005241,4.102501],[-74.123989,4.00489],[-74.15516,4.006573],[-74.094302,4.141209],[-74.149223,4.277527],[-74.107661,4.343162],[-74.116567,4.405431],[-73.99485,4.632628],[-74.017116,4.671336],[-74.009694,4.814386],[-74.082427,4.834582],[-74.161097,4.676385],[-74.224925,4.629263],[-74.180394,4.501359],[-74.214534,4.255649],[-74.272424,4.099135],[-74.327345,4.126062],[-74.370391,4.0335],[-74.361485,3.944304],[-74.420859,3.80462],[-74.493592,3.703643],[-74.530701,3.730571],[-74.563356,3.772644],[-74.512888,3.949353],[-74.530701,3.984695],[-74.487655,4.169819],[-74.55445,4.269113],[-74.653902,4.21021],[-74.78304,4.282576],[-74.879523,4.269113],[-74.888429,4.309503],[-74.815696,4.466017],[-74.818665,4.607384],[-74.794915,4.641043],[-74.827571,4.721824],[-74.762259,4.800923],[-74.762259,4.964168],[-74.735541,5.107219],[-74.7489,5.290659]]]}},{"type":"Feature","properties":{"name":"Bogota","country_code":"co","country_es":"Colombia"},"geometry":{"type":"Polygon","coordinates":[[[-74.493592,3.703643],[-74.420859,3.80462],[-74.361485,3.944304],[-74.370391,4.0335],[-74.327345,4.126062],[-74.272424,4.099135],[-74.214534,4.255649],[-74.180394,4.501359],[-74.224925,4.629263],[-74.161097,4.676385],[-74.082427,4.834582],[-74.009694,4.814386],[-74.017116,4.671336],[-73.99485,4.632628],[-74.116567,4.405431],[-74.107661,4.343162],[-74.149223,4.277527],[-74.094302,4.141209],[-74.15516,4.006573],[-74.207112,4.020037],[-74.309532,3.887084],[-74.336251,3.809669],[-74.428281,3.678399],[-74.493592,3.703643]]]}},{"type":"Feature","properties":{"name":"Risaralda","country_code":"co","country_es":"Colombia"},"geometry":{"type":"Polygon","coordinates":[[[-75.859194,5.489247],[-75.856225,5.374807],[-75.718181,5.396685],[-75.642479,5.304123],[-75.692947,5.257001],[-75.817632,5.27383],[-75.807242,5.191366],[-75.836929,5.110584],[-75.89185,5.120682],[-75.927474,5.043267],[-75.859194,4.932192],[-75.796851,4.938924],[-75.747868,5.04495],[-75.709275,4.952388],[-75.638026,4.974266],[-75.611308,4.933875],[-75.49256,4.918729],[-75.378265,4.79924],[-75.391624,4.716776],[-75.497013,4.673019],[-75.532637,4.698263],[-75.713728,4.71341],[-75.908178,4.763898],[-76.075909,5.034852],[-76.098175,5.176219],[-76.179814,5.309172],[-76.16497,5.410148],[-76.093721,5.455588],[-76.043254,5.57676],[-75.96013,5.506076],[-75.859194,5.489247]]]}},{"type":"Feature","properties":{"name":"Quindío","country_code":"co","country_es":"Colombia"},"geometry":{"type":"Polygon","coordinates":[[[-75.713728,4.71341],[-75.532637,4.698263],[-75.497013,4.673019],[-75.391624,4.716776],[-75.43467,4.619165],[-75.482169,4.593921],[-75.581621,4.427309],[-75.602402,4.29604],[-75.761227,4.07894],[-75.829507,4.109233],[-75.829507,4.21021],[-75.78943,4.287625],[-75.808726,4.397016],[-75.890365,4.423943],[-75.875522,4.55353],[-75.825054,4.664604],[-75.70779,4.66797],[-75.713728,4.71341]]]}},{"type":"Feature","properties":{"name":"Guainía","country_code":"co","country_es":"Colombia"},"geometry":{"type":"Polygon","coordinates":[[[-69.841638,1.707672],[-70.050932,1.781722],[-70.156321,1.869235],[-70.105853,2.101481],[-69.998979,2.197409],[-70.036088,2.276507],[-70.304756,2.226019],[-70.503658,2.276507],[-70.622407,2.328678],[-70.675843,2.43807],[-70.747092,2.528949],[-70.898496,2.592901],[-70.895527,2.619828],[-70.50069,2.784756],[-70.383426,2.847025],[-70.275069,2.959782],[-70.307724,3.082637],[-70.199367,3.197077],[-70.129602,3.203809],[-70.150383,3.346859],[-70.119212,3.41586],[-70.068744,3.425958],[-70.083587,3.525251],[-69.961871,3.505056],[-69.893591,3.565642],[-69.706562,3.569008],[-69.651641,3.542081],[-69.604142,3.691863],[-69.475004,3.715424],[-69.431958,3.685131],[-69.292429,3.727205],[-69.175165,3.653155],[-69.139541,3.675033],[-69.075714,3.612764],[-69.041574,3.654838],[-68.962903,3.641375],[-68.945091,3.703643],[-68.804077,3.69018],[-68.688298,3.797888],[-68.545801,3.796205],[-68.381038,3.917377],[-68.355804,4.020037],[-68.268227,4.003207],[-68.253384,3.942621],[-68.188072,3.972914],[-68.168776,3.920743],[-68.093074,4.00489],[-67.9862,3.934207],[-67.950576,3.957768],[-67.877843,3.922426],[-67.796204,3.952719],[-67.717533,4.040232],[-67.695268,3.929158],[-67.632925,3.760864],[-67.536442,3.735619],[-67.471131,3.680082],[-67.404335,3.505056],[-67.304884,3.425958],[-67.309337,3.383884],[-67.395429,3.266078],[-67.451834,3.242517],[-67.83925,2.887416],[-67.857062,2.789805],[-67.751673,2.843659],[-67.626988,2.813366],[-67.57652,2.690511],[-67.48449,2.661901],[-67.325665,2.475094],[-67.198011,2.402728],[-67.174261,2.337093],[-67.217307,2.284922],[-67.169808,2.141872],[-67.120824,2.119993],[-67.135668,2.00387],[-67.065903,1.894479],[-66.981295,1.665598],[-66.933796,1.502353],[-66.932312,1.424938],[-66.881844,1.327327],[-66.874422,1.222984],[-67.065903,1.172496],[-67.097075,1.253277],[-67.073325,1.541061],[-67.117856,1.711038],[-67.156449,1.788453],[-67.264806,1.933187],[-67.341992,2.0897],[-67.43996,2.140189],[-67.592848,2.054359],[-67.790266,1.812015],[-67.861515,1.761526],[-67.998075,1.751429],[-68.058934,1.81538],[-68.100495,1.923089],[-68.201431,2.007236],[-68.280102,1.828844],[-68.164323,1.721136],[-69.351803,1.721136],[-69.578908,1.769941],[-69.648673,1.737965],[-69.841638,1.707672]]]}}]}