{"type":"FeatureCollection","features":[{"type":"Feature","id":"CR.PU","properties":{"name":"Puntarenas","country_code":"cr","country_es":"Costa Rica","hc_key":"cr-pu"},"geometry":{"type":"MultiPolygon","coordinates":[[[[565.4,172.5],[562.9,171.5],[556.9,174.0],[565.8,176.3],[565.4,172.5]]],[[[155.8,626.5],[171.1,620.0],[162.3,617.4],[151.4,617.6],[142.9,622.9],[138.5,631.1],[147.3,633.3],[166.9,628.6],[166.9,626.4],[155.8,626.5]]],[[[864.7,292.8],[864.8,289.2],[874.4,293.3],[879.6,291.7],[883.1,284.7],[892.3,280.4],[907.1,269.6],[921.8,264.7],[926.2,261.8],[935.8,244.8],[931.2,237.2],[921.6,231.3],[888.4,217.6],[881.6,210.7],[885.7,207.7],[882.7,199.8],[870.5,191.0],[870.2,186.1],[874.6,177.3],[884.8,166.1],[890.2,158.5],[894.3,150.2],[896.9,140.4],[898.9,117.8],[898.0,106.4],[895.0,96.9],[887.9,88.1],[870.4,81.1],[861.2,76.3],[847.0,62.6],[829.5,52.0],[829.1,48.0],[841.2,39.6],[846.0,33.2],[849.9,31.7],[856.7,32.8],[864.6,26.6],[866.1,16.3],[883.3,-20.7],[881.7,-35.2],[879.7,-42.6],[875.3,-39.2],[879.7,-23.8],[878.7,-19.8],[856.6,17.7],[848.8,25.8],[808.6,54.7],[797.6,65.4],[814.0,85.6],[816.2,90.5],[814.2,95.7],[803.6,108.8],[801.6,117.2],[813.0,123.4],[799.8,124.0],[792.7,128.4],[786.3,140.9],[790.7,145.6],[796.5,132.7],[806.1,136.6],[806.1,139.0],[797.0,144.3],[790.6,152.2],[786.0,148.2],[773.4,148.7],[768.5,147.7],[762.3,156.6],[757.8,158.9],[753.2,156.5],[743.0,162.5],[740.0,167.3],[742.0,174.2],[737.6,174.1],[738.9,179.4],[734.3,182.0],[722.1,185.1],[720.3,181.3],[713.2,183.1],[709.9,177.1],[705.6,176.3],[694.9,177.8],[690.6,176.2],[689.0,169.8],[693.4,171.8],[704.7,154.8],[706.3,149.7],[715.5,136.3],[719.7,134.1],[741.1,127.3],[749.4,118.7],[753.4,121.1],[753.6,113.1],[751.0,105.4],[755.9,98.8],[757.9,87.5],[757.1,75.7],[753.5,67.7],[746.3,67.4],[734.5,71.1],[723.3,76.4],[718.1,80.8],[727.1,78.6],[715.6,85.4],[715.6,80.8],[697.0,88.8],[690.4,89.8],[670.7,87.3],[660.5,89.5],[648.3,104.1],[620.3,130.0],[618.5,132.9],[608.5,137.2],[607.4,147.3],[619.5,165.0],[628.0,169.4],[630.6,166.5],[642.8,182.9],[638.7,188.1],[643.6,193.9],[652.4,198.6],[660.3,200.7],[660.3,202.7],[649.8,203.2],[640.0,195.4],[640.2,204.0],[644.7,209.5],[656.3,215.9],[655.9,222.8],[647.9,228.1],[647.1,233.8],[653.3,230.6],[660.2,229.6],[646.4,240.4],[642.6,247.0],[645.7,253.3],[651.2,258.3],[642.6,280.6],[635.7,289.2],[633.5,287.0],[626.3,296.4],[619.7,307.3],[611.2,315.8],[598.3,318.1],[599.1,326.5],[592.0,333.6],[582.2,338.5],[575.0,340.4],[549.7,364.4],[524.9,375.9],[521.0,379.0],[490.0,391.1],[484.2,389.6],[481.4,393.5],[477.0,391.6],[471.4,396.7],[465.9,397.7],[469.4,403.7],[464.8,412.1],[456.4,419.5],[448.3,422.2],[448.3,420.0],[457.3,415.6],[448.9,417.1],[435.7,424.8],[419.1,427.3],[376.2,439.2],[367.9,439.9],[355.7,437.1],[347.6,440.9],[344.8,447.8],[340.4,448.8],[342.4,444.1],[325.2,456.1],[321.8,465.4],[311.9,471.1],[310.4,479.9],[305.4,479.7],[306.6,483.4],[305.4,493.2],[312.8,502.3],[319.5,514.0],[319.5,522.6],[312.0,531.0],[299.0,550.3],[290.2,555.3],[290.9,560.2],[295.4,567.6],[287.5,574.1],[287.7,582.0],[278.5,584.9],[250.1,582.1],[250.1,584.5],[259.1,586.6],[270.2,586.5],[270.2,588.7],[250.9,590.8],[235.0,597.8],[217.7,610.8],[216.4,615.3],[211.0,618.1],[197.9,630.4],[185.6,637.7],[180.8,635.4],[177.9,637.7],[180.5,643.3],[186.9,645.3],[196.2,645.6],[201.3,643.0],[207.5,643.6],[215.0,638.8],[222.6,630.8],[228.6,629.3],[226.9,635.9],[229.5,642.1],[236.7,648.1],[242.9,650.8],[243.6,657.2],[241.6,660.6],[246.6,679.0],[242.6,684.8],[245.5,691.4],[258.6,700.1],[265.9,698.9],[270.9,694.8],[278.1,683.4],[282.8,679.1],[287.2,679.1],[303.8,682.9],[309.5,679.2],[315.0,670.3],[308.6,651.6],[311.1,642.8],[309.8,634.7],[314.8,622.2],[332.7,597.0],[340.3,599.7],[346.6,591.9],[345.0,587.8],[338.4,585.0],[316.6,571.3],[306.7,555.3],[310.0,552.5],[322.0,548.4],[330.0,547.4],[339.9,535.9],[337.0,533.5],[345.4,528.2],[348.8,522.6],[347.6,514.8],[334.0,512.6],[333.4,509.4],[336.6,497.4],[337.2,488.2],[344.3,475.7],[346.7,464.2],[349.0,458.8],[354.3,453.2],[376.9,454.7],[385.7,450.9],[395.6,461.6],[396.6,473.1],[410.6,475.0],[429.1,475.3],[434.7,469.7],[449.5,469.3],[458.5,467.1],[472.9,468.4],[477.6,467.0],[479.2,463.0],[478.5,454.4],[482.6,449.7],[493.6,449.1],[499.0,447.6],[500.4,444.7],[500.5,432.2],[507.5,429.1],[512.7,419.0],[520.0,411.9],[541.1,397.9],[546.1,396.3],[552.7,399.2],[557.5,391.9],[559.2,384.8],[569.6,374.4],[572.9,369.5],[573.1,360.8],[576.7,351.1],[581.0,346.5],[597.0,339.3],[601.1,339.1],[605.0,344.0],[609.2,345.7],[615.0,343.8],[626.8,330.5],[630.6,318.6],[634.1,314.0],[663.3,295.2],[672.3,295.5],[679.6,290.7],[690.0,299.9],[689.7,310.2],[693.5,319.8],[691.4,329.0],[682.3,332.0],[681.2,333.9],[684.3,350.2],[694.4,362.5],[698.0,373.6],[706.8,383.8],[715.2,381.4],[718.8,375.4],[733.5,379.8],[741.6,387.9],[747.0,386.4],[753.0,381.3],[762.1,377.8],[771.7,372.4],[776.8,371.5],[791.7,372.2],[804.3,356.0],[819.4,346.4],[823.1,340.2],[826.6,322.8],[829.9,318.6],[844.4,313.8],[848.1,305.5],[855.3,297.7],[864.7,292.8]]],[[[148.6,599.3],[155.9,592.8],[175.4,584.8],[185.2,582.2],[197.6,575.1],[209.4,573.0],[215.2,575.5],[227.1,567.4],[230.8,562.2],[224.4,560.7],[224.6,556.0],[232.7,546.5],[223.7,539.9],[234.1,537.1],[245.6,537.5],[245.6,535.5],[230.4,526.7],[227.1,519.7],[219.5,515.4],[215.1,504.6],[205.0,509.6],[199.7,510.0],[197.4,505.7],[203.7,496.8],[202.9,495.6],[182.0,484.6],[180.4,482.0],[173.3,459.8],[166.5,449.0],[164.1,449.1],[155.2,467.6],[128.5,504.0],[132.7,506.4],[142.1,520.8],[141.0,526.5],[145.8,545.6],[139.2,548.2],[136.2,556.3],[127.1,562.8],[107.7,565.9],[104.9,570.4],[109.2,575.5],[122.7,580.6],[126.5,579.1],[136.4,584.5],[143.4,586.2],[148.6,599.3]]]]}},{"type":"Feature","id":"CR.SJ","properties":{"name":"San José","country_code":"cr","country_es":"Costa Rica","hc_key":"cr-sj"},"geometry":{"type":"Polygon","coordinates":[[[339.9,535.9],[352.7,552.1],[358.3,555.0],[362.7,559.9],[375.2,565.9],[397.3,568.6],[418.2,564.0],[423.9,564.8],[454.3,573.7],[459.0,578.8],[464.6,579.8],[474.6,575.1],[486.4,580.4],[496.1,579.8],[507.9,583.1],[514.2,586.9],[520.1,604.0],[514.6,611.7],[513.2,622.1],[501.6,637.5],[500.2,641.7],[529.3,645.3],[538.9,655.9],[550.8,657.1],[545.8,651.4],[541.5,636.8],[546.0,621.4],[555.6,613.1],[562.0,605.8],[564.1,601.2],[566.2,585.6],[563.3,580.6],[557.6,579.5],[553.6,575.1],[538.2,575.6],[523.2,570.1],[514.7,556.2],[514.2,553.5],[522.4,549.6],[513.1,534.6],[501.1,524.3],[498.0,515.3],[501.3,513.6],[508.8,515.9],[512.5,515.2],[527.0,517.5],[531.1,507.3],[537.3,505.3],[542.2,497.6],[551.1,486.8],[564.1,481.5],[571.7,482.2],[583.7,462.9],[591.6,461.1],[599.3,461.9],[603.0,456.9],[612.6,452.0],[614.6,443.4],[622.8,445.9],[628.6,445.7],[635.6,452.5],[639.4,453.7],[647.6,445.1],[688.2,420.7],[699.0,391.5],[706.8,383.8],[698.0,373.6],[694.4,362.5],[684.3,350.2],[681.2,333.9],[682.3,332.0],[691.4,329.0],[693.5,319.8],[689.7,310.2],[690.0,299.9],[679.6,290.7],[672.3,295.5],[663.3,295.2],[634.1,314.0],[630.6,318.6],[626.8,330.5],[615.0,343.8],[609.2,345.7],[605.0,344.0],[601.1,339.1],[597.0,339.3],[581.0,346.5],[576.7,351.1],[573.1,360.8],[572.9,369.5],[569.6,374.4],[559.2,384.8],[557.5,391.9],[552.7,399.2],[546.1,396.3],[541.1,397.9],[520.0,411.9],[512.7,419.0],[507.5,429.1],[500.5,432.2],[500.4,444.7],[499.0,447.6],[493.6,449.1],[482.6,449.7],[478.5,454.4],[479.2,463.0],[477.6,467.0],[472.9,468.4],[458.5,467.1],[449.5,469.3],[434.7,469.7],[429.1,475.3],[410.6,475.0],[396.6,473.1],[395.6,461.6],[385.7,450.9],[376.9,454.7],[354.3,453.2],[349.0,458.8],[346.7,464.2],[344.3,475.7],[337.2,488.2],[336.6,497.4],[333.4,509.4],[334.0,512.6],[347.6,514.8],[348.8,522.6],[345.4,528.2],[337.0,533.5],[339.9,535.9]]]}},{"type":"Feature","id":"CR.AL","properties":{"name":"Alajuela","country_code":"cr","country_es":"Costa Rica","hc_key":"cr-al"},"geometry":{"type":"Polygon","coordinates":[[[459.0,578.8],[454.3,573.7],[423.9,564.8],[418.2,564.0],[397.3,568.6],[375.2,565.9],[362.7,559.9],[358.3,555.0],[352.7,552.1],[339.9,535.9],[330.0,547.4],[322.0,548.4],[310.0,552.5],[306.7,555.3],[316.6,571.3],[338.4,585.0],[345.0,587.8],[346.6,591.9],[340.3,599.7],[332.7,597.0],[314.8,622.2],[309.8,634.7],[311.1,642.8],[308.6,651.6],[315.0,670.3],[309.5,679.2],[303.8,682.9],[287.2,679.1],[282.8,679.1],[278.1,683.4],[270.9,694.8],[276.6,707.8],[273.3,718.0],[278.2,735.9],[268.9,753.5],[250.6,767.6],[244.8,770.5],[222.8,776.9],[210.8,788.4],[207.0,794.6],[205.6,803.3],[197.4,817.1],[189.1,822.4],[163.5,829.2],[149.7,839.4],[145.3,841.4],[121.9,838.6],[112.3,839.0],[101.7,858.9],[88.8,862.6],[77.4,869.9],[62.9,886.8],[63.1,891.7],[74.0,892.5],[78.5,896.6],[103.7,913.7],[119.0,930.8],[127.4,933.9],[224.9,897.7],[232.2,896.9],[239.7,899.5],[296.5,936.8],[306.5,939.2],[312.1,936.7],[324.3,927.9],[336.8,927.5],[344.2,925.2],[366.4,915.2],[373.6,906.1],[382.6,900.9],[389.2,901.8],[409.1,914.6],[412.1,913.1],[413.5,903.3],[423.4,890.2],[438.3,884.5],[444.5,879.1],[456.2,871.3],[457.4,863.6],[450.2,857.8],[452.8,853.5],[461.6,845.7],[465.1,848.3],[472.4,847.9],[469.9,643.9],[466.2,594.1],[458.7,585.3],[459.0,578.8]]]}},{"type":"Feature","id":"CR.GU","properties":{"name":"Guanacaste","country_code":"cr","country_es":"Costa Rica","hc_key":"cr-gu"},"geometry":{"type":"Polygon","coordinates":[[[186.9,645.3],[180.4,643.3],[173.6,648.7],[167.8,646.9],[146.1,646.6],[135.2,651.7],[127.2,660.1],[129.1,668.0],[123.5,674.8],[109.8,684.5],[111.7,677.9],[121.0,671.1],[123.1,663.2],[123.9,648.2],[125.8,639.4],[129.5,633.4],[125.4,630.7],[125.9,626.2],[129.7,622.0],[139.5,618.5],[147.2,606.6],[151.8,607.7],[153.4,604.6],[142.6,606.6],[148.6,599.3],[143.4,586.2],[136.4,584.5],[126.5,579.1],[122.7,580.6],[109.2,575.5],[104.9,570.4],[107.7,565.9],[127.1,562.8],[136.2,556.3],[139.2,548.2],[145.8,545.6],[141.0,526.5],[142.1,520.8],[132.7,506.4],[128.5,504.0],[122.5,511.4],[114.5,514.8],[113.7,522.5],[106.1,531.0],[95.5,537.0],[61.0,549.4],[51.2,544.8],[43.8,548.7],[38.2,549.7],[33.6,553.7],[30.3,551.5],[12.2,557.4],[3.5,558.8],[-2.7,562.9],[-10.8,561.2],[-13.7,565.0],[-11.3,571.0],[-14.7,579.2],[-47.4,619.6],[-51.9,631.9],[-55.8,638.0],[-68.2,668.6],[-69.2,677.7],[-72.4,687.4],[-66.2,694.8],[-73.6,706.1],[-77.9,708.8],[-69.9,716.3],[-63.5,727.1],[-58.0,724.9],[-52.7,733.4],[-45.9,738.5],[-48.5,744.3],[-56.6,753.8],[-52.2,756.0],[-56.6,760.5],[-50.6,763.4],[-47.8,769.5],[-41.2,765.8],[-28.4,771.9],[-21.6,771.3],[-22.0,775.6],[-14.4,785.2],[-9.3,784.5],[0.4,794.6],[-6.1,802.2],[-19.3,789.0],[-21.5,793.4],[-12.7,800.0],[-16.3,803.7],[-12.7,804.6],[-14.8,809.1],[-9.5,813.3],[-8.4,824.3],[-10.1,845.6],[-14.9,851.3],[-25.4,856.1],[-36.0,857.8],[-42.8,854.6],[-54.1,864.7],[-49.9,866.9],[-54.1,869.7],[-62.8,869.2],[-72.2,872.8],[-87.9,880.8],[-99.9,882.4],[-99.9,884.8],[-92.6,886.6],[-79.1,892.7],[-71.5,893.5],[-78.0,900.2],[-62.1,901.0],[-56.5,897.6],[-57.7,892.3],[-51.6,886.8],[-47.2,889.2],[-50.9,894.8],[-47.4,897.1],[-34.1,897.8],[-29.1,893.9],[-24.4,894.1],[-25.4,902.3],[-20.6,904.1],[-19.2,907.6],[-22.9,915.6],[-30.6,919.6],[-35.6,924.0],[-26.9,931.2],[-20.7,926.5],[-14.3,926.6],[-10.5,930.1],[-14.7,939.4],[-21.3,943.5],[-13.6,956.0],[-7.7,968.6],[1.4,980.7],[12.1,985.1],[21.2,980.4],[30.2,972.2],[40.5,966.4],[127.4,933.9],[119.0,930.8],[103.7,913.7],[78.5,896.6],[74.0,892.5],[63.1,891.7],[62.9,886.8],[77.4,869.9],[88.8,862.6],[101.7,858.9],[112.3,839.0],[121.9,838.6],[145.3,841.4],[149.7,839.4],[163.5,829.2],[189.1,822.4],[197.4,817.1],[205.6,803.3],[207.0,794.6],[210.8,788.4],[222.8,776.9],[244.8,770.5],[250.6,767.6],[268.9,753.5],[278.2,735.9],[273.3,718.0],[276.6,707.8],[270.9,694.8],[265.9,698.9],[258.6,700.1],[245.5,691.4],[242.6,684.8],[246.6,679.0],[241.6,660.6],[243.6,657.2],[242.9,650.8],[236.7,648.1],[229.5,642.1],[226.9,635.9],[228.6,629.3],[222.6,630.8],[215.0,638.8],[207.5,643.6],[201.3,643.0],[196.2,645.6],[186.9,645.3]]]}},{"type":"Feature","id":"CR.LI","properties":{"name":"Limón","country_code":"cr","country_es":"Costa Rica","hc_key":"cr-li"},"geometry":{"type":"Polygon","coordinates":[[[864.7,292.8],[855.3,297.7],[848.1,305.5],[844.4,313.8],[829.9,318.6],[826.6,322.8],[823.1,340.2],[819.4,346.4],[804.3,356.0],[791.7,372.2],[776.8,371.5],[771.7,372.4],[762.1,377.8],[753.0,381.3],[747.0,386.4],[741.6,387.9],[733.5,379.8],[718.8,375.4],[715.2,381.4],[706.8,383.8],[699.0,391.5],[688.2,420.7],[680.8,435.7],[679.4,442.7],[680.4,452.6],[684.9,461.8],[703.4,484.1],[710.6,502.3],[713.1,506.4],[736.4,535.2],[738.5,540.8],[733.9,558.1],[734.5,571.0],[741.7,583.3],[735.3,584.6],[701.3,585.3],[655.0,585.5],[646.6,588.6],[581.7,618.8],[541.5,636.8],[545.8,651.4],[550.8,657.1],[565.9,673.3],[572.0,687.3],[573.4,700.6],[565.3,717.0],[564.6,726.2],[569.2,734.8],[574.9,738.5],[579.5,749.6],[578.1,762.0],[575.4,768.0],[577.2,781.9],[578.3,799.7],[595.7,812.6],[600.9,814.1],[617.5,815.3],[609.0,824.1],[609.5,833.3],[604.1,841.1],[598.5,843.2],[619.5,848.3],[630.7,854.1],[631.6,862.9],[628.7,874.4],[628.1,891.5],[636.6,892.6],[643.0,885.2],[651.3,870.2],[657.1,854.2],[656.4,844.0],[651.7,849.8],[643.2,870.5],[648.7,844.7],[648.2,834.2],[638.9,826.3],[643.8,827.2],[654.4,835.0],[652.6,831.3],[654.4,826.3],[658.8,841.6],[674.4,798.8],[694.0,753.1],[717.1,714.8],[778.5,635.2],[783.4,631.4],[803.9,606.5],[816.6,594.1],[824.2,598.4],[835.6,595.1],[837.4,592.7],[838.7,581.6],[860.3,550.7],[865.1,547.4],[883.7,522.5],[897.7,509.5],[905.9,512.0],[907.8,506.9],[909.6,493.9],[912.6,487.9],[917.6,484.2],[939.2,476.8],[961.5,475.8],[967.7,472.5],[975.8,460.5],[981.6,457.0],[985.1,444.9],[972.8,448.1],[970.5,444.6],[969.2,432.1],[967.2,428.0],[957.0,428.3],[948.1,431.5],[937.3,446.7],[931.6,446.6],[918.1,457.9],[899.5,465.2],[893.5,464.5],[887.6,459.4],[883.4,451.3],[887.3,444.4],[889.6,435.5],[894.6,432.1],[889.3,426.7],[872.2,424.3],[866.2,422.2],[862.7,411.4],[864.7,292.8]]]}},{"type":"Feature","id":"CR.CA","properties":{"name":"Cartago","country_code":"cr","country_es":"Costa Rica","hc_key":"cr-ca"},"geometry":{"type":"Polygon","coordinates":[[[541.5,636.8],[581.7,618.8],[646.6,588.6],[655.0,585.5],[701.3,585.3],[735.3,584.6],[741.7,583.3],[734.5,571.0],[733.9,558.1],[738.5,540.8],[736.4,535.2],[713.1,506.4],[710.6,502.3],[703.4,484.1],[684.9,461.8],[680.4,452.6],[679.4,442.7],[680.8,435.7],[688.2,420.7],[647.6,445.1],[639.4,453.7],[635.6,452.5],[628.6,445.7],[622.8,445.9],[614.6,443.4],[612.6,452.0],[603.0,456.9],[599.3,461.9],[591.6,461.1],[583.7,462.9],[571.7,482.2],[564.1,481.5],[551.1,486.8],[542.2,497.6],[537.3,505.3],[531.1,507.3],[527.0,517.5],[512.5,515.2],[508.8,515.9],[501.3,513.6],[498.0,515.3],[501.1,524.3],[513.1,534.6],[522.4,549.6],[514.2,553.5],[514.7,556.2],[523.2,570.1],[538.2,575.6],[553.6,575.1],[557.6,579.5],[563.3,580.6],[566.2,585.6],[564.1,601.2],[562.0,605.8],[555.6,613.1],[546.0,621.4],[541.5,636.8]]]}},{"type":"Feature","id":"CR.HE","properties":{"name":"Heredia","country_code":"cr","country_es":"Costa Rica","hc_key":"cr-he"},"geometry":{"type":"Polygon","coordinates":[[[550.8,657.1],[538.9,655.9],[529.3,645.3],[500.2,641.7],[501.6,637.5],[513.2,622.1],[514.6,611.7],[520.1,604.0],[514.2,586.9],[507.9,583.1],[496.1,579.8],[486.4,580.4],[474.6,575.1],[464.6,579.8],[459.0,578.8],[458.7,585.3],[466.2,594.1],[469.9,643.9],[472.4,847.9],[479.0,848.1],[485.0,842.3],[488.7,840.9],[494.5,843.7],[498.4,839.9],[506.4,845.0],[511.8,843.7],[515.6,847.5],[519.9,848.2],[523.5,845.8],[524.9,840.3],[544.2,825.1],[552.5,824.3],[559.1,828.1],[567.9,826.4],[575.6,834.8],[598.5,843.2],[604.1,841.1],[609.5,833.3],[609.0,824.1],[617.5,815.3],[600.9,814.1],[595.7,812.6],[578.3,799.7],[577.2,781.9],[575.4,768.0],[578.1,762.0],[579.5,749.6],[574.9,738.5],[569.2,734.8],[564.6,726.2],[565.3,717.0],[573.4,700.6],[572.0,687.3],[565.9,673.3],[550.8,657.1]]]}}]}