{"type":"FeatureCollection","features":[{"type":"Feature","id":"CU.HO","properties":{"name":"Holguín","country_code":"cu","country_es":"Cuba","hc_key":"cu-ho"},"geometry":{"type":"MultiPolygon","coordinates":[[[[846.4,726.4],[846.8,725.1],[839.8,726.1],[837.1,728.2],[837.0,730.1],[841.9,731.2],[844.0,730.3],[846.4,726.4]]],[[[761.6,777.4],[765.5,774.7],[776.2,770.9],[779.5,768.9],[780.4,763.3],[781.9,760.9],[786.2,763.3],[789.4,761.7],[789.9,759.3],[791.2,760.9],[793.4,759.8],[793.3,761.7],[798.0,761.9],[801.0,764.1],[806.2,762.8],[811.3,766.7],[814.1,764.9],[820.3,765.5],[823.2,765.2],[825.2,763.5],[826.2,759.9],[830.2,760.8],[832.5,759.4],[836.1,754.3],[834.2,749.8],[832.2,747.5],[831.7,744.6],[829.5,741.9],[826.2,740.8],[824.6,744.4],[821.9,744.2],[822.8,742.1],[819.9,741.8],[822.3,736.9],[824.0,738.6],[826.6,739.5],[831.8,739.5],[836.7,737.0],[837.3,734.4],[839.6,733.9],[838.9,731.3],[833.7,733.1],[831.5,735.9],[824.1,734.1],[817.5,734.7],[818.0,732.1],[816.5,725.1],[818.7,721.9],[824.2,719.3],[825.9,722.8],[830.6,727.1],[831.5,729.2],[834.1,726.4],[833.8,722.6],[837.3,722.8],[836.8,720.6],[840.1,719.2],[839.4,721.5],[845.4,720.4],[847.5,722.4],[850.4,720.3],[851.1,722.5],[847.5,723.1],[848.7,724.8],[851.1,725.6],[855.7,725.6],[859.6,723.7],[860.3,722.5],[857.9,721.9],[859.4,719.1],[860.7,720.6],[861.7,718.4],[864.1,717.9],[869.8,718.8],[864.1,721.6],[862.1,722.1],[863.4,723.5],[869.6,724.7],[875.9,723.8],[877.5,722.4],[875.9,721.2],[880.6,720.5],[883.9,721.0],[885.0,718.5],[885.6,720.8],[889.1,720.2],[887.6,721.6],[895.7,722.9],[900.5,721.3],[901.6,719.7],[905.7,720.1],[910.8,716.4],[918.8,715.8],[922.5,714.1],[921.1,713.3],[922.7,709.7],[924.8,708.5],[920.7,706.6],[918.4,704.0],[917.4,699.2],[918.4,696.3],[914.4,694.5],[912.3,692.2],[899.6,698.6],[896.1,697.7],[896.5,695.0],[898.8,692.2],[895.0,694.0],[891.7,694.2],[885.8,699.4],[880.5,697.2],[877.3,697.7],[873.5,694.4],[872.4,689.5],[870.0,691.1],[867.8,690.1],[863.2,693.6],[858.7,691.8],[853.6,697.8],[856.6,701.4],[856.5,705.1],[849.1,703.3],[845.5,705.1],[842.6,703.9],[837.6,699.3],[834.9,700.5],[834.4,696.0],[830.1,692.9],[820.7,692.3],[813.5,688.7],[808.6,689.7],[807.5,692.4],[805.8,692.8],[801.6,695.8],[802.5,698.0],[798.6,698.4],[796.9,701.8],[792.0,705.2],[790.1,704.9],[791.1,701.1],[786.0,697.7],[787.4,694.0],[786.7,689.3],[784.6,687.1],[785.0,690.3],[777.6,690.8],[775.0,694.7],[770.0,698.7],[757.9,701.8],[758.4,704.1],[751.0,706.3],[744.5,709.7],[738.3,711.6],[737.6,717.4],[731.8,715.7],[728.1,717.1],[726.5,718.8],[724.5,717.9],[722.2,719.7],[724.2,720.8],[724.1,723.0],[722.2,725.5],[723.2,730.1],[725.0,732.6],[725.4,735.1],[725.1,742.6],[726.3,746.3],[729.5,744.4],[732.5,744.9],[737.7,747.3],[742.0,747.9],[743.4,752.6],[749.8,758.3],[759.0,764.0],[759.3,768.0],[761.4,771.3],[761.6,777.4]]]]}},{"type":"Feature","id":"CU.AR","properties":{"name":"Artemisa","country_code":"cu","country_es":"Cuba","hc_key":"cu-ar"},"geometry":{"type":"MultiPolygon","coordinates":[[[[142.7,911.3],[141.8,911.0],[142.1,917.7],[142.7,918.8],[143.8,913.8],[142.7,911.3]]],[[[141.3,965.4],[143.4,963.9],[146.6,964.9],[147.7,962.6],[144.8,959.7],[145.8,958.5],[150.4,956.5],[151.3,952.9],[151.1,946.4],[149.0,940.3],[149.0,936.4],[152.9,929.4],[155.5,927.8],[155.4,924.2],[148.9,923.4],[143.7,924.7],[139.6,923.3],[135.0,924.4],[131.5,923.6],[121.1,926.5],[116.9,925.5],[115.9,923.7],[114.8,917.7],[112.4,916.4],[111.4,918.6],[108.1,922.3],[104.5,929.9],[102.7,931.2],[99.9,935.6],[97.5,937.5],[101.9,938.9],[103.7,941.0],[103.5,944.6],[101.0,949.4],[101.1,956.5],[103.8,961.5],[110.6,960.9],[115.1,962.0],[124.0,961.5],[137.6,963.4],[141.3,965.4]]]]}},{"type":"Feature","id":"CU.MA","properties":{"name":"Matanzas","country_code":"cu","country_es":"Cuba","hc_key":"cu-ma"},"geometry":{"type":"MultiPolygon","coordinates":[[[[238.5,856.5],[238.7,855.1],[235.2,855.7],[235.2,858.5],[238.5,856.5]]],[[[339.7,977.4],[344.9,977.8],[345.0,976.2],[342.8,974.8],[338.1,976.3],[334.4,975.9],[335.4,978.3],[338.0,978.8],[339.7,977.4]]],[[[326.2,978.3],[325.1,976.7],[322.2,976.0],[323.1,978.6],[325.7,979.4],[326.2,978.3]]],[[[321.4,978.1],[318.6,976.5],[314.6,977.9],[311.8,977.8],[308.0,979.0],[306.7,980.3],[309.0,980.6],[315.2,978.8],[321.4,978.1]]],[[[301.6,985.1],[305.4,983.3],[305.0,981.5],[300.5,982.7],[299.4,984.8],[301.6,985.1]]],[[[302.9,973.8],[308.7,973.6],[308.4,975.8],[310.0,974.4],[310.7,975.9],[312.3,973.6],[309.7,971.3],[306.3,972.2],[303.1,971.9],[295.8,968.6],[302.9,973.8]]],[[[333.4,856.0],[329.0,855.9],[316.8,856.7],[302.4,855.1],[293.8,856.0],[288.1,858.6],[282.7,860.4],[279.2,867.5],[278.8,870.2],[279.5,874.7],[276.5,879.1],[272.7,879.9],[272.0,877.4],[273.4,872.9],[273.5,859.9],[272.7,856.6],[270.6,856.8],[272.1,859.1],[271.6,862.5],[269.3,866.3],[266.5,865.3],[265.7,862.0],[264.1,860.6],[261.8,861.9],[259.5,859.7],[255.9,861.3],[253.7,868.4],[249.9,870.1],[245.2,870.1],[242.1,871.8],[236.0,869.5],[235.3,870.8],[228.4,873.0],[226.9,871.4],[220.4,872.2],[218.3,869.4],[211.2,870.6],[208.7,873.4],[205.8,878.2],[191.7,883.9],[187.9,886.5],[185.1,887.1],[183.4,890.1],[178.6,891.1],[177.7,892.9],[179.4,895.6],[182.2,896.6],[193.6,896.2],[197.3,897.1],[199.9,896.7],[204.8,897.2],[209.7,896.3],[214.8,897.1],[218.7,898.8],[225.3,899.8],[228.5,902.3],[228.5,907.2],[229.4,910.2],[228.6,911.6],[232.8,917.0],[234.1,923.9],[233.9,925.5],[228.6,929.2],[228.0,931.8],[228.7,935.8],[225.9,938.1],[224.3,941.0],[225.6,945.0],[225.8,949.6],[223.1,953.3],[219.3,955.6],[219.9,957.1],[224.0,960.7],[222.7,962.2],[223.5,964.1],[225.9,963.8],[224.5,971.5],[225.6,973.7],[235.8,973.7],[240.2,970.7],[240.6,968.5],[239.8,964.2],[238.5,962.7],[240.9,961.9],[243.5,962.8],[245.6,967.6],[255.6,969.2],[257.7,970.9],[264.8,972.2],[269.9,974.6],[276.7,979.0],[280.2,978.7],[276.0,976.4],[271.6,975.2],[266.2,971.9],[264.8,970.1],[269.2,968.9],[274.8,962.4],[278.3,960.5],[281.1,960.9],[285.3,967.9],[289.1,968.6],[294.3,968.1],[295.2,963.7],[297.0,963.1],[301.3,964.2],[316.8,967.1],[326.3,966.4],[330.2,968.9],[330.7,970.9],[328.9,972.9],[331.5,973.7],[333.7,972.9],[330.3,966.4],[333.2,964.1],[331.0,960.8],[330.7,955.5],[329.5,954.1],[325.9,954.6],[320.6,954.0],[319.7,953.2],[319.7,946.2],[318.0,944.5],[321.8,938.3],[325.9,935.1],[327.5,935.2],[332.1,937.7],[333.8,937.4],[337.4,928.7],[335.4,926.1],[336.8,923.0],[336.3,918.0],[338.5,911.2],[340.6,908.0],[338.3,906.2],[335.0,900.8],[330.3,899.2],[319.1,900.5],[316.0,900.4],[309.2,901.6],[304.0,898.6],[300.1,894.9],[301.4,893.6],[298.8,887.8],[301.6,887.0],[299.9,878.9],[300.3,877.0],[303.2,876.7],[303.2,872.7],[307.4,869.8],[309.7,867.0],[318.7,862.7],[323.2,863.8],[325.7,862.9],[331.0,863.2],[332.1,861.5],[333.4,856.0]]]]}},{"type":"Feature","id":"CU.VC","properties":{"name":"Villa Clara","country_code":"cu","country_es":"Cuba","hc_key":"cu-vc"},"geometry":{"type":"MultiPolygon","coordinates":[[[[423.4,942.4],[425.3,940.9],[422.9,939.6],[417.5,944.1],[419.9,946.3],[419.6,944.6],[422.2,943.9],[423.4,942.4]]],[[[400.5,953.6],[402.9,952.9],[401.8,950.5],[399.7,951.8],[396.7,949.5],[396.0,952.1],[400.5,953.6]]],[[[408.1,947.8],[405.2,949.3],[406.3,951.0],[404.5,951.6],[405.5,953.2],[408.9,953.5],[409.8,951.6],[407.4,950.0],[408.1,947.8]]],[[[366.9,955.5],[368.9,952.6],[358.9,954.3],[357.4,955.5],[360.1,955.5],[364.9,957.9],[367.1,958.1],[368.8,957.0],[366.9,955.5]]],[[[385.3,963.3],[386.4,960.2],[383.3,961.2],[383.0,964.3],[385.3,963.3]]],[[[377.6,965.1],[375.6,964.2],[369.5,966.5],[371.5,970.2],[375.2,966.9],[378.7,966.3],[377.6,965.1]]],[[[367.5,966.1],[362.7,969.3],[361.5,971.3],[363.9,972.1],[368.2,967.4],[367.5,966.1]]],[[[354.3,972.7],[350.2,972.2],[346.5,970.4],[347.6,972.9],[352.0,973.4],[354.3,972.7]]],[[[458.6,916.8],[451.0,921.8],[447.6,925.5],[445.8,924.8],[442.3,925.8],[439.0,928.2],[438.5,929.8],[435.6,931.9],[434.2,934.9],[432.3,935.6],[428.1,934.4],[427.9,936.3],[432.7,937.3],[434.4,936.6],[439.6,930.8],[441.7,929.1],[446.3,927.7],[450.0,924.7],[454.1,923.2],[456.1,921.2],[458.6,916.8]]],[[[333.2,964.1],[336.8,957.6],[338.8,956.2],[345.9,954.8],[349.2,951.6],[356.5,951.1],[360.8,948.6],[364.2,947.6],[370.5,948.2],[376.4,950.5],[375.6,953.0],[377.3,953.1],[382.5,950.5],[386.8,950.2],[387.2,952.7],[389.3,951.4],[393.0,944.8],[396.8,942.6],[402.1,941.8],[405.3,944.8],[411.4,946.6],[412.2,945.6],[409.5,943.4],[407.2,944.5],[406.1,943.6],[404.9,939.8],[406.6,937.4],[408.6,936.5],[414.4,935.6],[421.5,930.4],[423.2,931.9],[426.3,931.7],[428.9,920.9],[431.6,919.8],[435.0,916.0],[437.3,911.2],[440.4,907.9],[445.9,907.3],[449.9,901.4],[449.9,898.8],[448.1,895.4],[450.1,893.2],[453.5,886.6],[456.4,882.7],[455.7,875.7],[450.6,877.4],[448.4,877.5],[445.5,876.2],[443.8,874.3],[442.0,869.6],[440.3,867.6],[437.8,867.0],[434.2,868.7],[432.2,868.0],[428.1,869.2],[423.7,867.7],[421.8,867.9],[418.7,871.2],[415.5,871.3],[414.4,870.3],[414.9,866.6],[417.5,861.6],[419.8,860.7],[419.2,857.4],[415.7,850.9],[413.3,848.7],[410.3,848.9],[407.7,850.3],[401.9,851.7],[399.9,851.1],[398.1,847.6],[395.4,847.1],[390.1,844.0],[390.2,845.4],[388.0,847.2],[387.4,853.5],[384.7,856.6],[382.4,863.6],[382.0,870.7],[383.9,876.7],[381.4,877.8],[379.3,881.0],[377.7,886.1],[373.9,885.7],[369.1,889.9],[368.1,892.5],[370.2,896.0],[368.5,898.0],[368.7,901.4],[366.8,902.4],[365.2,907.0],[366.9,909.2],[366.5,912.0],[365.5,911.1],[362.0,911.0],[360.6,907.5],[354.9,905.4],[353.7,906.0],[354.5,910.4],[350.7,910.7],[348.4,912.6],[346.5,912.6],[344.7,910.5],[340.6,908.0],[338.5,911.2],[336.3,918.0],[336.8,923.0],[335.4,926.1],[337.4,928.7],[333.8,937.4],[332.1,937.7],[327.5,935.2],[325.9,935.1],[321.8,938.3],[318.0,944.5],[319.7,946.2],[319.7,953.2],[320.6,954.0],[325.9,954.6],[329.5,954.1],[330.7,955.5],[331.0,960.8],[333.2,964.1]]]]}},{"type":"Feature","id":"CU.IJ","properties":{"name":"Isla de la Juventud","country_code":"cu","country_es":"Cuba","hc_key":"cu-ij"},"geometry":{"type":"MultiPolygon","coordinates":[[[[184.5,804.6],[182.4,804.5],[188.6,809.1],[192.6,810.2],[195.3,813.0],[196.1,810.2],[194.4,808.8],[184.5,804.6]]],[[[206.3,812.0],[203.2,809.5],[201.5,809.5],[204.4,813.1],[209.4,814.9],[206.3,812.0]]],[[[133.6,842.7],[130.9,842.6],[128.2,843.9],[127.2,845.7],[129.4,846.2],[134.8,843.2],[133.6,842.7]]],[[[250.0,816.7],[255.4,820.3],[256.2,819.2],[251.4,814.9],[243.5,809.6],[240.4,808.3],[237.2,808.0],[238.1,810.6],[240.9,810.2],[243.9,813.7],[246.3,812.8],[248.9,814.0],[250.0,816.7]]],[[[132.8,826.5],[134.5,822.1],[132.8,818.9],[132.0,815.3],[136.8,813.0],[136.1,811.0],[139.5,807.9],[136.4,804.1],[134.0,802.2],[130.3,801.0],[117.5,794.8],[109.9,792.1],[102.8,791.4],[100.7,792.9],[94.2,793.1],[90.1,794.6],[85.7,795.0],[82.5,799.4],[78.4,802.4],[76.5,805.7],[74.6,812.3],[81.3,807.5],[83.5,804.7],[87.1,803.4],[91.2,803.4],[96.7,807.9],[98.0,806.9],[97.7,804.7],[99.5,808.0],[99.0,809.3],[94.9,810.9],[86.6,826.1],[85.4,830.3],[86.5,834.9],[90.8,838.1],[92.2,840.6],[98.2,843.5],[93.7,844.9],[95.2,846.0],[108.2,844.3],[121.8,840.5],[124.9,838.5],[125.4,836.9],[124.6,832.4],[130.5,826.9],[132.8,826.5]]]]}},{"type":"Feature","id":"CU.SS","properties":{"name":"Sancti Spíritus","country_code":"cu","country_es":"Cuba","hc_key":"cu-ss"},"geometry":{"type":"MultiPolygon","coordinates":[[[[470.5,917.8],[469.9,917.8],[469.6,919.8],[473.4,920.0],[470.5,917.8]]],[[[494.8,920.8],[492.5,919.5],[490.5,921.5],[484.5,921.8],[483.9,923.3],[493.2,922.8],[494.8,920.8]]],[[[382.5,831.8],[382.8,836.8],[390.1,844.0],[395.4,847.1],[398.1,847.6],[399.9,851.1],[401.9,851.7],[407.7,850.3],[410.3,848.9],[413.3,848.7],[415.7,850.9],[419.2,857.4],[419.8,860.7],[417.5,861.6],[414.9,866.6],[414.4,870.3],[415.5,871.3],[418.7,871.2],[421.8,867.9],[423.7,867.7],[428.1,869.2],[432.2,868.0],[434.2,868.7],[437.8,867.0],[440.3,867.6],[442.0,869.6],[443.8,874.3],[445.5,876.2],[448.4,877.5],[450.6,877.4],[455.7,875.7],[456.4,882.7],[453.5,886.6],[450.1,893.2],[448.1,895.4],[449.9,898.8],[449.9,901.4],[457.4,895.1],[460.3,893.8],[462.9,894.3],[467.6,891.3],[469.5,892.6],[476.6,891.6],[478.1,893.5],[483.0,892.3],[488.9,894.1],[493.0,894.7],[498.5,894.1],[497.9,889.3],[496.3,887.8],[493.9,880.9],[488.2,870.3],[488.3,867.3],[486.9,863.9],[487.1,861.7],[491.8,857.9],[495.3,856.2],[495.8,851.9],[492.1,845.3],[489.0,845.8],[483.8,835.3],[482.9,831.1],[480.0,824.7],[482.4,820.5],[481.5,815.7],[482.3,814.5],[485.1,814.5],[488.0,815.8],[490.5,821.1],[495.2,818.5],[496.4,808.9],[494.7,809.2],[491.1,807.8],[484.9,807.3],[479.7,804.6],[475.6,803.5],[467.6,803.4],[459.6,805.7],[456.0,808.3],[447.5,807.9],[443.4,810.0],[441.0,813.5],[438.6,810.6],[436.0,812.3],[430.4,814.3],[428.6,817.5],[420.3,818.1],[413.5,819.9],[411.0,819.9],[409.2,816.3],[403.1,818.5],[405.1,820.0],[403.5,821.0],[403.0,825.0],[399.6,823.2],[395.4,823.5],[392.2,824.5],[391.1,823.5],[393.5,822.1],[392.3,820.8],[390.4,821.6],[388.0,825.3],[387.1,829.6],[385.9,831.0],[382.5,831.8]]]]}},{"type":"Feature","id":"CU.CA","properties":{"name":"Ciego de Ávila","country_code":"cu","country_es":"Cuba","hc_key":"cu-ca"},"geometry":{"type":"MultiPolygon","coordinates":[[[[518.6,716.0],[516.9,714.5],[514.4,715.3],[510.9,718.8],[512.9,719.2],[518.6,716.0]]],[[[500.9,725.9],[500.9,724.5],[505.8,724.7],[507.7,723.7],[508.9,720.9],[506.4,722.1],[499.3,722.8],[497.0,725.1],[499.2,727.9],[500.9,725.9]]],[[[495.2,728.3],[491.5,729.4],[485.4,733.8],[488.5,733.9],[492.0,732.3],[496.3,731.4],[495.2,728.3]]],[[[459.9,756.6],[463.8,752.5],[462.3,751.9],[457.7,753.2],[460.4,753.3],[454.1,757.6],[457.3,758.1],[459.9,756.6]]],[[[517.9,909.6],[517.0,907.8],[514.3,907.1],[514.1,909.6],[517.9,909.6]]],[[[481.8,737.4],[478.2,742.2],[475.7,744.4],[473.5,744.6],[474.3,742.4],[470.7,745.2],[475.0,745.5],[479.5,742.9],[486.0,736.0],[483.9,736.0],[484.6,733.8],[481.8,735.2],[476.3,740.9],[478.1,741.1],[481.8,737.4]]],[[[549.4,902.4],[546.2,900.8],[539.0,900.4],[534.0,902.9],[527.0,904.5],[525.2,905.6],[526.6,906.8],[525.1,908.5],[521.5,906.1],[521.2,909.7],[522.5,909.0],[522.8,911.1],[526.6,911.0],[531.0,910.2],[533.4,908.7],[544.0,908.8],[548.6,912.3],[553.2,911.5],[555.3,910.4],[555.6,908.1],[562.4,901.4],[562.5,899.4],[560.0,900.1],[547.8,897.0],[548.8,899.9],[550.5,899.9],[549.4,902.4]]],[[[498.5,894.1],[508.3,893.1],[512.9,893.5],[515.4,886.2],[517.7,885.6],[520.1,889.9],[517.3,893.5],[520.3,893.2],[523.5,890.0],[534.4,886.4],[538.7,882.4],[542.7,880.0],[551.1,878.4],[552.9,878.7],[553.0,875.8],[554.4,876.6],[556.0,873.6],[561.0,870.0],[564.0,870.1],[568.9,868.4],[574.8,867.7],[575.6,864.5],[579.0,864.4],[579.4,862.9],[583.0,861.8],[584.1,859.4],[583.7,857.0],[580.4,854.9],[574.3,849.6],[567.5,847.8],[566.4,844.7],[567.0,842.9],[574.1,836.8],[576.1,833.4],[573.5,831.7],[573.5,828.2],[569.1,827.3],[566.7,827.8],[564.2,831.1],[563.4,833.4],[560.9,832.5],[558.5,829.5],[559.5,823.7],[556.0,819.4],[557.1,817.7],[549.2,817.1],[546.3,810.3],[544.3,811.8],[539.2,809.4],[537.0,807.3],[531.9,804.0],[528.2,802.3],[524.3,804.7],[519.0,805.4],[517.3,806.6],[517.9,808.1],[520.3,807.2],[523.4,807.8],[521.6,810.6],[517.8,813.1],[515.6,813.4],[509.1,811.2],[504.5,810.7],[502.5,808.5],[496.4,808.9],[495.2,818.5],[490.5,821.1],[488.0,815.8],[485.1,814.5],[482.3,814.5],[481.5,815.7],[482.4,820.5],[480.0,824.7],[482.9,831.1],[483.8,835.3],[489.0,845.8],[492.1,845.3],[495.8,851.9],[495.3,856.2],[491.8,857.9],[487.1,861.7],[486.9,863.9],[488.3,867.3],[488.2,870.3],[493.9,880.9],[496.3,887.8],[497.9,889.3],[498.5,894.1]]]]}},{"type":"Feature","id":"CU.CM","properties":{"name":"Camagüey","country_code":"cu","country_es":"Cuba","hc_key":"cu-cm"},"geometry":{"type":"MultiPolygon","coordinates":[[[[545.9,716.7],[550.1,716.5],[548.9,714.9],[544.2,713.7],[542.6,712.6],[539.2,714.0],[545.9,716.7]]],[[[664.3,747.4],[660.1,748.9],[657.9,745.7],[656.8,746.7],[657.0,749.9],[652.3,750.7],[649.7,755.7],[646.5,753.3],[646.9,751.2],[645.5,747.9],[640.8,747.4],[640.3,745.5],[635.8,744.0],[634.8,740.6],[631.9,741.0],[630.0,743.3],[628.0,742.9],[627.8,736.1],[625.6,734.9],[619.5,733.6],[617.1,733.7],[612.0,726.2],[610.9,717.5],[606.2,718.1],[604.0,717.5],[599.8,714.3],[593.3,714.0],[589.8,714.8],[588.7,717.1],[587.4,715.6],[584.0,719.4],[580.6,720.3],[577.5,724.9],[572.5,728.9],[569.9,728.2],[569.2,730.5],[566.3,735.4],[559.1,740.4],[554.2,740.6],[553.0,741.3],[550.3,745.7],[543.7,750.7],[542.6,761.3],[539.1,770.2],[539.7,773.3],[542.6,772.8],[542.3,775.5],[538.2,777.3],[536.3,786.4],[534.4,789.6],[533.3,794.7],[531.7,798.1],[528.2,802.3],[531.9,804.0],[537.0,807.3],[539.2,809.4],[544.3,811.8],[546.3,810.3],[549.2,817.1],[557.1,817.7],[556.0,819.4],[559.5,823.7],[558.5,829.5],[560.9,832.5],[563.4,833.4],[564.2,831.1],[566.7,827.8],[569.1,827.3],[573.5,828.2],[573.5,831.7],[576.1,833.4],[574.1,836.8],[567.0,842.9],[566.4,844.7],[567.5,847.8],[574.3,849.6],[580.4,854.9],[583.7,857.0],[584.1,859.4],[583.0,861.8],[584.7,862.3],[587.0,858.5],[589.5,856.0],[592.8,850.0],[595.2,848.7],[599.9,844.1],[602.0,840.2],[604.5,840.7],[604.8,848.7],[606.4,850.3],[610.7,849.9],[606.6,848.1],[606.2,845.3],[607.2,842.8],[610.2,840.3],[612.6,840.4],[614.5,838.1],[615.5,833.7],[621.2,831.2],[622.6,832.0],[625.2,830.5],[631.2,831.5],[634.7,830.6],[639.2,827.9],[640.0,830.1],[642.5,830.9],[643.3,829.3],[646.0,830.5],[649.5,827.3],[646.4,827.7],[646.4,823.9],[648.9,817.8],[653.2,817.1],[655.6,815.9],[658.2,817.2],[656.6,820.3],[652.8,822.8],[650.4,829.1],[647.4,830.6],[645.6,833.9],[643.9,833.0],[642.4,834.5],[641.1,833.2],[633.1,840.5],[632.0,842.1],[630.0,841.6],[632.3,845.4],[635.7,846.4],[639.2,843.6],[640.6,839.5],[651.4,832.1],[658.6,829.6],[664.9,824.6],[672.3,819.8],[675.1,818.7],[678.4,819.2],[677.7,817.2],[679.9,814.1],[679.6,812.0],[676.7,807.5],[673.5,810.3],[667.0,813.1],[663.5,813.7],[662.6,812.2],[658.6,814.4],[656.3,814.1],[655.9,811.9],[661.8,809.1],[666.6,808.6],[666.4,805.0],[664.4,803.3],[666.5,798.9],[671.5,799.0],[670.7,797.0],[675.2,799.3],[676.9,801.1],[678.0,806.8],[681.2,812.7],[685.0,812.1],[696.0,799.2],[697.9,797.7],[692.5,793.7],[688.5,792.3],[682.4,792.9],[679.5,784.5],[680.9,781.9],[684.8,782.0],[685.4,781.1],[679.9,775.7],[679.4,773.7],[680.0,766.8],[676.5,760.7],[674.6,758.8],[668.4,756.4],[667.1,754.4],[664.3,747.4]]],[[[550.6,704.0],[555.6,699.1],[557.3,698.3],[558.5,700.3],[560.8,698.4],[561.5,696.3],[560.3,694.4],[554.4,697.4],[553.0,700.3],[547.6,703.2],[550.6,704.0]]],[[[628.4,855.6],[626.3,850.8],[627.8,848.0],[625.1,847.4],[623.1,845.8],[623.5,847.7],[621.8,848.2],[620.5,844.4],[617.4,849.1],[616.1,850.0],[612.6,849.7],[609.0,851.7],[609.9,856.1],[606.4,857.8],[604.2,854.8],[601.0,854.9],[599.5,857.9],[596.4,861.0],[598.0,864.2],[602.3,861.5],[603.9,861.5],[607.1,863.7],[610.1,864.1],[613.8,861.2],[617.3,862.4],[622.8,859.6],[625.8,861.3],[628.4,858.4],[628.4,855.6]]],[[[610.1,877.9],[615.0,872.7],[612.6,872.5],[610.0,875.1],[605.9,881.2],[606.7,882.7],[602.5,886.3],[604.9,886.8],[608.8,882.4],[610.1,877.9]]],[[[604.7,864.0],[603.6,865.1],[601.5,864.3],[599.7,868.6],[597.6,869.3],[595.9,868.4],[596.8,865.7],[591.3,868.9],[590.6,870.4],[587.3,872.6],[586.3,874.3],[589.2,876.3],[590.3,879.8],[590.4,883.7],[588.9,886.7],[591.9,886.0],[593.7,883.6],[591.4,880.1],[592.1,878.4],[596.6,878.1],[598.5,875.3],[600.5,878.2],[604.8,875.8],[600.6,873.8],[604.1,871.7],[608.3,870.3],[604.7,864.0]]],[[[585.6,882.1],[580.7,885.1],[573.6,886.0],[571.1,887.9],[573.2,889.2],[570.2,892.0],[568.6,889.0],[566.4,889.6],[567.6,893.3],[566.0,895.4],[563.7,896.4],[561.5,894.9],[559.4,895.7],[560.8,897.4],[566.2,898.0],[570.8,899.4],[571.6,898.1],[573.6,899.2],[576.1,898.6],[580.5,895.3],[583.1,890.8],[584.0,886.1],[586.2,883.8],[589.6,883.1],[588.0,881.5],[585.6,882.1]]]]}},{"type":"Feature","id":"CU.CH","properties":{"name":"Ciudad de la Habana","country_code":"cu","country_es":"Cuba","hc_key":"cu-ch"},"geometry":{"type":"Polygon","coordinates":[[[151.3,952.9],[150.4,956.5],[145.8,958.5],[144.8,959.7],[147.7,962.6],[146.6,964.9],[143.4,963.9],[141.3,965.4],[144.7,966.8],[146.1,968.6],[148.3,969.1],[154.3,973.2],[158.3,973.7],[162.8,975.7],[169.7,976.7],[172.9,978.0],[179.7,976.3],[184.6,977.2],[184.8,975.1],[186.9,972.0],[185.3,971.2],[185.5,969.2],[183.5,964.4],[180.0,968.5],[177.8,968.9],[175.5,965.8],[174.2,967.4],[173.4,963.8],[174.4,960.3],[169.7,954.4],[166.7,954.2],[159.2,954.9],[156.6,952.2],[153.6,953.8],[151.3,952.9]]]}},{"type":"Feature","id":"CU.CF","properties":{"name":"Cienfuegos","country_code":"cu","country_es":"Cuba","hc_key":"cu-cf"},"geometry":{"type":"Polygon","coordinates":[[[390.1,844.0],[382.8,836.8],[382.5,831.8],[373.8,834.3],[370.9,836.7],[365.7,838.3],[362.6,840.9],[351.7,852.5],[351.0,854.7],[349.0,854.7],[347.6,857.6],[350.7,857.4],[353.0,861.1],[350.1,862.0],[350.2,863.4],[347.0,864.2],[348.3,867.1],[344.2,870.8],[342.3,869.3],[339.4,870.1],[338.9,867.8],[342.8,864.2],[345.6,859.8],[346.2,857.2],[345.6,854.7],[341.3,856.3],[333.4,856.0],[332.1,861.5],[331.0,863.2],[325.7,862.9],[323.2,863.8],[318.7,862.7],[309.7,867.0],[307.4,869.8],[303.2,872.7],[303.2,876.7],[300.3,877.0],[299.9,878.9],[301.6,887.0],[298.8,887.8],[301.4,893.6],[300.1,894.9],[304.0,898.6],[309.2,901.6],[316.0,900.4],[319.1,900.5],[330.3,899.2],[335.0,900.8],[338.3,906.2],[340.6,908.0],[344.7,910.5],[346.5,912.6],[348.4,912.6],[350.7,910.7],[354.5,910.4],[353.7,906.0],[354.9,905.4],[360.6,907.5],[362.0,911.0],[365.5,911.1],[366.5,912.0],[366.9,909.2],[365.2,907.0],[366.8,902.4],[368.7,901.4],[368.5,898.0],[370.2,896.0],[368.1,892.5],[369.1,889.9],[373.9,885.7],[377.7,886.1],[379.3,881.0],[381.4,877.8],[383.9,876.7],[382.0,870.7],[382.4,863.6],[384.7,856.6],[387.4,853.5],[388.0,847.2],[390.2,845.4],[390.1,844.0]]]}},{"type":"Feature","id":"CU.GU","properties":{"name":"Guantánamo","country_code":"cu","country_es":"Cuba","hc_key":"cu-gu"},"geometry":{"type":"Polygon","coordinates":[[[920.7,706.6],[924.8,708.5],[929.1,707.1],[929.5,705.7],[936.2,701.4],[941.6,694.0],[947.8,687.9],[952.4,686.8],[957.5,683.1],[958.4,680.9],[960.5,682.5],[966.8,682.1],[972.0,685.0],[976.5,684.3],[982.1,680.5],[984.2,677.3],[985.1,673.2],[984.3,670.8],[980.1,668.5],[975.6,664.9],[975.2,661.0],[972.1,658.1],[968.3,658.0],[964.0,659.0],[959.3,658.9],[953.0,657.4],[948.7,656.9],[940.5,654.6],[936.6,655.2],[933.5,653.8],[927.1,654.5],[917.0,652.6],[914.5,651.4],[909.7,646.6],[903.7,645.6],[900.8,639.8],[897.6,638.4],[894.0,637.9],[892.1,639.3],[891.9,637.5],[889.0,636.6],[888.7,644.5],[884.5,644.4],[887.9,646.8],[889.6,650.4],[888.7,654.1],[886.6,653.7],[884.4,649.7],[881.0,650.1],[880.7,646.6],[883.4,645.7],[880.3,644.2],[875.3,640.4],[875.1,636.4],[869.9,635.0],[860.0,634.0],[853.6,642.4],[850.7,645.1],[848.8,648.9],[848.5,652.8],[854.1,656.5],[854.1,658.9],[852.5,659.6],[852.1,663.6],[849.5,668.0],[848.8,671.7],[850.4,674.4],[850.2,679.6],[848.6,682.6],[852.7,685.7],[854.6,690.2],[856.5,689.7],[858.7,691.8],[863.2,693.6],[867.8,690.1],[870.0,691.1],[872.4,689.5],[873.5,694.4],[877.3,697.7],[880.5,697.2],[885.8,699.4],[891.7,694.2],[895.0,694.0],[898.8,692.2],[896.5,695.0],[896.1,697.7],[899.6,698.6],[912.3,692.2],[914.4,694.5],[918.4,696.3],[917.4,699.2],[918.4,704.0],[920.7,706.6]]]}},{"type":"Feature","id":"CU.GR","properties":{"name":"Granma","country_code":"cu","country_es":"Cuba","hc_key":"cu-gr"},"geometry":{"type":"Polygon","coordinates":[[[693.0,629.8],[685.0,629.8],[677.3,632.1],[676.0,631.0],[673.5,631.9],[671.8,630.3],[666.3,631.2],[663.7,630.5],[662.2,628.6],[664.9,628.6],[660.3,626.6],[649.1,625.8],[642.7,624.1],[634.8,623.9],[628.6,622.1],[623.9,622.8],[622.1,624.9],[622.2,626.8],[624.1,631.4],[626.1,631.8],[628.9,634.4],[628.6,635.6],[630.9,638.2],[633.6,642.7],[638.3,647.1],[636.7,649.4],[640.4,649.2],[643.3,650.8],[645.8,654.6],[651.8,658.2],[655.2,662.1],[665.3,667.1],[668.7,668.3],[670.2,672.2],[672.9,673.5],[673.0,671.6],[677.1,672.9],[679.0,677.6],[683.8,680.9],[684.0,686.1],[685.4,687.6],[686.7,691.4],[683.5,696.3],[679.7,698.9],[675.1,700.4],[675.2,698.4],[670.6,701.4],[670.5,704.5],[672.9,705.7],[674.9,709.4],[669.2,712.0],[668.6,710.0],[662.7,716.8],[660.5,717.6],[663.1,719.1],[665.9,724.8],[666.9,723.2],[670.8,725.0],[673.9,723.2],[683.7,723.1],[690.4,720.7],[697.1,722.4],[701.4,721.8],[710.7,721.7],[713.2,720.6],[715.1,716.6],[722.2,719.7],[724.5,717.9],[726.5,718.8],[728.1,717.1],[731.8,715.7],[737.6,717.4],[738.3,711.6],[744.5,709.7],[751.0,706.3],[758.4,704.1],[757.9,701.8],[770.0,698.7],[775.0,694.7],[777.6,690.8],[775.1,687.2],[772.6,686.4],[771.5,691.3],[768.5,692.9],[768.7,688.5],[766.4,683.3],[760.1,683.4],[758.8,681.6],[756.9,673.0],[757.1,671.1],[754.1,668.1],[755.0,663.7],[755.6,654.7],[751.8,649.8],[746.0,647.1],[740.8,647.6],[740.3,643.4],[736.1,644.4],[735.2,643.1],[729.6,642.7],[725.9,644.0],[724.4,645.5],[720.1,643.7],[716.2,646.4],[713.0,643.6],[710.4,642.8],[703.2,642.2],[699.5,636.9],[692.4,635.5],[691.6,634.6],[693.0,629.8]]]}},{"type":"Feature","id":"CU.LT","properties":{"name":"Las Tunas","country_code":"cu","country_es":"Cuba","hc_key":"cu-lt"},"geometry":{"type":"Polygon","coordinates":[[[722.2,719.7],[715.1,716.6],[713.2,720.6],[710.7,721.7],[701.4,721.8],[697.1,722.4],[690.4,720.7],[683.7,723.1],[673.9,723.2],[670.8,725.0],[666.9,723.2],[665.9,724.8],[663.1,719.1],[660.5,717.6],[657.0,717.5],[644.9,713.1],[642.0,713.3],[636.9,715.1],[632.1,712.8],[629.2,714.3],[626.2,714.1],[622.8,715.1],[616.2,715.0],[610.9,717.5],[612.0,726.2],[617.1,733.7],[619.5,733.6],[625.6,734.9],[627.8,736.1],[628.0,742.9],[630.0,743.3],[631.9,741.0],[634.8,740.6],[635.8,744.0],[640.3,745.5],[640.8,747.4],[645.5,747.9],[646.9,751.2],[646.5,753.3],[649.7,755.7],[652.3,750.7],[657.0,749.9],[656.8,746.7],[657.9,745.7],[660.1,748.9],[663.5,747.0],[664.3,747.4],[667.1,754.4],[668.4,756.4],[674.6,758.8],[676.5,760.7],[680.0,766.8],[679.4,773.7],[679.9,775.7],[685.4,781.1],[684.8,782.0],[680.9,781.9],[679.5,784.5],[682.4,792.9],[688.5,792.3],[692.5,793.7],[697.9,797.7],[703.0,795.0],[708.6,794.0],[709.3,791.5],[711.3,791.6],[710.0,788.2],[705.3,787.5],[702.9,785.9],[702.6,784.3],[704.0,781.7],[709.1,784.6],[709.8,782.6],[712.0,790.8],[718.2,788.8],[727.0,786.9],[729.1,783.9],[721.2,780.1],[721.5,781.7],[719.6,782.7],[719.4,779.8],[724.4,778.3],[727.6,776.5],[731.6,776.0],[728.7,777.8],[727.5,781.0],[731.1,781.9],[733.5,781.2],[737.7,778.3],[737.0,774.9],[731.7,774.5],[733.8,773.8],[733.3,771.7],[736.5,772.4],[739.4,769.6],[741.6,771.9],[743.4,771.9],[747.4,774.2],[741.3,775.5],[739.7,778.6],[742.1,780.7],[754.1,780.7],[761.6,777.4],[761.4,771.3],[759.3,768.0],[759.0,764.0],[749.8,758.3],[743.4,752.6],[742.0,747.9],[737.7,747.3],[732.5,744.9],[729.5,744.4],[726.3,746.3],[725.1,742.6],[725.4,735.1],[725.0,732.6],[723.2,730.1],[722.2,725.5],[724.1,723.0],[724.2,720.8],[722.2,719.7]]]}},{"type":"Feature","id":"CU.SC","properties":{"name":"Santiago de Cuba","country_code":"cu","country_es":"Cuba","hc_key":"cu-sc"},"geometry":{"type":"Polygon","coordinates":[[[858.7,691.8],[856.5,689.7],[854.6,690.2],[852.7,685.7],[848.6,682.6],[850.2,679.6],[850.4,674.4],[848.8,671.7],[849.5,668.0],[852.1,663.6],[852.5,659.6],[854.1,658.9],[854.1,656.5],[848.5,652.8],[848.8,648.9],[850.7,645.1],[853.6,642.4],[860.0,634.0],[853.7,635.3],[852.0,633.8],[846.0,633.2],[840.8,634.9],[837.5,634.3],[825.4,640.9],[816.0,640.6],[808.0,641.9],[804.1,641.4],[799.3,639.6],[785.9,642.4],[776.7,643.2],[772.1,642.9],[764.1,640.5],[760.3,639.8],[752.9,639.6],[744.4,637.1],[731.5,637.5],[718.4,636.1],[716.4,635.0],[709.8,635.6],[705.1,632.1],[700.6,630.4],[693.0,629.8],[691.6,634.6],[692.4,635.5],[699.5,636.9],[703.2,642.2],[710.4,642.8],[713.0,643.6],[716.2,646.4],[720.1,643.7],[724.4,645.5],[725.9,644.0],[729.6,642.7],[735.2,643.1],[736.1,644.4],[740.3,643.4],[740.8,647.6],[746.0,647.1],[751.8,649.8],[755.6,654.7],[755.0,663.7],[754.1,668.1],[757.1,671.1],[756.9,673.0],[758.8,681.6],[760.1,683.4],[766.4,683.3],[768.7,688.5],[768.5,692.9],[771.5,691.3],[772.6,686.4],[775.1,687.2],[777.6,690.8],[785.0,690.3],[784.6,687.1],[786.7,689.3],[787.4,694.0],[786.0,697.7],[791.1,701.1],[790.1,704.9],[792.0,705.2],[796.9,701.8],[798.6,698.4],[802.5,698.0],[801.6,695.8],[805.8,692.8],[807.5,692.4],[808.6,689.7],[813.5,688.7],[820.7,692.3],[830.1,692.9],[834.4,696.0],[834.9,700.5],[837.6,699.3],[842.6,703.9],[845.5,705.1],[849.1,703.3],[856.5,705.1],[856.6,701.4],[853.6,697.8],[858.7,691.8]]]}},{"type":"Feature","id":"CU.MQ","properties":{"name":"Mayabeque","country_code":"cu","country_es":"Cuba","hc_key":"cu-mq"},"geometry":{"type":"Polygon","coordinates":[[[228.6,911.6],[226.5,911.9],[218.5,918.4],[206.2,922.9],[194.9,922.1],[184.3,920.4],[181.2,921.8],[174.5,923.8],[166.9,923.8],[160.6,923.1],[155.4,924.2],[155.5,927.8],[152.9,929.4],[149.0,936.4],[149.0,940.3],[151.1,946.4],[151.3,952.9],[153.6,953.8],[156.6,952.2],[159.2,954.9],[166.7,954.2],[169.7,954.4],[174.4,960.3],[173.4,963.8],[174.2,967.4],[175.5,965.8],[177.8,968.9],[180.0,968.5],[183.5,964.4],[185.5,969.2],[185.3,971.2],[186.9,972.0],[184.8,975.1],[184.6,977.2],[191.2,978.5],[195.9,975.4],[198.8,974.5],[208.0,973.1],[210.2,973.8],[225.6,973.7],[224.5,971.5],[225.9,963.8],[223.5,964.1],[222.7,962.2],[224.0,960.7],[219.9,957.1],[219.3,955.6],[223.1,953.3],[225.8,949.6],[225.6,945.0],[224.3,941.0],[225.9,938.1],[228.7,935.8],[228.0,931.8],[228.6,929.2],[233.9,925.5],[234.1,923.9],[232.8,917.0],[228.6,911.6]]]}},{"type":"Feature","id":"CU.PR","properties":{"name":"Pinar del Río","country_code":"cu","country_es":"Cuba","hc_key":"cu-pr"},"geometry":{"type":"Polygon","coordinates":[[[112.4,916.4],[110.0,915.6],[102.8,909.9],[99.0,909.2],[92.4,905.9],[89.1,903.8],[86.3,901.0],[80.5,890.2],[78.1,887.9],[74.9,887.6],[71.7,888.6],[68.9,888.4],[68.7,886.2],[66.3,886.3],[66.1,884.1],[62.5,881.8],[60.7,879.6],[59.9,876.8],[57.2,874.1],[55.0,875.5],[53.2,871.9],[48.3,871.6],[43.1,872.3],[38.8,874.2],[39.6,875.1],[38.1,878.7],[33.5,873.3],[27.8,870.8],[28.5,872.3],[17.4,870.9],[16.3,873.2],[12.5,871.1],[4.7,871.7],[2.5,871.3],[-1.6,867.4],[-3.5,860.6],[-5.3,859.3],[-3.5,855.6],[-1.1,856.8],[-1.7,854.5],[-5.2,852.0],[-6.0,849.9],[-4.6,847.9],[-7.2,845.2],[-9.6,844.4],[-15.1,847.0],[-19.5,847.0],[-25.3,844.0],[-29.3,844.1],[-35.9,841.4],[-47.8,831.8],[-52.2,829.6],[-56.4,829.3],[-57.6,831.5],[-53.5,839.8],[-52.6,843.9],[-54.8,847.1],[-58.7,847.9],[-63.2,847.3],[-71.1,845.2],[-75.0,843.4],[-85.3,837.0],[-89.3,836.1],[-93.6,836.3],[-97.8,837.7],[-99.9,840.4],[-99.7,843.9],[-98.2,846.1],[-96.2,844.4],[-92.9,843.4],[-90.0,845.2],[-91.5,847.8],[-88.2,848.6],[-87.4,845.4],[-79.1,849.6],[-71.8,851.6],[-63.3,855.2],[-57.0,859.4],[-54.5,859.2],[-54.3,857.9],[-51.2,856.5],[-43.7,859.1],[-39.2,856.1],[-38.2,854.3],[-35.4,856.2],[-33.9,855.9],[-32.4,861.8],[-35.8,857.7],[-37.2,858.9],[-37.9,863.8],[-39.8,864.8],[-38.3,867.8],[-42.2,868.8],[-45.2,870.8],[-47.5,875.6],[-49.1,875.9],[-46.0,880.4],[-44.8,886.9],[-43.3,891.6],[-41.5,894.5],[-40.0,894.9],[-38.4,897.7],[-32.9,904.2],[-33.1,905.6],[-28.9,906.3],[-27.0,907.3],[-24.5,911.3],[-24.0,913.6],[-25.1,915.8],[-23.1,914.9],[-21.6,916.0],[-18.4,914.2],[-17.4,918.1],[-15.9,919.6],[-12.8,920.2],[-11.6,924.4],[-9.0,922.9],[-5.9,925.6],[-7.6,927.6],[-10.6,927.8],[-7.5,930.0],[-5.9,929.4],[-3.5,926.2],[-1.0,927.0],[5.1,931.2],[6.4,929.8],[8.9,933.0],[14.9,933.5],[21.8,936.8],[26.9,938.1],[29.2,937.3],[33.1,938.7],[31.0,939.5],[35.3,941.4],[40.2,941.5],[42.0,945.5],[46.7,945.8],[47.9,944.0],[50.8,947.9],[52.3,948.5],[56.6,945.6],[59.0,947.4],[61.1,951.4],[63.0,953.4],[66.1,954.7],[71.3,957.8],[75.2,958.7],[78.0,956.9],[76.7,954.3],[78.8,950.9],[81.4,953.3],[79.8,956.2],[83.4,958.3],[87.6,959.1],[89.6,960.3],[93.6,959.0],[95.5,960.2],[97.0,958.6],[95.3,956.4],[97.7,957.5],[97.4,955.4],[101.1,956.5],[101.0,949.4],[103.5,944.6],[103.7,941.0],[101.9,938.9],[97.5,937.5],[99.9,935.6],[102.7,931.2],[104.5,929.9],[108.1,922.3],[111.4,918.6],[112.4,916.4]]]}}]}