{"type":"FeatureCollection","features":[{"type":"Feature","id":"DO.PN","properties":{"name":"Pedernales","country_code":"do","country_es":"República Dominicana","hc_key":"do-pn"},"geometry":{"type":"MultiPolygon","coordinates":[[[[429,2483],[378,2466],[329,2495],[329,2561],[391,2700],[475,2645],[550,2571],[504,2558],[429,2483]]],[[[1113,3409],[1081,3326],[1027,3296],[1007,3235],[959,3161],[855,2871],[824,2815],[699,2645],[614,2722],[415,3061],[366,3115],[266,3155],[29,3126],[-72,3153],[53,3271],[74,3310],[59,3424],[-17,3562],[-25,3617],[-3,3734],[-24,3788],[-75,3849],[-182,3940],[-347,4005],[-298,4152],[-307,4328],[-338,4417],[-333,4507],[-308,4565],[-174,4788],[75,4644],[326,4517],[433,4488],[535,4445],[706,4290],[797,4236],[801,4053],[778,3965],[717,3942],[696,3915],[758,3756],[902,3634],[977,3651],[1066,3646],[1112,3537],[1113,3409]]]]}},{"type":"Feature","id":"DO.AL","properties":{"name":"La Altagracia","country_code":"do","country_es":"República Dominicana","hc_key":"do-al"},"geometry":{"type":"MultiPolygon","coordinates":[[[[8726,4365],[8864,4347],[9017,4351],[9057,4337],[9120,4237],[9137,4157],[8997,4210],[8894,4214],[8753,4177],[8649,4205],[8574,4271],[8527,4354],[8501,4431],[8545,4444],[8597,4434],[8726,4365]]],[[[8448,6782],[8503,6853],[8554,6821],[8637,6806],[8980,6489],[9106,6337],[9284,6202],[9411,6114],[9467,6086],[9600,5958],[9769,5856],[9851,5733],[9835,5611],[9559,5189],[9512,5122],[9517,5015],[9479,4931],[9430,4906],[9299,4899],[9245,4917],[9127,4993],[9085,5006],[9036,4973],[9060,4864],[8976,4700],[8931,4519],[8881,4475],[8631,4455],[8580,4473],[8573,4586],[8501,4736],[8402,4882],[8315,4982],[8222,5045],[8163,5071],[8268,5337],[8308,5426],[8304,5523],[8242,5600],[8168,5667],[8111,5770],[8062,5881],[8039,5945],[8051,6012],[8117,6051],[8195,6064],[8346,6184],[8407,6359],[8327,6511],[8364,6717],[8448,6782]]]]}},{"type":"Feature","id":"DO.PV","properties":{"name":"Peravia","country_code":"do","country_es":"República Dominicana","hc_key":"do-pv"},"geometry":{"type":"Polygon","coordinates":[[[4382,4557],[4262,4547],[4226,4527],[4174,4559],[4118,4571],[3740,4573],[3676,4553],[3554,4485],[3485,4471],[3280,4473],[3232,4492],[3229,4519],[3292,4576],[3284,4610],[3203,4683],[3368,4713],[3476,4833],[3469,4921],[3493,5004],[3522,5061],[3503,5118],[3584,5235],[3729,5276],[3803,5327],[3867,5395],[4009,5332],[4125,5218],[4219,5174],[4212,5099],[4136,5056],[4120,4976],[4233,4836],[4276,4758],[4352,4687],[4382,4557]]]}},{"type":"Feature","id":"DO.JO","properties":{"name":"San José de Ocoa","country_code":"do","country_es":"República Dominicana","hc_key":"do-jo"},"geometry":{"type":"Polygon","coordinates":[[[3867,5395],[3803,5327],[3729,5276],[3584,5235],[3503,5118],[3379,5353],[3284,5402],[3186,5467],[3118,5492],[3067,5542],[3045,5588],[3002,5615],[2942,5772],[2858,5939],[3122,5939],[3231,6045],[3308,6142],[3352,6279],[3475,6206],[3593,6118],[3667,6125],[3738,6150],[3816,6118],[3891,6065],[3835,5939],[3824,5806],[3836,5696],[3803,5587],[3823,5487],[3867,5395]]]}},{"type":"Feature","id":"DO.HM","properties":{"name":"Hato Mayor","country_code":"do","country_es":"República Dominicana","hc_key":"do-hm"},"geometry":{"type":"Polygon","coordinates":[[[6045,7234],[6081,7207],[6244,7232],[6300,7211],[6370,7233],[6508,7179],[6581,7187],[6539,7217],[6479,7232],[6479,7253],[6636,7261],[6681,7252],[6734,7214],[6774,7119],[6823,7081],[6975,7055],[7248,6981],[7232,6799],[7313,6653],[7070,6710],[6904,6681],[7009,6466],[7178,6291],[7223,6166],[7210,6034],[7159,5917],[7123,5803],[7022,5733],[6974,5617],[6827,5438],[6741,5642],[6607,5847],[6570,6101],[6518,6199],[6518,6306],[6571,6378],[6632,6442],[6749,6518],[6695,6572],[6588,6587],[6444,6666],[6129,6825],[5994,6946],[6034,7034],[6051,7129],[6045,7234]]]}},{"type":"Feature","id":"DO.MP","properties":{"name":"Monte Plata","country_code":"do","country_es":"República Dominicana","hc_key":"do-mp"},"geometry":{"type":"Polygon","coordinates":[[[5994,6946],[6129,6825],[6444,6666],[6588,6587],[6695,6572],[6749,6518],[6632,6442],[6571,6378],[6518,6306],[6343,6124],[6174,5830],[6069,5870],[5969,5849],[5913,5813],[5849,5800],[5677,5737],[5540,5596],[5517,5683],[5455,5744],[5439,5805],[5332,5935],[5252,5998],[5116,6005],[5044,5992],[5022,5936],[4896,5879],[4757,5907],[4567,5969],[4513,6066],[4431,6096],[4284,6193],[4185,6315],[4205,6412],[4266,6478],[4544,6539],[4601,6589],[4679,6607],[4793,6586],[4829,6640],[4888,6629],[4983,6581],[5066,6644],[5118,6845],[5163,7044],[5242,7041],[5287,7099],[5298,7181],[5455,7199],[5648,7191],[5816,7063],[5909,7010],[5994,6946]]]}},{"type":"Feature","id":"DO.DU","properties":{"name":"Duarte","country_code":"do","country_es":"República Dominicana","hc_key":"do-du"},"geometry":{"type":"Polygon","coordinates":[[[5648,7191],[5455,7199],[5298,7181],[5287,7099],[5242,7041],[5163,7044],[5191,7129],[5201,7211],[5139,7252],[5066,7275],[4880,7283],[4811,7305],[4669,7372],[4457,7394],[4327,7393],[4266,7382],[4148,7410],[4103,7382],[3957,7480],[3863,7627],[3867,7758],[3909,7891],[3934,8036],[3993,8166],[4116,8225],[4201,8295],[4243,8473],[4275,8473],[4306,8467],[4509,8335],[4542,8236],[4550,8130],[4586,8000],[4687,7925],[4777,7913],[4816,7840],[4958,7719],[5160,7667],[5357,7573],[5560,7533],[5704,7601],[5882,7558],[5882,7474],[5757,7392],[5717,7343],[5706,7246],[5648,7191]]]}},{"type":"Feature","id":"DO.MT","properties":{"name":"María Trinidad Sánchez","country_code":"do","country_es":"República Dominicana","hc_key":"do-mt"},"geometry":{"type":"Polygon","coordinates":[[[5560,7533],[5357,7573],[5160,7667],[4958,7719],[4816,7840],[4777,7913],[4687,7925],[4586,8000],[4550,8130],[4542,8236],[4509,8335],[4306,8467],[4333,8634],[4464,8633],[4610,8716],[4666,8877],[4664,8895],[4761,8998],[4817,9023],[5095,9022],[5139,8996],[5239,8890],[5270,8818],[5268,8739],[5219,8569],[5277,8544],[5299,8489],[5298,8348],[5323,8237],[5517,7944],[5605,7858],[5587,7760],[5541,7606],[5560,7533]]]}},{"type":"Feature","id":"DO.SM","properties":{"name":"Samaná","country_code":"do","country_es":"República Dominicana","hc_key":"do-sm"},"geometry":{"type":"Polygon","coordinates":[[[5994,6946],[5909,7010],[5816,7063],[5648,7191],[5706,7246],[5717,7343],[5757,7392],[5882,7474],[5882,7558],[5704,7601],[5560,7533],[5541,7606],[5587,7760],[5605,7858],[5716,7806],[5776,7816],[5890,7859],[6081,7874],[6200,7910],[6287,7968],[6351,7968],[6451,7931],[6523,7948],[6586,7947],[6612,7904],[6665,7930],[6835,7860],[6885,7824],[6918,7891],[6973,7940],[7106,8014],[7192,8040],[7212,8004],[7189,7930],[7146,7843],[7204,7821],[7271,7821],[7388,7865],[7406,7797],[7315,7696],[7275,7587],[7241,7536],[7190,7499],[7125,7484],[6895,7526],[6642,7508],[6582,7525],[6474,7579],[6099,7627],[6057,7615],[6041,7574],[6030,7427],[6008,7301],[6017,7254],[6045,7234],[6051,7129],[6034,7034],[5994,6946]]]}},{"type":"Feature","id":"DO.CR","properties":{"name":"San Cristóbal","country_code":"do","country_es":"República Dominicana","hc_key":"do-cr"},"geometry":{"type":"Polygon","coordinates":[[[4906,5121],[4803,5045],[4752,4967],[4717,4849],[4648,4814],[4621,4757],[4520,4665],[4407,4549],[4382,4557],[4352,4687],[4276,4758],[4233,4836],[4120,4976],[4136,5056],[4212,5099],[4219,5174],[4125,5218],[4009,5332],[3867,5395],[3823,5487],[3803,5587],[3836,5696],[3824,5806],[3835,5939],[3891,6065],[4000,6062],[4041,6179],[4083,6267],[4185,6315],[4284,6193],[4431,6096],[4432,5958],[4511,5829],[4470,5684],[4501,5575],[4555,5476],[4627,5421],[4682,5354],[4689,5301],[4723,5265],[4856,5263],[4893,5208],[4906,5121]]]}},{"type":"Feature","id":"DO.NC","properties":{"name":"Distrito Nacional","country_code":"do","country_es":"República Dominicana","hc_key":"do-nc"},"geometry":{"type":"Polygon","coordinates":[[[5275,5286],[5215,5271],[5122,5227],[5045,5176],[4975,5149],[4992,5261],[4927,5358],[4935,5446],[5015,5490],[5086,5381],[5142,5376],[5198,5391],[5280,5378],[5275,5286]]]}},{"type":"Feature","id":"DO.SE","properties":{"name":"El Seibo","country_code":"do","country_es":"República Dominicana","hc_key":"do-se"},"geometry":{"type":"Polygon","coordinates":[[[7123,5803],[7159,5917],[7210,6034],[7223,6166],[7178,6291],[7009,6466],[6904,6681],[7070,6710],[7313,6653],[7232,6799],[7248,6981],[7361,6950],[7408,6953],[7463,6984],[7408,7029],[7408,7059],[7460,7074],[7506,7032],[7568,6932],[7691,6879],[7711,6846],[7851,6932],[7829,6957],[7891,6972],[7932,7017],[8049,7012],[8110,7000],[8215,6953],[8235,6911],[8406,6869],[8503,6853],[8448,6782],[8364,6717],[8327,6511],[8407,6359],[8346,6184],[8195,6064],[8117,6051],[8051,6012],[8039,5945],[8062,5881],[7933,5831],[7859,5688],[7745,5545],[7597,5453],[7634,5605],[7548,5614],[7455,5601],[7371,5663],[7300,5741],[7202,5750],[7123,5803]]]}},{"type":"Feature","id":"DO.RO","properties":{"name":"La Romana","country_code":"do","country_es":"República Dominicana","hc_key":"do-ro"},"geometry":{"type":"Polygon","coordinates":[[[8163,5071],[8100,5097],[7976,5115],[7834,5056],[7621,5047],[7603,5133],[7567,5222],[7511,5293],[7597,5453],[7745,5545],[7859,5688],[7933,5831],[8062,5881],[8111,5770],[8168,5667],[8242,5600],[8304,5523],[8308,5426],[8268,5337],[8163,5071]]]}},{"type":"Feature","id":"DO.ST","properties":{"name":"Santiago","country_code":"do","country_es":"República Dominicana","hc_key":"do-st"},"geometry":{"type":"Polygon","coordinates":[[[1312,7484],[1329,7581],[1326,7675],[1278,7721],[1268,7787],[1289,7976],[1331,8031],[1421,8117],[1467,8146],[1578,8142],[1685,8191],[1798,8228],[1734,8286],[1741,8348],[1781,8400],[1947,8317],[2032,8312],[2087,8384],[2208,8331],[2337,8330],[2349,8385],[2283,8436],[2304,8525],[2308,8610],[2222,8658],[2199,8714],[2195,8776],[2267,8724],[2342,8733],[2386,8827],[2406,8930],[2578,8884],[2708,8768],[2840,8773],[2852,8955],[3008,8884],[3067,8736],[3152,8596],[3330,8538],[3317,8475],[3233,8361],[3215,8283],[3221,8145],[3132,8078],[2976,8030],[2828,7953],[2755,7934],[2734,7871],[2804,7816],[2894,7790],[2939,7709],[2917,7604],[2925,7514],[2848,7530],[2784,7527],[2748,7444],[2593,7329],[2225,7161],[2246,7095],[2232,7026],[2080,7076],[2008,7061],[1940,7028],[1808,7071],[1678,7157],[1622,7208],[1614,7285],[1590,7331],[1422,7417],[1312,7484]]]}},{"type":"Feature","id":"DO.SR","properties":{"name":"Santiago Rodríguez","country_code":"do","country_es":"República Dominicana","hc_key":"do-sr"},"geometry":{"type":"Polygon","coordinates":[[[1781,8400],[1741,8348],[1734,8286],[1798,8228],[1685,8191],[1578,8142],[1467,8146],[1421,8117],[1331,8031],[1289,7976],[1268,7787],[1278,7721],[1326,7675],[1329,7581],[1312,7484],[1155,7487],[1029,7552],[770,7690],[681,7812],[560,7892],[511,7947],[483,8015],[628,8076],[666,8273],[690,8337],[684,8407],[722,8538],[792,8650],[832,8699],[882,8660],[970,8626],[1066,8633],[1123,8661],[1186,8668],[1277,8614],[1369,8604],[1413,8634],[1463,8616],[1565,8441],[1781,8400]]]}},{"type":"Feature","id":"DO.VA","properties":{"name":"Valverde","country_code":"do","country_es":"República Dominicana","hc_key":"do-va"},"geometry":{"type":"Polygon","coordinates":[[[2406,8930],[2386,8827],[2342,8733],[2267,8724],[2195,8776],[2199,8714],[2222,8658],[2308,8610],[2304,8525],[2283,8436],[2349,8385],[2337,8330],[2208,8331],[2087,8384],[2032,8312],[1947,8317],[1781,8400],[1565,8441],[1463,8616],[1498,8722],[1482,8835],[1501,8901],[1572,8892],[1559,9098],[1619,9280],[1719,9243],[1813,9196],[1878,9146],[2075,9085],[2173,9005],[2283,8948],[2406,8930]]]}},{"type":"Feature","id":"DO.JU","properties":{"name":"San Juan","country_code":"do","country_es":"República Dominicana","hc_key":"do-ju"},"geometry":{"type":"Polygon","coordinates":[[[1312,7484],[1422,7417],[1590,7331],[1614,7285],[1622,7208],[1678,7157],[1808,7071],[1940,7028],[2008,7061],[2080,7076],[2232,7026],[2280,6976],[2305,6909],[2279,6843],[2217,6814],[2205,6754],[2090,6665],[2054,6588],[2032,6435],[2029,6275],[2005,6223],[1965,6185],[1922,6203],[1898,6257],[1801,6228],[1819,6111],[1783,6030],[1809,5956],[1704,5913],[1625,5799],[1495,5766],[1389,5827],[1248,5787],[1167,5774],[1086,5784],[1017,5762],[953,5722],[809,5735],[678,5804],[532,5835],[394,5888],[437,5986],[405,6074],[325,6094],[271,6153],[273,6229],[252,6301],[127,6398],[165,6548],[115,6614],[142,6780],[217,6934],[283,6992],[367,6999],[458,7024],[506,7122],[542,7253],[603,7364],[703,7346],[794,7289],[906,7294],[1000,7363],[1007,7459],[1029,7552],[1155,7487],[1312,7484]]]}},{"type":"Feature","id":"DO.SD","properties":{"name":"Santo Domingo","country_code":"do","country_es":"República Dominicana","hc_key":"do-sd"},"geometry":{"type":"Polygon","coordinates":[[[6311,5093],[6159,5200],[6093,5235],[6050,5240],[6031,5211],[6038,5141],[6003,5104],[5907,5123],[5858,5208],[5812,5238],[5357,5289],[5275,5286],[5280,5378],[5198,5391],[5142,5376],[5086,5381],[5015,5490],[4935,5446],[4927,5358],[4992,5261],[4975,5149],[4937,5137],[4906,5121],[4893,5208],[4856,5263],[4723,5265],[4689,5301],[4682,5354],[4627,5421],[4555,5476],[4501,5575],[4470,5684],[4511,5829],[4432,5958],[4431,6096],[4513,6066],[4567,5969],[4757,5907],[4896,5879],[5022,5936],[5044,5992],[5116,6005],[5252,5998],[5332,5935],[5439,5805],[5455,5744],[5517,5683],[5540,5596],[5677,5737],[5849,5800],[5913,5813],[5969,5849],[6069,5870],[6174,5830],[6120,5742],[6153,5748],[6166,5670],[6160,5593],[6099,5514],[6051,5433],[6168,5309],[6341,5273],[6311,5093]]]}},{"type":"Feature","id":"DO.PM","properties":{"name":"San Pedro de Macorís","country_code":"do","country_es":"República Dominicana","hc_key":"do-pm"},"geometry":{"type":"Polygon","coordinates":[[[7621,5047],[7563,5057],[7433,5100],[7324,5127],[7238,5199],[7173,5216],[7058,5185],[7000,5181],[6941,5216],[6879,5159],[6495,5131],[6380,5089],[6311,5093],[6341,5273],[6168,5309],[6051,5433],[6099,5514],[6160,5593],[6166,5670],[6153,5748],[6120,5742],[6174,5830],[6343,6124],[6518,6306],[6518,6199],[6570,6101],[6607,5847],[6741,5642],[6827,5438],[6974,5617],[7022,5733],[7123,5803],[7202,5750],[7300,5741],[7371,5663],[7455,5601],[7548,5614],[7634,5605],[7597,5453],[7511,5293],[7567,5222],[7603,5133],[7621,5047]]]}},{"type":"Feature","id":"DO.MC","properties":{"name":"Monte Cristi","country_code":"do","country_es":"República Dominicana","hc_key":"do-mc"},"geometry":{"type":"Polygon","coordinates":[[[1619,9280],[1559,9098],[1572,8892],[1501,8901],[1482,8835],[1498,8722],[1463,8616],[1413,8634],[1369,8604],[1277,8614],[1186,8668],[1123,8661],[1066,8633],[970,8626],[882,8660],[832,8699],[792,8650],[672,8708],[561,8784],[518,8865],[445,8887],[136,8854],[-147,8979],[-180,8988],[-176,9037],[-210,9178],[-102,9137],[-112,9198],[-163,9318],[-159,9372],[-237,9377],[-247,9411],[-167,9509],[-86,9527],[-35,9582],[52,9613],[86,9643],[64,9717],[118,9750],[197,9726],[239,9768],[540,9786],[616,9774],[691,9746],[969,9597],[1051,9579],[1129,9608],[1230,9545],[1365,9540],[1384,9435],[1441,9344],[1619,9280]]]}},{"type":"Feature","id":"DO.PP","properties":{"name":"Puerto Plata","country_code":"do","country_es":"República Dominicana","hc_key":"do-pp"},"geometry":{"type":"Polygon","coordinates":[[[3330,8538],[3152,8596],[3067,8736],[3008,8884],[2852,8955],[2840,8773],[2708,8768],[2578,8884],[2406,8930],[2283,8948],[2173,9005],[2075,9085],[1878,9146],[1813,9196],[1719,9243],[1619,9280],[1441,9344],[1384,9435],[1365,9540],[1394,9547],[1420,9635],[1454,9647],[1479,9618],[1510,9536],[1571,9603],[1532,9644],[1577,9625],[1703,9642],[1733,9664],[1788,9765],[1965,9845],[2016,9851],[2108,9811],[2132,9772],[2116,9723],[2194,9699],[2173,9765],[2314,9740],[2443,9763],[2512,9737],[2639,9581],[2634,9523],[2744,9521],[2786,9500],[2897,9405],[3002,9350],[3115,9309],[3245,9289],[3422,9286],[3488,9339],[3558,9368],[3672,9331],[3849,9141],[3817,9054],[3773,8971],[3566,8937],[3491,8947],[3445,8906],[3422,8845],[3397,8681],[3330,8538]]]}},{"type":"Feature","id":"DO.DA","properties":{"name":"Dajabón","country_code":"do","country_es":"República Dominicana","hc_key":"do-da"},"geometry":{"type":"Polygon","coordinates":[[[792,8650],[722,8538],[684,8407],[690,8337],[666,8273],[628,8076],[483,8015],[511,7947],[560,7892],[509,7841],[449,7805],[307,7850],[271,7808],[248,7751],[126,7695],[76,7649],[-113,7744],[-221,7857],[-272,7932],[-286,7994],[-158,8078],[-119,8172],[-68,8260],[-64,8398],[-95,8641],[-174,8836],[-186,8907],[-180,8988],[-147,8979],[136,8854],[445,8887],[518,8865],[561,8784],[672,8708],[792,8650]]]}},{"type":"Feature","id":"DO.ES","properties":{"name":"Espaillat","country_code":"do","country_es":"República Dominicana","hc_key":"do-es"},"geometry":{"type":"Polygon","coordinates":[[[3132,8078],[3221,8145],[3215,8283],[3233,8361],[3317,8475],[3330,8538],[3397,8681],[3422,8845],[3445,8906],[3491,8947],[3566,8937],[3773,8971],[3817,9054],[3849,9141],[3955,9027],[4057,8964],[4117,8946],[4250,8931],[4357,8891],[4554,8851],[4627,8862],[4664,8895],[4666,8877],[4610,8716],[4464,8633],[4333,8634],[4306,8467],[4275,8473],[4243,8473],[4177,8582],[4092,8657],[4004,8608],[3943,8520],[3874,8474],[3840,8557],[3738,8601],[3639,8481],[3639,8274],[3626,8100],[3561,7920],[3478,7904],[3421,8053],[3294,8016],[3201,8025],[3132,8078]]]}},{"type":"Feature","id":"DO.1857","properties":{"name":"Hermanas Mirabal","country_code":"do","country_es":"República Dominicana","hc_key":"do-1857"},"geometry":{"type":"Polygon","coordinates":[[[3561,7920],[3626,8100],[3639,8274],[3639,8481],[3738,8601],[3840,8557],[3874,8474],[3943,8520],[4004,8608],[4092,8657],[4177,8582],[4243,8473],[4201,8295],[4116,8225],[3993,8166],[3934,8036],[3909,7891],[3867,7758],[3863,7627],[3743,7636],[3662,7716],[3604,7815],[3561,7920]]]}},{"type":"Feature","id":"DO.BR","properties":{"name":"Bahoruco","country_code":"do","country_es":"República Dominicana","hc_key":"do-br"},"geometry":{"type":"Polygon","coordinates":[[[394,5888],[532,5835],[678,5804],[809,5735],[953,5722],[1017,5762],[1086,5784],[1167,5774],[1248,5787],[1389,5827],[1495,5766],[1634,5623],[1817,5557],[1910,5539],[1988,5486],[1987,5431],[1924,5408],[1867,5482],[1779,5327],[1702,5272],[1611,5240],[1563,5202],[1529,5151],[1431,5089],[1378,5008],[1368,4908],[1262,4902],[1181,4971],[1106,5115],[964,5125],[851,5083],[736,5113],[630,5180],[518,5233],[216,5355],[137,5627],[171,5691],[203,5834],[394,5888]]]}},{"type":"Feature","id":"DO.BH","properties":{"name":"Barahona","country_code":"do","country_es":"República Dominicana","hc_key":"do-bh"},"geometry":{"type":"Polygon","coordinates":[[[2061,4664],[2008,4748],[1946,4786],[1818,4815],[1759,4817],[1712,4799],[1660,4681],[1659,4607],[1713,4530],[1774,4296],[1716,4209],[1665,4085],[1380,3680],[1342,3586],[1255,3537],[1191,3477],[1152,3388],[1113,3409],[1112,3537],[1066,3646],[977,3651],[902,3634],[758,3756],[696,3915],[717,3942],[778,3965],[801,4053],[797,4236],[706,4290],[720,4373],[775,4430],[850,4409],[918,4417],[833,4765],[964,4792],[1113,4739],[1269,4779],[1368,4908],[1378,5008],[1431,5089],[1529,5151],[1563,5202],[1611,5240],[1702,5272],[1779,5327],[1867,5482],[1924,5408],[1953,5357],[1961,5259],[1901,5182],[1809,5105],[1837,5033],[1902,4997],[2082,4948],[2075,4903],[2106,4738],[2061,4664]]]}},{"type":"Feature","id":"DO.IN","properties":{"name":"Independencia","country_code":"do","country_es":"República Dominicana","hc_key":"do-in"},"geometry":{"type":"Polygon","coordinates":[[[394,5888],[203,5834],[171,5691],[137,5627],[216,5355],[518,5233],[630,5180],[736,5113],[851,5083],[964,5125],[1106,5115],[1181,4971],[1262,4902],[1368,4908],[1269,4779],[1113,4739],[964,4792],[833,4765],[918,4417],[850,4409],[775,4430],[720,4373],[706,4290],[535,4445],[433,4488],[326,4517],[75,4644],[-174,4788],[-136,4850],[-211,4912],[-369,4975],[-479,5050],[-571,5168],[-686,5198],[-730,5223],[-747,5281],[-697,5344],[-726,5425],[-832,5536],[-904,5668],[-972,5716],[-999,5757],[-959,5786],[-849,5807],[-627,5763],[-512,5800],[-473,5841],[-411,5943],[-342,6004],[-178,5982],[20,5948],[209,5930],[394,5888]]]}},{"type":"Feature","id":"DO.EP","properties":{"name":"Elías Piña","country_code":"do","country_es":"República Dominicana","hc_key":"do-ep"},"geometry":{"type":"Polygon","coordinates":[[[1029,7552],[1007,7459],[1000,7363],[906,7294],[794,7289],[703,7346],[603,7364],[542,7253],[506,7122],[458,7024],[367,6999],[283,6992],[217,6934],[142,6780],[115,6614],[165,6548],[127,6398],[252,6301],[273,6229],[271,6153],[325,6094],[405,6074],[437,5986],[394,5888],[209,5930],[20,5948],[-178,5982],[-342,6004],[-220,6085],[-184,6142],[-148,6251],[-142,6309],[-164,6431],[-165,6557],[-181,6614],[-295,6737],[-335,6826],[-362,6848],[-431,6851],[-558,6820],[-565,6874],[-514,6907],[-362,6945],[-323,6969],[-193,7108],[-103,7230],[43,7339],[81,7393],[97,7446],[113,7630],[76,7649],[126,7695],[248,7751],[271,7808],[307,7850],[449,7805],[509,7841],[560,7892],[681,7812],[770,7690],[1029,7552]]]}},{"type":"Feature","id":"DO.AZ","properties":{"name":"Azua","country_code":"do","country_es":"República Dominicana","hc_key":"do-az"},"geometry":{"type":"Polygon","coordinates":[[[3203,4683],[3165,4708],[3160,4768],[3213,4813],[3227,4875],[3222,4998],[3142,5117],[3103,5145],[2977,5186],[2903,5192],[2840,5176],[2813,5122],[2814,5032],[2726,4946],[2669,4922],[2547,4946],[2482,4909],[2417,4908],[2366,4861],[2335,4798],[2281,4778],[2201,4686],[2159,4661],[2061,4664],[2106,4738],[2075,4903],[2082,4948],[1902,4997],[1837,5033],[1809,5105],[1901,5182],[1961,5259],[1953,5357],[1924,5408],[1987,5431],[1988,5486],[1910,5539],[1817,5557],[1634,5623],[1495,5766],[1625,5799],[1704,5913],[1809,5956],[1783,6030],[1819,6111],[1801,6228],[1898,6257],[1922,6203],[1965,6185],[2005,6223],[2029,6275],[2032,6435],[2054,6588],[2090,6665],[2205,6754],[2217,6814],[2279,6843],[2305,6909],[2458,6803],[2488,6517],[2612,6346],[2791,6252],[2902,6116],[2858,5939],[2942,5772],[3002,5615],[3045,5588],[3067,5542],[3118,5492],[3186,5467],[3284,5402],[3379,5353],[3503,5118],[3522,5061],[3493,5004],[3469,4921],[3476,4833],[3368,4713],[3203,4683]]]}},{"type":"Feature","id":"DO.VE","properties":{"name":"La Vega","country_code":"do","country_es":"República Dominicana","hc_key":"do-ve"},"geometry":{"type":"Polygon","coordinates":[[[3561,7920],[3604,7815],[3662,7716],[3743,7636],[3863,7627],[3957,7480],[4103,7382],[4114,7365],[4049,7342],[3859,7250],[3775,7155],[3754,7236],[3684,7278],[3626,7258],[3594,7201],[3453,7164],[3391,7050],[3387,6839],[3209,6696],[3181,6482],[3352,6279],[3308,6142],[3231,6045],[3122,5939],[2858,5939],[2902,6116],[2791,6252],[2612,6346],[2488,6517],[2458,6803],[2305,6909],[2280,6976],[2232,7026],[2246,7095],[2225,7161],[2593,7329],[2748,7444],[2784,7527],[2848,7530],[2925,7514],[2917,7604],[2939,7709],[2894,7790],[2804,7816],[2734,7871],[2755,7934],[2828,7953],[2976,8030],[3132,8078],[3201,8025],[3294,8016],[3421,8053],[3478,7904],[3561,7920]]]}},{"type":"Feature","id":"DO.SZ","properties":{"name":"Sánchez Ramírez","country_code":"do","country_es":"República Dominicana","hc_key":"do-sz"},"geometry":{"type":"Polygon","coordinates":[[[3775,7155],[3859,7250],[4049,7342],[4114,7365],[4103,7382],[4148,7410],[4266,7382],[4327,7393],[4457,7394],[4669,7372],[4811,7305],[4880,7283],[5066,7275],[5139,7252],[5201,7211],[5191,7129],[5163,7044],[5118,6845],[5066,6644],[4983,6581],[4888,6629],[4829,6640],[4793,6586],[4679,6607],[4601,6589],[4544,6539],[4266,6478],[4190,6612],[4003,6748],[3957,6809],[3922,6890],[3848,6926],[3834,7010],[3775,7155]]]}},{"type":"Feature","id":"DO.MN","properties":{"name":"Monseñor Nouel","country_code":"do","country_es":"República Dominicana","hc_key":"do-mn"},"geometry":{"type":"Polygon","coordinates":[[[3775,7155],[3834,7010],[3848,6926],[3922,6890],[3957,6809],[4003,6748],[4190,6612],[4266,6478],[4205,6412],[4185,6315],[4083,6267],[4041,6179],[4000,6062],[3891,6065],[3816,6118],[3738,6150],[3667,6125],[3593,6118],[3475,6206],[3352,6279],[3181,6482],[3209,6696],[3387,6839],[3391,7050],[3453,7164],[3594,7201],[3626,7258],[3684,7278],[3754,7236],[3775,7155]]]}}]}