{"type":"FeatureCollection","features":[{"type":"Feature","properties":{"name":"Guayas","country_code":"ec","country_es":"Ecuador"},"geometry":{"type":"MultiPolygon","coordinates":[[[[-80.115479,-2.998247],[-80.130587,-3.020949],[-80.167518,-3.016943],[-80.20277,-3.033636],[-80.26488,-3.018278],[-80.261523,-2.840669],[-80.211163,-2.725157],[-80.060083,-2.66306],[-80.014759,-2.664396],[-79.945933,-2.707129],[-79.902288,-2.717812],[-79.927468,-2.754536],[-79.977828,-2.775902],[-80.023152,-2.84334],[-80.065119,-2.9248],[-80.093656,-2.946166],[-80.115479,-2.998247]]],[[[-79.833463,-2.635684],[-79.877108,-2.649706],[-79.882144,-2.627004],[-79.846892,-2.534193],[-79.820033,-2.485451],[-79.809961,-2.511492],[-79.77303,-2.542206],[-79.793174,-2.573588],[-79.828427,-2.592284],[-79.833463,-2.635684]]],[[[-79.895573,-3.045654],[-79.875429,-3.005592],[-79.885501,-2.988232],[-79.835141,-2.806616],[-79.801568,-2.741181],[-79.776388,-2.659722],[-79.734421,-2.611647],[-79.726028,-2.570249],[-79.74785,-2.484116],[-79.781424,-2.484783],[-79.801568,-2.462749],[-79.840177,-2.376615],[-79.848571,-2.245078],[-79.840177,-2.209022],[-79.868715,-2.148929],[-79.862,-2.108199],[-79.818355,-2.079487],[-79.806604,-2.045435],[-79.766316,-2.004705],[-79.831784,-2.043432],[-79.835141,-2.07014],[-79.882144,-2.084161],[-79.900609,-2.155606],[-79.895573,-2.213696],[-79.865357,-2.267112],[-79.863679,-2.297159],[-79.878787,-2.49146],[-79.888859,-2.532858],[-79.924111,-2.573588],[-79.984543,-2.60497],[-80.043296,-2.588945],[-80.068476,-2.560902],[-80.024831,-2.524846],[-80.011401,-2.48879],[-79.974471,-2.477439],[-79.934183,-2.492796],[-79.977828,-2.45674],[-80.034903,-2.4741],[-80.034903,-2.437376],[-80.009723,-2.358587],[-79.977828,-2.347237],[-79.949291,-2.307174],[-79.982864,-2.327205],[-80.01308,-2.326538],[-80.033224,-2.345901],[-80.076869,-2.458075],[-80.144016,-2.552889],[-80.174232,-2.586942],[-80.241379,-2.62834],[-80.269916,-2.60497],[-80.279988,-2.649706],[-80.248094,-2.679753],[-80.244736,-2.72115],[-80.27831,-2.72716],[-80.320276,-2.710467],[-80.395816,-2.649038],[-80.467999,-2.618324],[-80.541861,-2.52952],[-80.469678,-2.461414],[-80.410924,-2.416678],[-80.325312,-2.395979],[-80.276631,-2.367935],[-80.231307,-2.29983],[-80.216199,-2.199006],[-80.212842,-2.110202],[-80.25313,-2.050776],[-80.288382,-2.017391],[-80.347135,-1.981335],[-80.426032,-1.962639],[-80.478071,-1.93059],[-80.506608,-1.884518],[-80.516681,-1.84045],[-80.446176,-1.838447],[-80.426032,-1.789704],[-80.389102,-1.736956],[-80.320276,-1.683539],[-80.300132,-1.697561],[-80.274952,-1.682204],[-80.234664,-1.684875],[-80.216199,-1.670185],[-80.22795,-1.615434],[-80.268238,-1.594735],[-80.283346,-1.567359],[-80.222914,-1.559347],[-80.184304,-1.52062],[-80.201091,-1.480558],[-80.185983,-1.423135],[-80.137301,-1.401769],[-80.123872,-1.333663],[-80.043296,-1.271566],[-79.992936,-1.128678],[-79.93754,-1.143367],[-79.903967,-1.129346],[-79.853607,-1.088616],[-79.79821,-1.013833],[-79.794853,-0.983119],[-79.72267,-0.88096],[-79.684061,-0.860929],[-79.620272,-0.850246],[-79.536338,-0.837559],[-79.517873,-0.860929],[-79.538017,-0.937047],[-79.532981,-0.959081],[-79.561518,-0.986457],[-79.574948,-1.039873],[-79.615236,-1.065914],[-79.650488,-1.109982],[-79.673989,-1.114656],[-79.687418,-1.146706],[-79.737778,-1.184765],[-79.74785,-1.235511],[-79.803246,-1.341008],[-79.846892,-1.399098],[-79.863679,-1.444502],[-79.870393,-1.519284],[-79.855285,-1.573368],[-79.855285,-1.640806],[-79.77303,-1.683539],[-79.705884,-1.787701],[-79.648809,-1.906552],[-79.591734,-1.905885],[-79.541374,-1.887189],[-79.502765,-1.887189],[-79.402045,-1.946615],[-79.360078,-1.983338],[-79.286217,-2.107531],[-79.235857,-2.15427],[-79.172067,-2.161615],[-79.148566,-2.14559],[-79.126743,-2.16295],[-79.130101,-2.20368],[-79.155281,-2.243075],[-79.235857,-2.281802],[-79.353363,-2.303168],[-79.425546,-2.360591],[-79.425546,-2.421352],[-79.514516,-2.495467],[-79.489336,-2.518169],[-79.437297,-2.496802],[-79.417153,-2.534193],[-79.425546,-2.55556],[-79.47087,-2.596958],[-79.690776,-2.825312],[-79.704205,-2.874722],[-79.694133,-2.957517],[-79.749529,-3.02362],[-79.76128,-3.06435],[-79.81164,-3.050328],[-79.895573,-3.045654]]]]}},{"type":"Feature","properties":{"name":"Esmeraldas","country_code":"ec","country_es":"Ecuador"},"geometry":{"type":"MultiPolygon","coordinates":[[[[-78.898444,1.271715],[-78.911874,1.245675],[-78.937054,1.257026],[-78.957198,1.236327],[-78.99245,1.268377],[-78.980699,1.308439],[-78.901802,1.374542],[-78.895087,1.312445],[-78.898444,1.271715]]],[[[-79.363435,0.04648],[-79.383579,0.022443],[-79.450726,-0.000927],[-79.422189,-0.039654],[-79.433939,-0.050337],[-79.492693,-0.025632],[-79.595092,-0.013613],[-79.618593,0.045812],[-79.568233,0.116589],[-79.628665,0.154648],[-79.645452,0.1453],[-79.66056,0.176014],[-79.702526,0.193375],[-79.655524,0.251465],[-79.658881,0.268157],[-79.715956,0.31089],[-79.69749,0.341605],[-79.717634,0.370316],[-79.741136,0.374322],[-79.814997,0.322241],[-79.892216,0.3169],[-79.925789,0.262148],[-79.961041,0.266154],[-79.999651,0.344943],[-79.992936,0.378328],[-80.036581,0.439089],[-80.043296,0.501186],[-80.016437,0.559276],[-80.036581,0.625379],[-80.090299,0.652087],[-80.108764,0.695487],[-80.108764,0.73822],[-80.075191,0.816342],[-80.046653,0.839711],[-80.014759,0.829696],[-79.966077,0.836373],[-79.945933,0.855069],[-79.862,0.876435],[-79.793174,0.921839],[-79.766316,0.955224],[-79.682382,0.985271],[-79.655524,1.003299],[-79.650488,0.983935],[-79.670632,0.921839],[-79.63538,0.879774],[-79.648809,0.913159],[-79.642094,0.971917],[-79.615236,0.996622],[-79.57159,0.983935],[-79.524588,1.010643],[-79.455762,1.072072],[-79.365114,1.072072],[-79.272787,1.092771],[-79.247607,1.080085],[-79.146887,1.109464],[-79.071347,1.209619],[-79.032738,1.208951],[-79.000843,1.172228],[-78.99245,1.119479],[-78.957198,1.163547],[-78.95384,1.207616],[-78.92866,1.243004],[-78.893408,1.245007],[-78.888372,1.27038],[-78.854799,1.291747],[-78.874943,1.305768],[-78.869907,1.343827],[-78.832976,1.381219],[-78.82794,1.434635],[-78.769187,1.393905],[-78.718827,1.341157],[-78.700361,1.301762],[-78.665109,1.266374],[-78.602999,1.263703],[-78.569425,1.195597],[-78.540888,1.205613],[-78.478777,1.186917],[-78.495564,1.17156],[-78.493885,1.100783],[-78.530816,1.021327],[-78.534173,0.964572],[-78.524101,0.928516],[-78.441847,0.872429],[-78.45024,0.788966],[-78.512351,0.765596],[-78.458633,0.636062],[-78.423381,0.586652],[-78.438489,0.545254],[-78.507315,0.537909],[-78.539209,0.515208],[-78.6265,0.406372],[-78.675181,0.372319],[-78.718827,0.402366],[-78.859835,0.422397],[-78.901802,0.386341],[-78.911874,0.358297],[-78.943768,0.330254],[-78.987414,0.26749],[-79.010915,0.26749],[-79.039452,0.294865],[-79.145209,0.317567],[-79.222427,0.315564],[-79.346649,0.239446],[-79.348327,0.218747],[-79.306361,0.18603],[-79.363435,0.04648]]]]}},{"type":"Feature","properties":{"name":"Carchi","country_code":"ec","country_es":"Ecuador"},"geometry":{"type":"Polygon","coordinates":[[[-78.478777,1.186917],[-78.373021,1.074075],[-78.329376,1.046699],[-78.250478,1.019991],[-78.119542,0.921171],[-78.077576,0.90114],[-78.007071,0.897802],[-77.90803,0.863749],[-77.902994,0.831699],[-77.847598,0.809665],[-77.80731,0.813003],[-77.728413,0.84305],[-77.703233,0.84305],[-77.673016,0.81968],[-77.666302,0.747568],[-77.646158,0.716186],[-77.58069,0.670782],[-77.543759,0.656761],[-77.513543,0.660767],[-77.553831,0.628717],[-77.666302,0.642071],[-77.674695,0.623375],[-77.651194,0.593329],[-77.661266,0.571962],[-77.70659,0.536574],[-77.788845,0.422397],[-77.787166,0.38367],[-77.814025,0.345611],[-77.855991,0.380331],[-78.000357,0.468468],[-78.074218,0.483826],[-78.131293,0.50586],[-78.14808,0.537909],[-78.14808,0.593329],[-78.168224,0.651419],[-78.233692,0.746901],[-78.289088,0.801652],[-78.371342,0.855736],[-78.441847,0.872429],[-78.524101,0.928516],[-78.534173,0.964572],[-78.530816,1.021327],[-78.493885,1.100783],[-78.495564,1.17156],[-78.478777,1.186917]]]}},{"type":"Feature","properties":{"name":"Imbabura","country_code":"ec","country_es":"Ecuador"},"geometry":{"type":"Polygon","coordinates":[[[-78.441847,0.872429],[-78.371342,0.855736],[-78.289088,0.801652],[-78.233692,0.746901],[-78.168224,0.651419],[-78.14808,0.593329],[-78.14808,0.537909],[-78.131293,0.50586],[-78.074218,0.483826],[-78.000357,0.468468],[-77.855991,0.380331],[-77.814025,0.345611],[-77.845919,0.305549],[-77.835847,0.269493],[-77.872778,0.222086],[-77.909709,0.198716],[-77.944961,0.161325],[-78.077576,0.197381],[-78.174938,0.140626],[-78.226977,0.133281],[-78.272301,0.150642],[-78.320982,0.188701],[-78.364628,0.166666],[-78.359592,0.206061],[-78.369664,0.236108],[-78.413309,0.245455],[-78.65168,0.215409],[-78.77758,0.239446],[-78.864871,0.229431],[-78.952162,0.211403],[-78.994128,0.228763],[-79.010915,0.26749],[-78.987414,0.26749],[-78.943768,0.330254],[-78.911874,0.358297],[-78.901802,0.386341],[-78.859835,0.422397],[-78.718827,0.402366],[-78.675181,0.372319],[-78.6265,0.406372],[-78.539209,0.515208],[-78.507315,0.537909],[-78.438489,0.545254],[-78.423381,0.586652],[-78.458633,0.636062],[-78.512351,0.765596],[-78.45024,0.788966],[-78.441847,0.872429]]]}},{"type":"Feature","properties":{"name":"Sucumbios","country_code":"ec","country_es":"Ecuador"},"geometry":{"type":"Polygon","coordinates":[[[-77.944961,0.161325],[-77.909709,0.198716],[-77.872778,0.222086],[-77.835847,0.269493],[-77.845919,0.305549],[-77.814025,0.345611],[-77.787166,0.38367],[-77.788845,0.422397],[-77.70659,0.536574],[-77.661266,0.571962],[-77.651194,0.593329],[-77.674695,0.623375],[-77.666302,0.642071],[-77.553831,0.628717],[-77.513543,0.660767],[-77.468219,0.650751],[-77.45479,0.602677],[-77.448075,0.497847],[-77.424574,0.408375],[-77.362463,0.37499],[-77.256707,0.353623],[-77.208025,0.33426],[-77.117377,0.35763],[-77.082125,0.348949],[-77.045195,0.305549],[-76.946153,0.286853],[-76.897472,0.245455],[-76.867256,0.239446],[-76.79843,0.250129],[-76.734641,0.233437],[-76.724569,0.277505],[-76.640636,0.262816],[-76.583561,0.222754],[-76.425766,0.242785],[-76.408979,0.254803],[-76.417373,0.320906],[-76.415694,0.402366],[-76.365334,0.40704],[-76.311617,0.458453],[-76.289794,0.457117],[-76.224326,0.40704],[-76.14375,0.400363],[-76.120248,0.35162],[-76.053102,0.363639],[-76.039672,0.336931],[-75.972526,0.252132],[-75.962454,0.220083],[-75.927202,0.180688],[-75.789551,0.084539],[-75.708975,0.073188],[-75.646864,0.085874],[-75.569645,0.038467],[-75.522642,-0.003598],[-75.421922,-0.062356],[-75.364848,-0.073039],[-75.282593,-0.107092],[-75.344704,-0.149157],[-75.401778,-0.145819],[-75.455496,-0.161176],[-75.526,-0.123117],[-75.636792,-0.111766],[-75.638471,-0.15116],[-75.620005,-0.180539],[-75.578039,-0.182542],[-75.484033,-0.24731],[-75.452138,-0.360819],[-75.433673,-0.402884],[-75.376598,-0.466984],[-75.353097,-0.467652],[-75.272521,-0.525742],[-75.257413,-0.561798],[-75.255734,-0.623894],[-75.265806,-0.64259],[-75.289308,-0.618553],[-75.314488,-0.622559],[-75.383313,-0.60186],[-75.398421,-0.569143],[-75.45046,-0.55245],[-75.510892,-0.55245],[-75.559573,-0.52641],[-75.574681,-0.495028],[-75.655257,-0.454965],[-75.712332,-0.458304],[-75.749263,-0.422916],[-75.831517,-0.43627],[-75.868448,-0.418242],[-75.918808,-0.4129],[-75.947346,-0.422916],[-75.950703,-0.448956],[-75.937274,-0.561798],[-75.994348,-0.553118],[-76.083318,-0.495028],[-76.103462,-0.442279],[-76.197467,-0.435602],[-76.274686,-0.443614],[-76.346869,-0.470323],[-76.410658,-0.510385],[-76.427445,-0.48568],[-76.482841,-0.483009],[-76.555023,-0.434267],[-76.575167,-0.404888],[-76.62217,-0.424919],[-76.645672,-0.391534],[-76.714497,-0.341456],[-76.79843,-0.225275],[-76.917616,-0.078381],[-76.971333,-0.070368],[-77.028408,-0.099079],[-77.073732,-0.102418],[-77.147593,-0.083055],[-77.186203,-0.09307],[-77.283565,-0.046999],[-77.298673,-0.05835],[-77.362463,-0.141145],[-77.446396,-0.12512],[-77.444718,-0.060353],[-77.464862,-0.023629],[-77.550474,-0.069033],[-77.589083,-0.099747],[-77.641122,-0.081051],[-77.740163,-0.078381],[-77.772058,-0.066362],[-77.785487,-0.012946],[-77.778773,0.015765],[-77.83249,0.03179],[-77.877814,0.083204],[-77.970141,0.119927],[-77.944961,0.161325]]]}},{"type":"Feature","properties":{"name":"Santa Elena","country_code":"ec","country_es":"Ecuador"},"geometry":{"type":"Polygon","coordinates":[[[-80.541861,-2.52952],[-80.573755,-2.492796],[-80.65601,-2.41601],[-80.718121,-2.391305],[-80.750015,-2.391973],[-80.822198,-2.3666],[-80.864165,-2.329209],[-80.914525,-2.318525],[-80.951456,-2.237733],[-81.001816,-2.193665],[-81.013566,-2.166957],[-80.949777,-2.185652],[-80.931312,-2.217702],[-80.87088,-2.203013],[-80.820519,-2.162283],[-80.780231,-2.142252],[-80.744979,-2.102857],[-80.738265,-2.043432],[-80.761766,-1.97399],[-80.733229,-1.953292],[-80.733229,-1.903882],[-80.760087,-1.797717],[-80.78191,-1.736956],[-80.818841,-1.676862],[-80.751694,-1.668182],[-80.679511,-1.671521],[-80.624115,-1.655496],[-80.577113,-1.66017],[-80.558647,-1.676195],[-80.540182,-1.727608],[-80.563683,-1.797717],[-80.553611,-1.827763],[-80.516681,-1.84045],[-80.506608,-1.884518],[-80.478071,-1.93059],[-80.426032,-1.962639],[-80.347135,-1.981335],[-80.288382,-2.017391],[-80.25313,-2.050776],[-80.212842,-2.110202],[-80.216199,-2.199006],[-80.231307,-2.29983],[-80.276631,-2.367935],[-80.325312,-2.395979],[-80.410924,-2.416678],[-80.469678,-2.461414],[-80.541861,-2.52952]]]}},{"type":"Feature","properties":{"name":"Santo Domingo de los Tsáchilas","country_code":"ec","country_es":"Ecuador"},"geometry":{"type":"Polygon","coordinates":[[[-79.595092,-0.013613],[-79.492693,-0.025632],[-79.433939,-0.050337],[-79.422189,-0.039654],[-79.450726,-0.000927],[-79.383579,0.022443],[-79.363435,0.04648],[-79.309718,0.007085],[-79.106599,0.000408],[-79.099885,-0.082387],[-78.921946,-0.07571],[-78.89173,-0.10776],[-78.796046,-0.158505],[-78.745686,-0.21526],[-78.764151,-0.284701],[-78.89173,-0.298055],[-78.921946,-0.345462],[-78.957198,-0.366829],[-78.968948,-0.39554],[-79.007558,-0.424251],[-79.032738,-0.480338],[-78.995807,-0.510385],[-78.994128,-0.53509],[-79.024344,-0.551115],[-79.037774,-0.580494],[-79.071347,-0.575152],[-79.086455,-0.55245],[-79.131779,-0.555789],[-79.205641,-0.629236],[-79.303003,-0.695339],[-79.351685,-0.682652],[-79.360078,-0.655944],[-79.346649,-0.622559],[-79.356721,-0.577155],[-79.341613,-0.553785],[-79.373507,-0.545773],[-79.480942,-0.54377],[-79.452405,-0.493024],[-79.449047,-0.46231],[-79.407081,-0.383521],[-79.413795,-0.204577],[-79.425546,-0.175865],[-79.49605,-0.161844],[-79.548089,-0.106424],[-79.598449,-0.071704],[-79.606842,-0.040322],[-79.595092,-0.013613]]]}},{"type":"Feature","properties":{"name":"Azuay","country_code":"ec","country_es":"Ecuador"},"geometry":{"type":"Polygon","coordinates":[[[-79.76128,-3.06435],[-79.749529,-3.02362],[-79.694133,-2.957517],[-79.704205,-2.874722],[-79.690776,-2.825312],[-79.47087,-2.596958],[-79.425546,-2.55556],[-79.417153,-2.534193],[-79.437297,-2.496802],[-79.403723,-2.498805],[-79.376865,-2.520839],[-79.358399,-2.560234],[-79.29461,-2.58761],[-79.266073,-2.630343],[-79.177103,-2.722486],[-79.153602,-2.735172],[-79.138494,-2.70379],[-79.073026,-2.649706],[-79.047846,-2.662392],[-78.990771,-2.72716],[-78.950483,-2.76188],[-78.930339,-2.8173],[-78.8783,-2.82598],[-78.819547,-2.823977],[-78.812832,-2.783914],[-78.785974,-2.746523],[-78.794367,-2.719147],[-78.76583,-2.687097],[-78.725541,-2.691104],[-78.671824,-2.653045],[-78.623143,-2.633014],[-78.609713,-2.597625],[-78.564389,-2.561569],[-78.549281,-2.562905],[-78.55096,-2.612982],[-78.534173,-2.624333],[-78.5006,-2.576259],[-78.465348,-2.570917],[-78.428417,-2.600964],[-78.436811,-2.645032],[-78.547603,-2.701787],[-78.597963,-2.779241],[-78.574461,-2.81997],[-78.57614,-2.853356],[-78.623143,-2.932145],[-78.656716,-3.008263],[-78.671824,-3.09039],[-78.722184,-3.138465],[-78.794367,-3.169847],[-78.937054,-3.28803],[-78.938732,-3.322751],[-79.046167,-3.398869],[-79.061275,-3.430919],[-79.046167,-3.47432],[-79.056239,-3.516385],[-79.051203,-3.552441],[-79.071347,-3.627224],[-79.101563,-3.635904],[-79.120029,-3.610531],[-79.123386,-3.557115],[-79.178782,-3.448279],[-79.256001,-3.460298],[-79.299646,-3.423574],[-79.301325,-3.372161],[-79.329862,-3.340779],[-79.405402,-3.342114],[-79.457441,-3.328093],[-79.52123,-3.312735],[-79.615236,-3.330096],[-79.650488,-3.32876],[-79.662238,-3.307394],[-79.632022,-3.290701],[-79.598449,-3.217254],[-79.600128,-3.161835],[-79.638737,-3.129117],[-79.76128,-3.06435]]]}},{"type":"Feature","properties":{"name":"El Oro","country_code":"ec","country_es":"Ecuador"},"geometry":{"type":"Polygon","coordinates":[[[-79.76128,-3.06435],[-79.638737,-3.129117],[-79.600128,-3.161835],[-79.598449,-3.217254],[-79.632022,-3.290701],[-79.662238,-3.307394],[-79.650488,-3.32876],[-79.615236,-3.330096],[-79.52123,-3.312735],[-79.457441,-3.328093],[-79.455762,-3.415562],[-79.427225,-3.437596],[-79.427225,-3.460966],[-79.460798,-3.501028],[-79.485978,-3.605857],[-79.480942,-3.635236],[-79.444011,-3.598513],[-79.417153,-3.592503],[-79.380222,-3.619879],[-79.366793,-3.653264],[-79.371829,-3.683979],[-79.403723,-3.728047],[-79.39533,-3.754755],[-79.415474,-3.793482],[-79.44569,-3.804833],[-79.50948,-3.791479],[-79.57159,-3.789476],[-79.615236,-3.752752],[-79.668953,-3.780796],[-79.705884,-3.820858],[-79.741136,-3.832876],[-79.806604,-3.836215],[-79.858643,-3.824196],[-79.954327,-3.833544],[-80.01308,-3.862255],[-80.076869,-3.876277],[-80.16416,-3.880951],[-80.18934,-3.857581],[-80.192698,-3.821525],[-80.221235,-3.769445],[-80.224592,-3.68064],[-80.216199,-3.63123],[-80.224592,-3.591835],[-80.249772,-3.569801],[-80.2397,-3.514382],[-80.271595,-3.485671],[-80.266559,-3.426245],[-80.34042,-3.393528],[-80.34042,-3.368823],[-80.301811,-3.366819],[-80.286703,-3.320748],[-80.258166,-3.348124],[-80.172554,-3.327425],[-80.135623,-3.327425],[-80.108764,-3.296711],[-80.060083,-3.2039],[-80.036581,-3.208574],[-80.039939,-3.280018],[-80.008044,-3.241959],[-79.952648,-3.197223],[-79.932504,-3.115095],[-79.895573,-3.045654],[-79.81164,-3.050328],[-79.76128,-3.06435]]]}},{"type":"Feature","properties":{"name":"Loja","country_code":"ec","country_es":"Ecuador"},"geometry":{"type":"Polygon","coordinates":[[[-79.457441,-3.328093],[-79.405402,-3.342114],[-79.329862,-3.340779],[-79.301325,-3.372161],[-79.299646,-3.423574],[-79.256001,-3.460298],[-79.178782,-3.448279],[-79.123386,-3.557115],[-79.120029,-3.610531],[-79.101563,-3.635904],[-79.14353,-3.676634],[-79.148566,-3.70401],[-79.19389,-3.730718],[-79.165353,-3.798823],[-79.125065,-3.856914],[-79.11835,-3.883622],[-79.140173,-3.947721],[-79.135137,-4.031852],[-79.151923,-4.103296],[-79.150245,-4.151371],[-79.106599,-4.190098],[-79.101563,-4.26221],[-79.113314,-4.407769],[-79.161995,-4.475875],[-79.205641,-4.50325],[-79.276145,-4.475207],[-79.318111,-4.513266],[-79.31979,-4.572024],[-79.331541,-4.60808],[-79.408759,-4.720254],[-79.460798,-4.770332],[-79.487657,-4.720254],[-79.497729,-4.660828],[-79.527945,-4.618095],[-79.504444,-4.555331],[-79.507801,-4.531962],[-79.579984,-4.502583],[-79.630344,-4.452505],[-79.658881,-4.439151],[-79.796532,-4.484555],[-79.833463,-4.479213],[-79.903967,-4.399089],[-79.982864,-4.389073],[-80.029867,-4.359694],[-80.080227,-4.309617],[-80.140659,-4.282908],[-80.204448,-4.298266],[-80.2397,-4.36971],[-80.332027,-4.445828],[-80.382387,-4.475875],[-80.407567,-4.47721],[-80.469678,-4.445828],[-80.488143,-4.39575],[-80.357207,-4.220144],[-80.345456,-4.19811],[-80.434426,-4.216806],[-80.469678,-4.213467],[-80.4915,-4.168731],[-80.488143,-4.13134],[-80.513323,-4.083265],[-80.481428,-3.999134],[-80.447855,-3.982442],[-80.407567,-3.982442],[-80.343778,-4.011821],[-80.305168,-4.005144],[-80.259844,-3.943715],[-80.180947,-3.907659],[-80.16416,-3.880951],[-80.076869,-3.876277],[-80.01308,-3.862255],[-79.954327,-3.833544],[-79.858643,-3.824196],[-79.806604,-3.836215],[-79.741136,-3.832876],[-79.705884,-3.820858],[-79.668953,-3.780796],[-79.615236,-3.752752],[-79.57159,-3.789476],[-79.50948,-3.791479],[-79.44569,-3.804833],[-79.415474,-3.793482],[-79.39533,-3.754755],[-79.403723,-3.728047],[-79.371829,-3.683979],[-79.366793,-3.653264],[-79.380222,-3.619879],[-79.417153,-3.592503],[-79.444011,-3.598513],[-79.480942,-3.635236],[-79.485978,-3.605857],[-79.460798,-3.501028],[-79.427225,-3.460966],[-79.427225,-3.437596],[-79.455762,-3.415562],[-79.457441,-3.328093]]]}},{"type":"Feature","properties":{"name":"Zamora Chinchipe","country_code":"ec","country_es":"Ecuador"},"geometry":{"type":"Polygon","coordinates":[[[-79.101563,-3.635904],[-79.071347,-3.627224],[-79.051203,-3.552441],[-79.056239,-3.516385],[-79.046167,-3.47432],[-79.061275,-3.430919],[-79.046167,-3.398869],[-78.938732,-3.322751],[-78.856478,-3.382177],[-78.848084,-3.408885],[-78.873264,-3.449615],[-78.863192,-3.497022],[-78.822904,-3.547099],[-78.685253,-3.579149],[-78.655037,-3.541758],[-78.574461,-3.541758],[-78.5006,-3.529071],[-78.376378,-3.529071],[-78.404916,-3.61387],[-78.39988,-3.679305],[-78.42506,-3.689988],[-78.413309,-3.771448],[-78.420024,-3.791479],[-78.470384,-3.830206],[-78.487171,-3.868932],[-78.497243,-3.949724],[-78.552639,-3.969088],[-78.566068,-3.995796],[-78.566068,-4.055889],[-78.57614,-4.099958],[-78.638251,-4.227489],[-78.656716,-4.290921],[-78.681896,-4.326977],[-78.673503,-4.401092],[-78.636572,-4.435145],[-78.670145,-4.493235],[-78.673503,-4.551325],[-78.718827,-4.592055],[-78.811154,-4.628779],[-78.85312,-4.652816],[-78.898444,-4.694214],[-78.92866,-4.746962],[-78.92866,-4.775006],[-78.900123,-4.843779],[-78.910195,-4.86381],[-78.980699,-4.873826],[-79.009236,-4.95996],[-79.064632,-5.011373],[-79.104921,-4.979991],[-79.141851,-4.983329],[-79.208998,-4.964633],[-79.303003,-4.961295],[-79.341613,-4.903872],[-79.37015,-4.891186],[-79.39533,-4.847785],[-79.450726,-4.810394],[-79.460798,-4.770332],[-79.408759,-4.720254],[-79.331541,-4.60808],[-79.31979,-4.572024],[-79.318111,-4.513266],[-79.276145,-4.475207],[-79.205641,-4.50325],[-79.161995,-4.475875],[-79.113314,-4.407769],[-79.101563,-4.26221],[-79.106599,-4.190098],[-79.150245,-4.151371],[-79.151923,-4.103296],[-79.135137,-4.031852],[-79.140173,-3.947721],[-79.11835,-3.883622],[-79.125065,-3.856914],[-79.165353,-3.798823],[-79.19389,-3.730718],[-79.148566,-3.70401],[-79.14353,-3.676634],[-79.101563,-3.635904]]]}},{"type":"Feature","properties":{"name":"Cañar","country_code":"ec","country_es":"Ecuador"},"geometry":{"type":"Polygon","coordinates":[[[-78.549281,-2.562905],[-78.564389,-2.561569],[-78.609713,-2.597625],[-78.623143,-2.633014],[-78.671824,-2.653045],[-78.725541,-2.691104],[-78.76583,-2.687097],[-78.794367,-2.719147],[-78.785974,-2.746523],[-78.812832,-2.783914],[-78.819547,-2.823977],[-78.8783,-2.82598],[-78.930339,-2.8173],[-78.950483,-2.76188],[-78.990771,-2.72716],[-79.047846,-2.662392],[-79.073026,-2.649706],[-79.138494,-2.70379],[-79.153602,-2.735172],[-79.177103,-2.722486],[-79.266073,-2.630343],[-79.29461,-2.58761],[-79.358399,-2.560234],[-79.376865,-2.520839],[-79.403723,-2.498805],[-79.437297,-2.496802],[-79.489336,-2.518169],[-79.514516,-2.495467],[-79.425546,-2.421352],[-79.425546,-2.360591],[-79.353363,-2.303168],[-79.235857,-2.281802],[-79.155281,-2.243075],[-79.130101,-2.20368],[-79.126743,-2.229721],[-79.059596,-2.300497],[-79.027702,-2.345233],[-78.945447,-2.397314],[-78.863192,-2.38997],[-78.82794,-2.371942],[-78.787652,-2.33455],[-78.725541,-2.31719],[-78.597963,-2.303168],[-78.579497,-2.311848],[-78.577819,-2.323199],[-78.502279,-2.358587],[-78.482135,-2.380622],[-78.483813,-2.457408],[-78.493885,-2.513495],[-78.535852,-2.566911],[-78.549281,-2.562905]]]}},{"type":"Feature","properties":{"name":"Bolivar","country_code":"ec","country_es":"Ecuador"},"geometry":{"type":"Polygon","coordinates":[[[-79.130101,-2.20368],[-79.126743,-2.16295],[-79.148566,-2.14559],[-79.172067,-2.161615],[-79.235857,-2.15427],[-79.205641,-2.073478],[-79.212355,-2.051444],[-79.277823,-1.953959],[-79.259358,-1.923245],[-79.229142,-1.823089],[-79.249286,-1.788369],[-79.250965,-1.736288],[-79.299646,-1.659502],[-79.341613,-1.632126],[-79.292931,-1.585387],[-79.266073,-1.586055],[-79.249286,-1.540651],[-79.318111,-1.467871],[-79.321469,-1.369719],[-79.292931,-1.334331],[-79.343291,-1.291598],[-79.378543,-1.32565],[-79.385258,-1.305619],[-79.328183,-1.225495],[-79.281181,-1.202793],[-79.234178,-1.200122],[-79.161995,-1.162731],[-79.081419,-1.155386],[-79.034416,-1.193445],[-78.990771,-1.20947],[-78.950483,-1.203461],[-78.895087,-1.170076],[-78.86655,-1.178088],[-78.888372,-1.21815],[-78.89173,-1.268896],[-78.91691,-1.332995],[-78.923624,-1.397095],[-78.879979,-1.459191],[-78.873264,-1.502592],[-78.85312,-1.541319],[-78.859835,-1.664176],[-78.89173,-1.720263],[-78.925303,-1.752313],[-78.975663,-1.760325],[-79.0042,-1.791707],[-79.009236,-1.853804],[-78.999164,-1.918571],[-79.026023,-2.04677],[-79.014272,-2.088168],[-79.041131,-2.138913],[-79.076383,-2.174969],[-79.130101,-2.20368]]]}},{"type":"Feature","properties":{"name":"Cotopaxi","country_code":"ec","country_es":"Ecuador"},"geometry":{"type":"Polygon","coordinates":[[[-78.86655,-1.178088],[-78.895087,-1.170076],[-78.950483,-1.203461],[-78.990771,-1.20947],[-79.034416,-1.193445],[-79.081419,-1.155386],[-79.161995,-1.162731],[-79.234178,-1.200122],[-79.281181,-1.202793],[-79.287895,-1.170743],[-79.323147,-1.120666],[-79.304682,-1.001814],[-79.303003,-0.949066],[-79.291253,-0.914345],[-79.249286,-0.870277],[-79.222427,-0.820199],[-79.187175,-0.793491],[-79.165353,-0.75877],[-79.098206,-0.596518],[-79.086455,-0.55245],[-79.071347,-0.575152],[-79.037774,-0.580494],[-79.024344,-0.551115],[-78.994128,-0.53509],[-78.995807,-0.510385],[-79.032738,-0.480338],[-79.007558,-0.424251],[-78.968948,-0.39554],[-78.957198,-0.366829],[-78.921946,-0.345462],[-78.906838,-0.376844],[-78.843048,-0.47099],[-78.829619,-0.515726],[-78.7524,-0.572481],[-78.707076,-0.655944],[-78.608035,-0.605199],[-78.589569,-0.621223],[-78.552639,-0.603863],[-78.490528,-0.603863],[-78.461991,-0.615214],[-78.396523,-0.683988],[-78.404916,-0.720711],[-78.388129,-0.813522],[-78.413309,-0.868941],[-78.420024,-0.907],[-78.441847,-0.937715],[-78.391486,-0.963088],[-78.420024,-0.98846],[-78.433453,-1.04388],[-78.455276,-1.074594],[-78.492207,-1.081939],[-78.532495,-1.059237],[-78.562711,-1.06992],[-78.567747,-1.097296],[-78.621464,-1.111318],[-78.67686,-1.1427],[-78.767508,-1.132016],[-78.811154,-1.143367],[-78.86655,-1.178088]]]}},{"type":"Feature","properties":{"name":"Los Rios","country_code":"ec","country_es":"Ecuador"},"geometry":{"type":"Polygon","coordinates":[[[-79.086455,-0.55245],[-79.098206,-0.596518],[-79.165353,-0.75877],[-79.187175,-0.793491],[-79.222427,-0.820199],[-79.249286,-0.870277],[-79.291253,-0.914345],[-79.303003,-0.949066],[-79.304682,-1.001814],[-79.323147,-1.120666],[-79.287895,-1.170743],[-79.281181,-1.202793],[-79.328183,-1.225495],[-79.385258,-1.305619],[-79.378543,-1.32565],[-79.343291,-1.291598],[-79.292931,-1.334331],[-79.321469,-1.369719],[-79.318111,-1.467871],[-79.249286,-1.540651],[-79.266073,-1.586055],[-79.292931,-1.585387],[-79.341613,-1.632126],[-79.299646,-1.659502],[-79.250965,-1.736288],[-79.249286,-1.788369],[-79.229142,-1.823089],[-79.259358,-1.923245],[-79.277823,-1.953959],[-79.212355,-2.051444],[-79.205641,-2.073478],[-79.235857,-2.15427],[-79.286217,-2.107531],[-79.360078,-1.983338],[-79.402045,-1.946615],[-79.502765,-1.887189],[-79.541374,-1.887189],[-79.591734,-1.905885],[-79.648809,-1.906552],[-79.705884,-1.787701],[-79.77303,-1.683539],[-79.855285,-1.640806],[-79.855285,-1.573368],[-79.870393,-1.519284],[-79.863679,-1.444502],[-79.846892,-1.399098],[-79.803246,-1.341008],[-79.74785,-1.235511],[-79.737778,-1.184765],[-79.687418,-1.146706],[-79.673989,-1.114656],[-79.650488,-1.109982],[-79.615236,-1.065914],[-79.574948,-1.039873],[-79.561518,-0.986457],[-79.532981,-0.959081],[-79.538017,-0.937047],[-79.517873,-0.860929],[-79.536338,-0.837559],[-79.620272,-0.850246],[-79.600128,-0.808848],[-79.586698,-0.740075],[-79.568233,-0.711363],[-79.539696,-0.696674],[-79.492693,-0.590509],[-79.480942,-0.54377],[-79.373507,-0.545773],[-79.341613,-0.553785],[-79.356721,-0.577155],[-79.346649,-0.622559],[-79.360078,-0.655944],[-79.351685,-0.682652],[-79.303003,-0.695339],[-79.205641,-0.629236],[-79.131779,-0.555789],[-79.086455,-0.55245]]]}},{"type":"Feature","properties":{"name":"Manabi","country_code":"ec","country_es":"Ecuador"},"geometry":{"type":"Polygon","coordinates":[[[-79.480942,-0.54377],[-79.492693,-0.590509],[-79.539696,-0.696674],[-79.568233,-0.711363],[-79.586698,-0.740075],[-79.600128,-0.808848],[-79.620272,-0.850246],[-79.684061,-0.860929],[-79.72267,-0.88096],[-79.794853,-0.983119],[-79.79821,-1.013833],[-79.853607,-1.088616],[-79.903967,-1.129346],[-79.93754,-1.143367],[-79.992936,-1.128678],[-80.043296,-1.271566],[-80.123872,-1.333663],[-80.137301,-1.401769],[-80.185983,-1.423135],[-80.201091,-1.480558],[-80.184304,-1.52062],[-80.222914,-1.559347],[-80.283346,-1.567359],[-80.268238,-1.594735],[-80.22795,-1.615434],[-80.216199,-1.670185],[-80.234664,-1.684875],[-80.274952,-1.682204],[-80.300132,-1.697561],[-80.320276,-1.683539],[-80.389102,-1.736956],[-80.426032,-1.789704],[-80.446176,-1.838447],[-80.516681,-1.84045],[-80.553611,-1.827763],[-80.563683,-1.797717],[-80.540182,-1.727608],[-80.558647,-1.676195],[-80.577113,-1.66017],[-80.624115,-1.655496],[-80.679511,-1.671521],[-80.751694,-1.668182],[-80.818841,-1.676862],[-80.849057,-1.616101],[-80.852414,-1.576707],[-80.815483,-1.552002],[-80.820519,-1.499921],[-80.770159,-1.477887],[-80.760087,-1.376396],[-80.744979,-1.343678],[-80.833949,-1.231504],[-80.88263,-1.146038],[-80.916204,-1.065246],[-80.909489,-1.044547],[-80.817162,-0.946395],[-80.761766,-0.936379],[-80.691262,-0.949733],[-80.652653,-0.923025],[-80.615722,-0.941053],[-80.590542,-0.931706],[-80.546897,-0.888305],[-80.515002,-0.742078],[-80.462963,-0.617885],[-80.422675,-0.599189],[-80.405888,-0.645928],[-80.37903,-0.657947],[-80.298454,-0.662621],[-80.298454,-0.650602],[-80.392459,-0.62523],[-80.41596,-0.573817],[-80.437783,-0.557792],[-80.451212,-0.477],[-80.484786,-0.423583],[-80.496536,-0.381518],[-80.432747,-0.338785],[-80.39078,-0.274018],[-80.370636,-0.223272],[-80.350492,-0.21526],[-80.323634,-0.173195],[-80.305168,-0.189219],[-80.231307,-0.139809],[-80.172554,-0.075042],[-80.107085,0.007085],[-80.098692,0.039135],[-80.066797,0.051821],[-80.043296,0.123266],[-80.036581,0.176014],[-80.048332,0.318235],[-80.036581,0.356962],[-80.01308,0.324244],[-79.999651,0.344943],[-79.961041,0.266154],[-79.925789,0.262148],[-79.892216,0.3169],[-79.814997,0.322241],[-79.741136,0.374322],[-79.717634,0.370316],[-79.69749,0.341605],[-79.715956,0.31089],[-79.658881,0.268157],[-79.655524,0.251465],[-79.702526,0.193375],[-79.66056,0.176014],[-79.645452,0.1453],[-79.628665,0.154648],[-79.568233,0.116589],[-79.618593,0.045812],[-79.595092,-0.013613],[-79.606842,-0.040322],[-79.598449,-0.071704],[-79.548089,-0.106424],[-79.49605,-0.161844],[-79.425546,-0.175865],[-79.413795,-0.204577],[-79.407081,-0.383521],[-79.449047,-0.46231],[-79.452405,-0.493024],[-79.480942,-0.54377]]]}},{"type":"Feature","properties":{"name":"Chimborazo","country_code":"ec","country_es":"Ecuador"},"geometry":{"type":"Polygon","coordinates":[[[-78.579497,-2.311848],[-78.597963,-2.303168],[-78.725541,-2.31719],[-78.787652,-2.33455],[-78.82794,-2.371942],[-78.863192,-2.38997],[-78.945447,-2.397314],[-79.027702,-2.345233],[-79.059596,-2.300497],[-79.126743,-2.229721],[-79.130101,-2.20368],[-79.076383,-2.174969],[-79.041131,-2.138913],[-79.014272,-2.088168],[-79.026023,-2.04677],[-78.999164,-1.918571],[-79.009236,-1.853804],[-79.0042,-1.791707],[-78.975663,-1.760325],[-78.925303,-1.752313],[-78.89173,-1.720263],[-78.859835,-1.664176],[-78.85312,-1.541319],[-78.873264,-1.502592],[-78.879979,-1.459191],[-78.799403,-1.424471],[-78.723863,-1.468539],[-78.644965,-1.489238],[-78.559353,-1.477887],[-78.515708,-1.47989],[-78.490528,-1.441831],[-78.369664,-1.493244],[-78.352877,-1.526629],[-78.364628,-1.564021],[-78.359592,-1.622111],[-78.408273,-1.658834],[-78.45024,-1.716925],[-78.445204,-1.771676],[-78.42506,-1.800388],[-78.418345,-1.867158],[-78.458633,-1.911894],[-78.488849,-1.964643],[-78.463669,-2.006708],[-78.445204,-2.074814],[-78.5006,-2.126894],[-78.502279,-2.21837],[-78.530816,-2.240404],[-78.544245,-2.286476],[-78.579497,-2.311848]]]}},{"type":"Feature","properties":{"name":"Morona Santiago","country_code":"ec","country_es":"Ecuador"},"geometry":{"type":"Polygon","coordinates":[[[-78.938732,-3.322751],[-78.937054,-3.28803],[-78.794367,-3.169847],[-78.722184,-3.138465],[-78.671824,-3.09039],[-78.656716,-3.008263],[-78.623143,-2.932145],[-78.57614,-2.853356],[-78.574461,-2.81997],[-78.597963,-2.779241],[-78.547603,-2.701787],[-78.436811,-2.645032],[-78.428417,-2.600964],[-78.465348,-2.570917],[-78.5006,-2.576259],[-78.534173,-2.624333],[-78.55096,-2.612982],[-78.549281,-2.562905],[-78.535852,-2.566911],[-78.493885,-2.513495],[-78.483813,-2.457408],[-78.482135,-2.380622],[-78.502279,-2.358587],[-78.577819,-2.323199],[-78.579497,-2.311848],[-78.544245,-2.286476],[-78.530816,-2.240404],[-78.502279,-2.21837],[-78.5006,-2.126894],[-78.445204,-2.074814],[-78.463669,-2.006708],[-78.488849,-1.964643],[-78.458633,-1.911894],[-78.418345,-1.867158],[-78.42506,-1.800388],[-78.445204,-1.771676],[-78.45024,-1.716925],[-78.408273,-1.658834],[-78.359592,-1.622111],[-78.364628,-1.564021],[-78.352877,-1.526629],[-78.305874,-1.484564],[-78.233692,-1.486567],[-78.17326,-1.447172],[-78.129614,-1.455853],[-78.069182,-1.52062],[-78.020501,-1.656164],[-78.00875,-1.668182],[-77.948318,-1.655496],[-77.913066,-1.668182],[-77.889565,-1.755651],[-77.871099,-1.78503],[-77.864385,-1.829766],[-77.844241,-1.868493],[-77.839205,-1.912562],[-77.812346,-1.934596],[-77.753593,-1.951288],[-77.723377,-2.010714],[-77.384286,-2.15427],[-77.154308,-2.303168],[-77.122413,-2.313851],[-77.092197,-2.361258],[-77.035123,-2.430032],[-77.016657,-2.477439],[-76.959582,-2.528184],[-76.917616,-2.540203],[-76.832004,-2.530187],[-76.801788,-2.549551],[-76.726248,-2.576926],[-76.669173,-2.56424],[-76.684281,-2.574256],[-77.849277,-2.980219],[-77.941603,-3.055002],[-78.042324,-3.189878],[-78.104434,-3.245297],[-78.14808,-3.322751],[-78.196761,-3.363481],[-78.196761,-3.385515],[-78.156473,-3.429584],[-78.163188,-3.476991],[-78.225298,-3.507037],[-78.250478,-3.424242],[-78.268944,-3.399537],[-78.334412,-3.384847],[-78.36127,-3.408885],[-78.354556,-3.434925],[-78.376378,-3.529071],[-78.5006,-3.529071],[-78.574461,-3.541758],[-78.655037,-3.541758],[-78.685253,-3.579149],[-78.822904,-3.547099],[-78.863192,-3.497022],[-78.873264,-3.449615],[-78.848084,-3.408885],[-78.856478,-3.382177],[-78.938732,-3.322751]]]}},{"type":"Feature","properties":{"name":"Pichincha","country_code":"ec","country_es":"Ecuador"},"geometry":{"type":"Polygon","coordinates":[[[-78.396523,-0.683988],[-78.461991,-0.615214],[-78.490528,-0.603863],[-78.552639,-0.603863],[-78.589569,-0.621223],[-78.608035,-0.605199],[-78.707076,-0.655944],[-78.7524,-0.572481],[-78.829619,-0.515726],[-78.843048,-0.47099],[-78.906838,-0.376844],[-78.921946,-0.345462],[-78.89173,-0.298055],[-78.764151,-0.284701],[-78.745686,-0.21526],[-78.796046,-0.158505],[-78.89173,-0.10776],[-78.921946,-0.07571],[-79.099885,-0.082387],[-79.106599,0.000408],[-79.309718,0.007085],[-79.363435,0.04648],[-79.306361,0.18603],[-79.348327,0.218747],[-79.346649,0.239446],[-79.222427,0.315564],[-79.145209,0.317567],[-79.039452,0.294865],[-79.010915,0.26749],[-78.994128,0.228763],[-78.952162,0.211403],[-78.864871,0.229431],[-78.77758,0.239446],[-78.65168,0.215409],[-78.413309,0.245455],[-78.369664,0.236108],[-78.359592,0.206061],[-78.364628,0.166666],[-78.320982,0.188701],[-78.272301,0.150642],[-78.226977,0.133281],[-78.174938,0.140626],[-78.077576,0.197381],[-77.944961,0.161325],[-77.970141,0.119927],[-77.877814,0.083204],[-77.83249,0.03179],[-77.844241,0.009756],[-77.928174,-0.03498],[-77.965105,-0.047666],[-77.980213,-0.100415],[-78.007071,-0.131797],[-78.057432,-0.132465],[-78.094362,-0.184546],[-78.13465,-0.169188],[-78.178296,-0.180539],[-78.188368,-0.29672],[-78.206833,-0.343459],[-78.250478,-0.414903],[-78.23537,-0.442279],[-78.272301,-0.551115],[-78.315946,-0.611876],[-78.337769,-0.66596],[-78.396523,-0.683988]]]}},{"type":"Feature","properties":{"name":"Pastaza","country_code":"ec","country_es":"Ecuador"},"geometry":{"type":"Polygon","coordinates":[[[-75.581396,-1.54666],[-75.6519,-1.616769],[-76.091711,-2.128898],[-76.625527,-2.537532],[-76.669173,-2.56424],[-76.726248,-2.576926],[-76.801788,-2.549551],[-76.832004,-2.530187],[-76.917616,-2.540203],[-76.959582,-2.528184],[-77.016657,-2.477439],[-77.035123,-2.430032],[-77.092197,-2.361258],[-77.122413,-2.313851],[-77.154308,-2.303168],[-77.384286,-2.15427],[-77.723377,-2.010714],[-77.753593,-1.951288],[-77.812346,-1.934596],[-77.839205,-1.912562],[-77.844241,-1.868493],[-77.864385,-1.829766],[-77.871099,-1.78503],[-77.889565,-1.755651],[-77.913066,-1.668182],[-77.948318,-1.655496],[-78.00875,-1.668182],[-78.020501,-1.656164],[-78.069182,-1.52062],[-78.129614,-1.455853],[-78.17326,-1.447172],[-78.14808,-1.424471],[-78.114506,-1.342343],[-78.116185,-1.233507],[-78.037287,-1.234843],[-77.966783,-1.223492],[-77.897958,-1.237514],[-77.876135,-1.213476],[-77.845919,-1.224827],[-77.696518,-1.15138],[-77.63105,-1.149377],[-77.547116,-1.136023],[-77.434646,-1.083274],[-77.372535,-1.079268],[-77.278529,-1.049889],[-77.233205,-1.024516],[-77.051909,-1.009827],[-77.075411,-1.039873],[-77.045195,-1.099299],[-76.964618,-1.117995],[-76.867256,-1.157389],[-76.843754,-1.148709],[-76.810181,-1.089951],[-76.7615,-1.097964],[-76.665816,-1.077933],[-76.638957,-1.057234],[-76.561738,-1.04655],[-76.531522,-1.057901],[-76.514735,-1.083942],[-76.519771,-1.15138],[-76.511378,-1.188104],[-76.464375,-1.250868],[-76.363655,-1.262886],[-76.358619,-1.282917],[-76.286437,-1.302949],[-76.24447,-1.28225],[-76.152143,-1.292933],[-76.131999,-1.27357],[-76.078282,-1.28225],[-76.00442,-1.310293],[-75.950703,-1.344346],[-75.905379,-1.348352],[-75.87852,-1.328321],[-75.833196,-1.383741],[-75.747584,-1.405775],[-75.717368,-1.455853],[-75.6519,-1.472545],[-75.596504,-1.505263],[-75.581396,-1.54666]]]}},{"type":"Feature","properties":{"name":"Tungurahua","country_code":"ec","country_es":"Ecuador"},"geometry":{"type":"Polygon","coordinates":[[[-78.116185,-1.233507],[-78.114506,-1.342343],[-78.14808,-1.424471],[-78.17326,-1.447172],[-78.233692,-1.486567],[-78.305874,-1.484564],[-78.352877,-1.526629],[-78.369664,-1.493244],[-78.490528,-1.441831],[-78.515708,-1.47989],[-78.559353,-1.477887],[-78.644965,-1.489238],[-78.723863,-1.468539],[-78.799403,-1.424471],[-78.879979,-1.459191],[-78.923624,-1.397095],[-78.91691,-1.332995],[-78.89173,-1.268896],[-78.888372,-1.21815],[-78.86655,-1.178088],[-78.811154,-1.143367],[-78.767508,-1.132016],[-78.67686,-1.1427],[-78.621464,-1.111318],[-78.567747,-1.097296],[-78.562711,-1.06992],[-78.532495,-1.059237],[-78.492207,-1.081939],[-78.455276,-1.074594],[-78.433453,-1.04388],[-78.420024,-0.98846],[-78.391486,-0.963088],[-78.344484,-1.027187],[-78.331054,-1.059237],[-78.337769,-1.164734],[-78.304196,-1.143367],[-78.221941,-1.140029],[-78.174938,-1.184097],[-78.126257,-1.194113],[-78.116185,-1.233507]]]}},{"type":"Feature","properties":{"name":"Orellana","country_code":"ec","country_es":"Ecuador"},"geometry":{"type":"Polygon","coordinates":[[[-77.298673,-0.05835],[-77.283565,-0.046999],[-77.186203,-0.09307],[-77.147593,-0.083055],[-77.073732,-0.102418],[-77.028408,-0.099079],[-76.971333,-0.070368],[-76.917616,-0.078381],[-76.79843,-0.225275],[-76.714497,-0.341456],[-76.645672,-0.391534],[-76.62217,-0.424919],[-76.575167,-0.404888],[-76.555023,-0.434267],[-76.482841,-0.483009],[-76.427445,-0.48568],[-76.410658,-0.510385],[-76.346869,-0.470323],[-76.274686,-0.443614],[-76.197467,-0.435602],[-76.103462,-0.442279],[-76.083318,-0.495028],[-75.994348,-0.553118],[-75.937274,-0.561798],[-75.950703,-0.448956],[-75.947346,-0.422916],[-75.918808,-0.4129],[-75.868448,-0.418242],[-75.831517,-0.43627],[-75.749263,-0.422916],[-75.712332,-0.458304],[-75.655257,-0.454965],[-75.574681,-0.495028],[-75.559573,-0.52641],[-75.510892,-0.55245],[-75.45046,-0.55245],[-75.398421,-0.569143],[-75.383313,-0.60186],[-75.314488,-0.622559],[-75.289308,-0.618553],[-75.265806,-0.64259],[-75.289308,-0.655944],[-75.296022,-0.747419],[-75.252377,-0.89832],[-75.252377,-0.933709],[-75.227197,-0.969765],[-75.348061,-0.975106],[-75.406814,-0.915681],[-75.41185,-0.923693],[-75.559573,-1.502592],[-75.581396,-1.54666],[-75.596504,-1.505263],[-75.6519,-1.472545],[-75.717368,-1.455853],[-75.747584,-1.405775],[-75.833196,-1.383741],[-75.87852,-1.328321],[-75.905379,-1.348352],[-75.950703,-1.344346],[-76.00442,-1.310293],[-76.078282,-1.28225],[-76.131999,-1.27357],[-76.152143,-1.292933],[-76.24447,-1.28225],[-76.286437,-1.302949],[-76.358619,-1.282917],[-76.363655,-1.262886],[-76.464375,-1.250868],[-76.511378,-1.188104],[-76.519771,-1.15138],[-76.514735,-1.083942],[-76.531522,-1.057901],[-76.561738,-1.04655],[-76.638957,-1.057234],[-76.665816,-1.077933],[-76.7615,-1.097964],[-76.810181,-1.089951],[-76.843754,-1.148709],[-76.867256,-1.157389],[-76.964618,-1.117995],[-77.045195,-1.099299],[-77.075411,-1.039873],[-77.051909,-1.009827],[-77.043516,-0.98846],[-77.058624,-0.957078],[-77.041837,-0.920355],[-77.11402,-0.90433],[-77.186203,-0.860261],[-77.194596,-0.820199],[-77.176131,-0.786814],[-77.115699,-0.718708],[-77.1392,-0.707357],[-77.209704,-0.76478],[-77.246635,-0.829547],[-77.291959,-0.846907],[-77.498435,-0.94506],[-77.543759,-0.951069],[-77.579011,-0.940386],[-77.528651,-0.840898],[-77.526972,-0.762109],[-77.498435,-0.714034],[-77.510186,-0.655944],[-77.585726,-0.567807],[-77.620978,-0.536425],[-77.573975,-0.502372],[-77.552152,-0.458304],[-77.448075,-0.508382],[-77.394358,-0.497031],[-77.357427,-0.425586],[-77.325532,-0.417574],[-77.323853,-0.387527],[-77.273493,-0.360151],[-77.255028,-0.294717],[-77.260064,-0.246642],[-77.298673,-0.189887],[-77.288601,-0.129126],[-77.298673,-0.05835]]]}},{"type":"Feature","properties":{"name":"Napo","country_code":"ec","country_es":"Ecuador"},"geometry":{"type":"Polygon","coordinates":[[[-77.298673,-0.05835],[-77.288601,-0.129126],[-77.298673,-0.189887],[-77.260064,-0.246642],[-77.255028,-0.294717],[-77.273493,-0.360151],[-77.323853,-0.387527],[-77.325532,-0.417574],[-77.357427,-0.425586],[-77.394358,-0.497031],[-77.448075,-0.508382],[-77.552152,-0.458304],[-77.573975,-0.502372],[-77.620978,-0.536425],[-77.585726,-0.567807],[-77.510186,-0.655944],[-77.498435,-0.714034],[-77.526972,-0.762109],[-77.528651,-0.840898],[-77.579011,-0.940386],[-77.543759,-0.951069],[-77.498435,-0.94506],[-77.291959,-0.846907],[-77.246635,-0.829547],[-77.209704,-0.76478],[-77.1392,-0.707357],[-77.115699,-0.718708],[-77.176131,-0.786814],[-77.194596,-0.820199],[-77.186203,-0.860261],[-77.11402,-0.90433],[-77.041837,-0.920355],[-77.058624,-0.957078],[-77.043516,-0.98846],[-77.051909,-1.009827],[-77.233205,-1.024516],[-77.278529,-1.049889],[-77.372535,-1.079268],[-77.434646,-1.083274],[-77.547116,-1.136023],[-77.63105,-1.149377],[-77.696518,-1.15138],[-77.845919,-1.224827],[-77.876135,-1.213476],[-77.897958,-1.237514],[-77.966783,-1.223492],[-78.037287,-1.234843],[-78.116185,-1.233507],[-78.126257,-1.194113],[-78.174938,-1.184097],[-78.221941,-1.140029],[-78.304196,-1.143367],[-78.337769,-1.164734],[-78.331054,-1.059237],[-78.344484,-1.027187],[-78.391486,-0.963088],[-78.441847,-0.937715],[-78.420024,-0.907],[-78.413309,-0.868941],[-78.388129,-0.813522],[-78.404916,-0.720711],[-78.396523,-0.683988],[-78.337769,-0.66596],[-78.315946,-0.611876],[-78.272301,-0.551115],[-78.23537,-0.442279],[-78.250478,-0.414903],[-78.206833,-0.343459],[-78.188368,-0.29672],[-78.178296,-0.180539],[-78.13465,-0.169188],[-78.094362,-0.184546],[-78.057432,-0.132465],[-78.007071,-0.131797],[-77.980213,-0.100415],[-77.965105,-0.047666],[-77.928174,-0.03498],[-77.844241,0.009756],[-77.83249,0.03179],[-77.778773,0.015765],[-77.785487,-0.012946],[-77.772058,-0.066362],[-77.740163,-0.078381],[-77.641122,-0.081051],[-77.589083,-0.099747],[-77.550474,-0.069033],[-77.464862,-0.023629],[-77.444718,-0.060353],[-77.446396,-0.12512],[-77.362463,-0.141145],[-77.298673,-0.05835]]]}},{"type":"Feature","properties":{"name":"Galápagos","country_code":"ec","country_es":"Ecuador"},"geometry":{"type":"MultiPolygon","coordinates":[[[[-89.660386,-1.34034],[-89.633528,-1.34902],[-89.615062,-1.370387],[-89.613384,-1.391085],[-89.6436,-1.401101],[-89.675494,-1.397095],[-89.756071,-1.360371],[-89.735927,-1.34034],[-89.720819,-1.343011],[-89.673816,-1.343011],[-89.660386,-1.34034]]],[[[-90.471183,-1.216815],[-90.46279,-1.231504],[-90.442646,-1.225495],[-90.415787,-1.231504],[-90.392286,-1.242188],[-90.378856,-1.257545],[-90.368784,-1.264889],[-90.367106,-1.278244],[-90.375499,-1.292265],[-90.393964,-1.298275],[-90.393964,-1.318973],[-90.399001,-1.32565],[-90.432574,-1.346349],[-90.43761,-1.347685],[-90.474541,-1.341675],[-90.489649,-1.33166],[-90.503078,-1.318306],[-90.524901,-1.305619],[-90.506435,-1.28225],[-90.499721,-1.268896],[-90.493006,-1.237514],[-90.484613,-1.222824],[-90.471183,-1.216815]]],[[[-89.307866,-0.685323],[-89.296115,-0.692668],[-89.282686,-0.692668],[-89.257506,-0.681984],[-89.254149,-0.718708],[-89.272614,-0.759438],[-89.30283,-0.795494],[-89.331367,-0.818864],[-89.36662,-0.830215],[-89.386764,-0.874283],[-89.406908,-0.905665],[-89.420337,-0.919019],[-89.433766,-0.929035],[-89.450553,-0.933709],[-89.465661,-0.936379],[-89.499234,-0.935044],[-89.509306,-0.93905],[-89.52945,-0.95374],[-89.544558,-0.956411],[-89.55463,-0.95374],[-89.584846,-0.935044],[-89.621777,-0.93037],[-89.63017,-0.925696],[-89.63017,-0.917016],[-89.625134,-0.905665],[-89.60499,-0.883631],[-89.564702,-0.8636],[-89.551273,-0.853584],[-89.541201,-0.818864],[-89.531129,-0.818196],[-89.489162,-0.80818],[-89.477412,-0.796829],[-89.462304,-0.76478],[-89.45391,-0.753429],[-89.425373,-0.728724],[-89.411944,-0.714034],[-89.376692,-0.70068],[-89.36662,-0.689329],[-89.351512,-0.689329],[-89.321295,-0.680649],[-89.307866,-0.685323]]],[[[-90.241206,-0.507046],[-90.241206,-0.527745],[-90.232812,-0.531751],[-90.192524,-0.537761],[-90.180774,-0.549112],[-90.184131,-0.572481],[-90.195882,-0.614546],[-90.195882,-0.625897],[-90.189167,-0.640587],[-90.187488,-0.65127],[-90.199239,-0.675975],[-90.199239,-0.681317],[-90.216026,-0.688661],[-90.227776,-0.703351],[-90.237848,-0.722047],[-90.251278,-0.736736],[-90.264707,-0.745416],[-90.313388,-0.744081],[-90.318424,-0.746752],[-90.32346,-0.766783],[-90.33689,-0.776798],[-90.355355,-0.780137],[-90.37382,-0.778801],[-90.407394,-0.766783],[-90.429217,-0.762777],[-90.452718,-0.744081],[-90.474541,-0.712031],[-90.482934,-0.702683],[-90.498042,-0.704686],[-90.516507,-0.700012],[-90.533294,-0.691332],[-90.545045,-0.681317],[-90.546723,-0.669298],[-90.545045,-0.619888],[-90.53833,-0.593848],[-90.526579,-0.570478],[-90.51315,-0.549112],[-90.498042,-0.531751],[-90.48797,-0.525742],[-90.461111,-0.513056],[-90.43761,-0.511052],[-90.407394,-0.518397],[-90.399001,-0.514391],[-90.380535,-0.504375],[-90.284851,-0.493692],[-90.264707,-0.483677],[-90.24792,-0.492357],[-90.241206,-0.507046]]],[[[-91.456561,-0.257325],[-91.419631,-0.293381],[-91.399487,-0.308071],[-91.397808,-0.329437],[-91.401165,-0.366161],[-91.401165,-0.452962],[-91.411237,-0.457636],[-91.480063,-0.486347],[-91.506922,-0.490354],[-91.516994,-0.487683],[-91.538816,-0.472993],[-91.557282,-0.467652],[-91.585819,-0.456968],[-91.607642,-0.456968],[-91.612678,-0.452962],[-91.612678,-0.441611],[-91.631143,-0.424251],[-91.644572,-0.403552],[-91.652966,-0.381518],[-91.658002,-0.335446],[-91.671431,-0.297387],[-91.668074,-0.284701],[-91.580783,-0.287372],[-91.543852,-0.268676],[-91.498528,-0.257325],[-91.475027,-0.248645],[-91.456561,-0.257325]]],[[[-90.776701,-0.147154],[-90.756557,-0.162511],[-90.68941,-0.184546],[-90.66423,-0.187884],[-90.632335,-0.201906],[-90.580297,-0.259996],[-90.551759,-0.278692],[-90.565189,-0.284701],[-90.551759,-0.293381],[-90.558474,-0.310741],[-90.578618,-0.342791],[-90.587011,-0.36349],[-90.605477,-0.370167],[-90.627299,-0.367496],[-90.669266,-0.354142],[-90.73977,-0.354142],[-90.759914,-0.347465],[-90.776701,-0.336782],[-90.796845,-0.330105],[-90.818668,-0.338785],[-90.832097,-0.32276],[-90.838812,-0.29672],[-90.848884,-0.276021],[-90.874064,-0.271347],[-90.832097,-0.213257],[-90.82874,-0.199235],[-90.835454,-0.181875],[-90.827061,-0.164514],[-90.810274,-0.15116],[-90.791809,-0.147154],[-90.783416,-0.153831],[-90.776701,-0.147154]]],[[[-91.339055,0.154648],[-91.323947,0.139291],[-91.315553,0.115921],[-91.312196,0.095222],[-91.308839,0.085207],[-91.295409,0.076526],[-91.283659,0.033126],[-91.268551,0.019772],[-91.255121,0.001076],[-91.246728,-0.004266],[-91.226584,-0.004933],[-91.209797,-0.010275],[-91.201404,-0.028971],[-91.199725,-0.05234],[-91.203083,-0.099079],[-91.184617,-0.210586],[-91.172867,-0.229282],[-91.127543,-0.271347],[-91.127543,-0.288707],[-91.124185,-0.29939],[-91.107399,-0.309406],[-91.005,-0.373506],[-90.989892,-0.402217],[-90.971426,-0.418242],[-90.956318,-0.422248],[-90.961354,-0.441611],[-90.952961,-0.480338],[-90.949604,-0.521068],[-90.95464,-0.540431],[-90.981498,-0.563133],[-90.989892,-0.579158],[-90.968069,-0.564469],[-90.961354,-0.572481],[-90.961354,-0.591177],[-90.956318,-0.607202],[-90.914352,-0.614546],[-90.892529,-0.625897],[-90.894208,-0.647932],[-90.880778,-0.649267],[-90.869028,-0.655276],[-90.860634,-0.663956],[-90.852241,-0.676643],[-90.860634,-0.689997],[-90.847205,-0.695339],[-90.810274,-0.730727],[-90.791809,-0.738739],[-90.791809,-0.754764],[-90.796845,-0.759438],[-90.82874,-0.774128],[-90.860634,-0.872948],[-90.855598,-0.896985],[-90.858956,-0.915013],[-90.880778,-0.909004],[-90.892529,-0.925028],[-90.917709,-0.95374],[-90.92946,-0.969765],[-90.946246,-0.96242],[-90.961354,-0.961084],[-90.993249,-0.963755],[-91.013393,-0.968429],[-91.045288,-0.991799],[-91.159437,-1.030526],[-91.18126,-1.024516],[-91.198047,-1.02919],[-91.287016,-1.017172],[-91.399487,-1.018507],[-91.421309,-1.01183],[-91.436417,-0.99714],[-91.441453,-0.976442],[-91.441453,-0.952404],[-91.446489,-0.941721],[-91.478384,-0.935044],[-91.501886,-0.89565],[-91.493492,-0.851581],[-91.464955,-0.80818],[-91.436417,-0.778134],[-91.318911,-0.702683],[-91.310517,-0.682652],[-91.295409,-0.681984],[-91.268551,-0.670634],[-91.234977,-0.661953],[-91.213155,-0.664624],[-91.196368,-0.675307],[-91.179581,-0.681984],[-91.167831,-0.682652],[-91.157759,-0.679314],[-91.142651,-0.657947],[-91.137615,-0.654609],[-91.137615,-0.644593],[-91.127543,-0.623227],[-91.114113,-0.607202],[-91.099005,-0.613879],[-91.087254,-0.597854],[-91.087254,-0.582497],[-91.093969,-0.569143],[-91.107399,-0.559127],[-91.120828,-0.551782],[-91.149365,-0.543102],[-91.161116,-0.538428],[-91.186296,-0.515726],[-91.209797,-0.485012],[-91.226584,-0.448956],[-91.236656,-0.415571],[-91.236656,-0.386192],[-91.238335,-0.376176],[-91.250085,-0.366161],[-91.278623,-0.360151],[-91.292052,-0.339453],[-91.350805,-0.306735],[-91.374307,-0.28203],[-91.374307,-0.24998],[-91.392772,-0.239297],[-91.406201,-0.216595],[-91.404523,-0.195896],[-91.381021,-0.188552],[-91.397808,-0.162511],[-91.406201,-0.147154],[-91.40788,-0.131129],[-91.40788,-0.096409],[-91.414595,-0.062356],[-91.422988,-0.028971],[-91.446489,-0.012946],[-91.476706,-0.01161],[-91.511958,-0.023629],[-91.545531,-0.048334],[-91.562318,-0.05234],[-91.582462,-0.040989],[-91.602606,-0.013613],[-91.604284,0.001076],[-91.523708,0.04648],[-91.503564,0.066511],[-91.498528,0.105905],[-91.473348,0.098561],[-91.451525,0.103902],[-91.43306,0.11325],[-91.401165,0.12193],[-91.381021,0.146635],[-91.369271,0.150642],[-91.350805,0.149306],[-91.339055,0.154648]]],[[[-90.454397,0.268157],[-90.476219,0.262816],[-90.48797,0.266822],[-90.499721,0.280176],[-90.523222,0.286853],[-90.533294,0.295533],[-90.545045,0.311558],[-90.541687,0.333592],[-90.526579,0.350953],[-90.504757,0.360968],[-90.482934,0.365642],[-90.461111,0.358297],[-90.435931,0.346946],[-90.417466,0.330921],[-90.407394,0.311558],[-90.414109,0.296201],[-90.430895,0.280176],[-90.454397,0.268157]]],[[[-90.744806,0.585984],[-90.759914,0.553934],[-90.805238,0.571295],[-90.798524,0.593329],[-90.805238,0.635394],[-90.796845,0.65409],[-90.756557,0.630053],[-90.744806,0.585984]]],[[[-91.812439,1.373206],[-91.822511,1.370535],[-91.825869,1.382554],[-91.814118,1.385225],[-91.812439,1.373206]]],[[[-92.00045,1.651639],[-92.005486,1.650303],[-92.012201,1.658983],[-92.005486,1.664993],[-92.00045,1.660319],[-92.00045,1.651639]]]]}}]}