{"type":"FeatureCollection","features":[{"type":"Feature","id":"GT.QC","properties":{"name":"Quiché","country_code":"gt","country_es":"Guatemala","hc_key":"gt-qc"},"geometry":{"type":"Polygon","coordinates":[[[225.0,521.7],[355.6,521.6],[365.3,523.9],[369.5,520.2],[368.4,511.9],[359.8,505.7],[355.2,507.6],[350.2,504.5],[340.6,505.7],[337.1,502.3],[328.8,507.8],[324.9,514.3],[321.1,511.2],[317.5,514.9],[310.9,513.5],[299.9,507.6],[301.9,504.0],[297.3,496.7],[294.7,500.4],[284.3,494.9],[291.3,487.7],[286.8,482.0],[284.3,473.2],[290.7,472.5],[292.2,468.0],[289.5,462.8],[283.3,460.4],[278.8,449.5],[270.2,436.9],[276.5,436.9],[280.7,433.2],[277.0,429.6],[282.3,425.8],[277.8,420.3],[279.7,417.8],[289.3,416.1],[303.3,411.3],[310.1,412.5],[310.3,409.4],[317.8,402.9],[315.7,394.8],[319.6,392.0],[326.9,377.1],[325.2,374.0],[313.7,364.0],[315.8,359.3],[302.4,356.7],[297.8,350.8],[299.6,342.3],[305.0,337.1],[313.0,333.9],[353.5,327.7],[357.6,325.4],[357.3,320.0],[350.8,307.1],[341.1,293.9],[332.6,293.3],[302.4,294.6],[259.7,304.8],[257.6,305.9],[255.9,277.1],[275.1,252.2],[298.3,237.7],[297.0,230.6],[307.0,221.4],[311.0,212.1],[286.3,218.6],[273.0,218.6],[260.7,222.3],[250.1,221.0],[228.6,221.5],[216.3,215.7],[208.8,196.7],[200.0,191.8],[195.8,193.3],[192.5,187.4],[188.5,188.8],[192.0,200.9],[182.3,204.9],[178.6,212.8],[175.4,214.3],[167.3,220.7],[169.3,226.8],[164.3,232.9],[160.1,242.7],[152.8,247.9],[152.1,252.7],[155.6,257.3],[160.8,258.2],[162.4,263.8],[159.0,267.4],[154.9,279.9],[141.7,291.7],[140.4,295.8],[141.7,308.0],[145.0,311.6],[162.0,315.5],[176.9,315.5],[173.9,326.3],[175.6,340.6],[165.3,344.7],[155.3,344.0],[147.4,352.7],[145.4,361.7],[140.3,368.0],[137.7,375.4],[140.4,386.8],[145.3,400.3],[156.6,404.6],[173.9,420.5],[190.8,454.4],[225.0,521.7]]]}},{"type":"Feature","id":"GT.PE","properties":{"name":"Petén","country_code":"gt","country_es":"Guatemala","hc_key":"gt-pe"},"geometry":{"type":"Polygon","coordinates":[[[365.4,524.0],[368.8,531.3],[363.4,529.3],[362.4,533.9],[368.6,539.0],[365.3,543.8],[370.9,546.1],[361.8,553.0],[362.6,561.7],[368.8,565.6],[362.8,569.0],[365.3,574.8],[370.6,572.8],[367.1,578.6],[372.5,581.4],[366.1,584.7],[372.7,587.2],[378.0,595.1],[375.4,601.6],[382.8,600.3],[379.0,614.1],[372.3,613.0],[358.2,617.1],[356.6,623.9],[349.8,627.9],[343.6,624.9],[340.9,632.9],[330.4,630.3],[318.0,631.1],[323.2,640.4],[314.2,643.4],[317.9,660.0],[314.4,662.1],[309.3,658.7],[312.7,666.5],[309.2,676.1],[292.0,701.0],[275.4,711.7],[276.3,716.7],[267.4,716.7],[249.8,722.2],[237.7,732.5],[232.4,735.1],[235.9,741.5],[228.0,742.2],[226.2,735.1],[220.2,740.6],[207.4,746.8],[204.8,755.1],[195.9,766.0],[193.6,773.4],[180.9,776.0],[171.8,786.0],[167.1,797.1],[158.5,801.7],[155.6,812.3],[150.6,818.9],[131.6,819.2],[129.6,825.5],[111.9,832.1],[114.9,836.6],[226.8,835.3],[227.6,981.2],[234.9,984.9],[692.9,985.1],[696.1,854.2],[697.0,778.7],[688.8,635.3],[683.1,553.1],[676.9,491.7],[676.5,478.8],[668.8,481.0],[645.1,480.4],[639.4,469.4],[635.4,466.6],[622.5,463.4],[618.2,465.7],[605.4,461.7],[604.7,475.5],[592.0,474.6],[574.3,476.6],[568.7,473.2],[562.6,474.5],[546.4,484.7],[538.1,483.3],[533.7,479.7],[516.5,480.7],[509.2,493.1],[491.2,499.0],[490.6,505.0],[483.2,501.6],[476.5,505.3],[468.3,502.8],[424.6,516.7],[372.3,524.7],[365.4,524.0]]]}},{"type":"Feature","id":"GT.HU","properties":{"name":"Huehuetenango","country_code":"gt","country_es":"Guatemala","hc_key":"gt-hu"},"geometry":{"type":"Polygon","coordinates":[[[-61.5,360.2],[30.8,516.4],[38.0,522.4],[225.0,521.7],[190.8,454.4],[173.9,420.5],[156.6,404.6],[145.3,400.3],[140.4,386.8],[137.7,375.4],[140.3,368.0],[145.4,361.7],[147.4,352.7],[155.3,344.0],[165.3,344.7],[175.6,340.6],[173.9,326.3],[176.9,315.5],[162.0,315.5],[145.0,311.6],[141.7,308.0],[135.1,308.5],[121.8,302.3],[108.1,299.0],[100.7,288.8],[99.9,281.3],[89.2,279.8],[81.5,292.6],[64.2,297.2],[62.9,300.8],[52.7,309.4],[43.8,320.5],[38.8,331.7],[20.7,327.8],[15.3,328.2],[4.3,334.9],[-11.4,326.7],[-23.3,323.9],[-32.8,313.1],[-45.9,313.8],[-48.8,316.0],[-51.7,347.5],[-59.9,354.6],[-61.5,360.2]]]}},{"type":"Feature","id":"GT.QZ","properties":{"name":"Quezaltenango","country_code":"gt","country_es":"Guatemala","hc_key":"gt-qz"},"geometry":{"type":"Polygon","coordinates":[[[64.2,297.2],[81.5,292.6],[89.2,279.8],[71.4,273.3],[71.0,262.8],[78.2,234.8],[84.4,228.3],[84.2,220.3],[89.0,214.4],[101.2,214.5],[104.2,201.4],[112.0,189.9],[108.8,179.5],[101.2,169.2],[90.6,162.2],[81.8,163.8],[73.7,159.1],[67.2,160.8],[59.7,152.7],[55.0,153.8],[50.3,149.0],[41.6,151.6],[46.2,165.0],[43.2,169.6],[35.1,162.7],[25.8,158.3],[20.6,145.8],[15.9,138.9],[11.7,127.5],[1.0,112.5],[-9.8,110.2],[-20.3,110.1],[-36.5,117.0],[-40.6,114.9],[-48.9,137.6],[-67.0,140.2],[-70.7,144.6],[-61.7,154.7],[-54.6,160.3],[-23.3,169.2],[2.8,167.1],[7.6,169.6],[10.9,175.7],[17.2,181.3],[27.5,201.9],[32.6,221.2],[44.3,230.6],[47.4,236.2],[49.1,247.5],[43.2,255.9],[40.2,263.3],[42.6,271.2],[52.4,283.4],[63.0,292.2],[64.2,297.2]]]}},{"type":"Feature","id":"GT.RE","properties":{"name":"Retalhuleu","country_code":"gt","country_es":"Guatemala","hc_key":"gt-re"},"geometry":{"type":"Polygon","coordinates":[[[51.3,4.4],[24.5,21.2],[-13.0,49.0],[-49.4,82.3],[-78.4,103.6],[-70.9,104.8],[-66.3,108.5],[-56.2,107.6],[-50.6,112.0],[-40.6,114.9],[-36.5,117.0],[-20.3,110.1],[-9.8,110.2],[1.0,112.5],[11.7,127.5],[15.9,138.9],[20.6,145.8],[25.8,158.3],[35.1,162.7],[43.2,169.6],[46.2,165.0],[41.6,151.6],[50.3,149.0],[55.0,153.8],[59.7,152.7],[67.2,160.8],[73.7,159.1],[81.8,163.8],[90.6,162.2],[82.8,155.4],[75.4,146.2],[75.4,136.5],[65.0,115.7],[62.9,96.9],[67.3,84.8],[65.8,61.0],[59.6,46.9],[57.1,28.0],[49.7,17.1],[51.3,4.4]]]}},{"type":"Feature","id":"GT.SM","properties":{"name":"San Marcos","country_code":"gt","country_es":"Guatemala","hc_key":"gt-sm"},"geometry":{"type":"Polygon","coordinates":[[[64.2,297.2],[63.0,292.2],[52.4,283.4],[42.6,271.2],[40.2,263.3],[43.2,255.9],[49.1,247.5],[47.4,236.2],[44.3,230.6],[32.6,221.2],[27.5,201.9],[17.2,181.3],[10.9,175.7],[7.6,169.6],[2.8,167.1],[-23.3,169.2],[-54.6,160.3],[-61.7,154.7],[-70.7,144.6],[-67.0,140.2],[-48.9,137.6],[-40.6,114.9],[-50.6,112.0],[-56.2,107.6],[-66.3,108.5],[-70.9,104.8],[-78.4,103.6],[-99.9,119.5],[-94.7,120.2],[-90.0,125.8],[-84.1,141.4],[-78.5,151.6],[-77.7,160.7],[-82.1,173.8],[-82.0,181.7],[-84.9,190.5],[-83.8,199.2],[-78.4,205.4],[-75.4,213.4],[-76.0,229.9],[-75.0,238.6],[-71.9,241.6],[-62.0,244.3],[-54.1,259.1],[-87.1,302.7],[-89.0,307.0],[-87.3,316.6],[-61.5,360.2],[-59.9,354.6],[-51.7,347.5],[-48.8,316.0],[-45.9,313.8],[-32.8,313.1],[-23.3,323.9],[-11.4,326.7],[4.3,334.9],[15.3,328.2],[20.7,327.8],[38.8,331.7],[43.8,320.5],[52.7,309.4],[62.9,300.8],[64.2,297.2]]]}},{"type":"Feature","id":"GT.BV","properties":{"name":"Baja Verapaz","country_code":"gt","country_es":"Guatemala","hc_key":"gt-bv"},"geometry":{"type":"Polygon","coordinates":[[[311.0,212.1],[307.0,221.4],[297.0,230.6],[298.3,237.7],[275.1,252.2],[255.9,277.1],[257.6,305.9],[259.7,304.8],[302.4,294.6],[332.6,293.3],[341.1,293.9],[350.8,307.1],[377.4,306.8],[383.0,305.0],[399.9,292.7],[404.3,294.0],[411.4,302.6],[414.6,314.2],[420.0,315.8],[432.4,312.8],[460.5,308.9],[470.6,309.3],[481.4,313.2],[492.9,314.2],[500.8,308.4],[501.7,303.2],[499.0,295.5],[487.6,279.1],[480.7,275.3],[448.7,253.8],[407.8,225.4],[402.5,208.2],[389.3,206.1],[380.8,207.6],[377.5,210.7],[374.4,215.5],[366.4,210.3],[357.5,209.5],[354.3,213.1],[341.7,208.4],[327.4,206.7],[311.0,212.1]]]}},{"type":"Feature","id":"GT.AV","properties":{"name":"Alta Verapaz","country_code":"gt","country_es":"Guatemala","hc_key":"gt-av"},"geometry":{"type":"Polygon","coordinates":[[[487.6,279.1],[499.0,295.5],[501.7,303.2],[500.8,308.4],[492.9,314.2],[481.4,313.2],[470.6,309.3],[460.5,308.9],[432.4,312.8],[420.0,315.8],[414.6,314.2],[411.4,302.6],[404.3,294.0],[399.9,292.7],[383.0,305.0],[377.4,306.8],[350.8,307.1],[357.3,320.0],[357.6,325.4],[353.5,327.7],[313.0,333.9],[305.0,337.1],[299.6,342.3],[297.8,350.8],[302.4,356.7],[315.8,359.3],[313.7,364.0],[325.2,374.0],[326.9,377.1],[319.6,392.0],[315.7,394.8],[317.8,402.9],[310.3,409.4],[310.1,412.5],[303.3,411.3],[289.3,416.1],[279.7,417.8],[277.8,420.3],[282.3,425.8],[277.0,429.6],[280.7,433.2],[276.5,436.9],[270.2,436.9],[278.8,449.5],[283.3,460.4],[289.5,462.8],[292.2,468.0],[290.7,472.5],[284.3,473.2],[286.8,482.0],[291.3,487.7],[284.3,494.9],[294.7,500.4],[297.3,496.7],[301.9,504.0],[299.9,507.6],[310.9,513.5],[317.5,514.9],[321.1,511.2],[324.9,514.3],[328.8,507.8],[337.1,502.3],[340.6,505.7],[350.2,504.5],[355.2,507.6],[359.8,505.7],[368.4,511.9],[369.5,520.2],[365.3,523.9],[365.4,524.0],[372.3,524.7],[424.6,516.7],[468.3,502.8],[476.5,505.3],[483.2,501.6],[490.6,505.0],[491.2,499.0],[509.2,493.1],[516.5,480.7],[533.7,479.7],[538.1,483.3],[546.4,484.7],[562.6,474.5],[568.7,473.2],[574.3,476.6],[592.0,474.6],[604.7,475.5],[605.4,461.7],[618.2,465.7],[622.5,463.4],[635.4,466.6],[628.4,457.2],[619.3,453.6],[614.6,444.7],[601.8,437.0],[569.4,391.1],[569.4,385.8],[586.5,365.6],[580.5,354.1],[573.6,350.1],[571.5,315.0],[576.6,305.5],[576.0,296.0],[582.3,285.6],[564.5,281.4],[556.3,281.9],[539.9,279.4],[527.8,283.4],[519.2,283.2],[512.1,280.1],[500.3,277.7],[487.6,279.1]]]}},{"type":"Feature","id":"GT.ES","properties":{"name":"Escuintla","country_code":"gt","country_es":"Guatemala","hc_key":"gt-es"},"geometry":{"type":"Polygon","coordinates":[[[318.5,-49.0],[297.7,-46.7],[274.6,-49.5],[245.0,-51.3],[210.4,-50.6],[178.8,-47.0],[139.7,-39.1],[84.9,-14.5],[84.6,-5.2],[103.7,23.3],[102.5,44.6],[103.5,52.6],[106.1,54.3],[110.8,48.7],[115.1,51.6],[112.6,62.2],[115.0,67.2],[122.4,72.6],[127.8,72.6],[130.0,67.6],[127.6,62.8],[129.2,54.3],[137.6,50.2],[144.5,56.7],[147.3,53.9],[146.0,47.5],[177.8,44.8],[183.5,54.5],[184.3,67.3],[193.4,86.7],[198.9,82.9],[210.1,86.1],[218.1,80.9],[224.6,84.3],[226.7,75.4],[229.6,74.9],[236.5,89.4],[250.6,102.2],[260.3,93.3],[268.7,79.7],[283.6,94.1],[293.2,96.2],[296.1,90.0],[312.7,96.6],[316.0,86.7],[319.8,83.3],[326.7,82.3],[329.4,65.1],[329.2,56.3],[334.8,40.1],[330.9,36.5],[329.0,28.5],[338.2,27.3],[342.3,28.8],[347.5,25.9],[337.7,16.5],[331.2,14.9],[331.2,11.2],[337.0,3.5],[330.2,-2.3],[327.4,-8.6],[318.6,-13.0],[318.5,-49.0]]]}},{"type":"Feature","id":"GT.CM","properties":{"name":"Chimaltenango","country_code":"gt","country_es":"Guatemala","hc_key":"gt-cm"},"geometry":{"type":"Polygon","coordinates":[[[250.6,102.2],[236.5,89.4],[229.6,74.9],[226.7,75.4],[224.6,84.3],[218.1,80.9],[210.1,86.1],[198.9,82.9],[193.4,86.7],[197.1,96.6],[197.2,108.6],[192.8,113.3],[195.1,140.4],[203.3,158.4],[204.7,170.2],[200.0,191.8],[208.8,196.7],[216.3,215.7],[228.6,221.5],[250.1,221.0],[260.7,222.3],[273.0,218.6],[286.3,218.6],[311.0,212.1],[309.1,205.2],[299.0,198.8],[294.6,198.4],[290.3,193.9],[287.9,185.9],[283.2,178.7],[278.4,168.0],[281.4,150.3],[275.6,139.6],[269.1,134.9],[257.4,122.0],[251.8,111.3],[250.6,102.2]]]}},{"type":"Feature","id":"GT.GU","properties":{"name":"Guatemala","country_code":"gt","country_es":"Guatemala","hc_key":"gt-gu"},"geometry":{"type":"Polygon","coordinates":[[[334.8,40.1],[329.2,56.3],[329.4,65.1],[326.7,82.3],[319.8,83.3],[316.0,86.7],[312.7,96.6],[314.9,106.5],[316.8,127.8],[320.4,133.5],[320.8,144.0],[314.8,150.9],[312.6,158.5],[302.2,170.9],[292.6,171.2],[283.2,178.7],[287.9,185.9],[290.3,193.9],[294.6,198.4],[299.0,198.8],[309.1,205.2],[311.0,212.1],[327.4,206.7],[341.7,208.4],[354.3,213.1],[357.5,209.5],[366.4,210.3],[374.4,215.5],[377.5,210.7],[373.0,203.3],[375.8,198.3],[390.4,199.0],[395.3,182.9],[392.1,176.6],[393.3,171.4],[401.2,163.8],[419.7,156.6],[426.8,151.1],[423.3,143.3],[412.2,134.4],[410.6,123.9],[407.6,116.8],[407.2,108.6],[399.7,106.4],[390.5,99.0],[387.9,105.5],[380.5,103.9],[369.9,87.2],[365.1,75.1],[366.1,59.3],[358.8,52.7],[349.1,48.7],[342.2,42.8],[334.8,40.1]]]}},{"type":"Feature","id":"GT.SU","properties":{"name":"Suchitepéquez","country_code":"gt","country_es":"Guatemala","hc_key":"gt-su"},"geometry":{"type":"Polygon","coordinates":[[[192.8,113.3],[197.2,108.6],[197.1,96.6],[193.4,86.7],[184.3,67.3],[183.5,54.5],[177.8,44.8],[146.0,47.5],[147.3,53.9],[144.5,56.7],[137.6,50.2],[129.2,54.3],[127.6,62.8],[130.0,67.6],[127.8,72.6],[122.4,72.6],[115.0,67.2],[112.6,62.2],[115.1,51.6],[110.8,48.7],[106.1,54.3],[103.5,52.6],[102.5,44.6],[103.7,23.3],[84.6,-5.2],[84.9,-14.5],[78.8,-11.8],[51.3,4.4],[49.7,17.1],[57.1,28.0],[59.6,46.9],[65.8,61.0],[67.3,84.8],[62.9,96.9],[65.0,115.7],[75.4,136.5],[75.4,146.2],[82.8,155.4],[90.6,162.2],[101.2,169.2],[106.3,157.9],[105.4,151.8],[99.2,140.1],[103.0,136.5],[118.2,133.8],[119.7,143.6],[123.2,147.2],[130.6,145.6],[133.8,142.0],[144.2,142.7],[155.5,131.7],[155.9,120.6],[163.2,120.5],[170.4,124.2],[176.8,124.1],[192.8,113.3]]]}},{"type":"Feature","id":"GT.SA","properties":{"name":"Sacatepéquez","country_code":"gt","country_es":"Guatemala","hc_key":"gt-sa"},"geometry":{"type":"Polygon","coordinates":[[[312.7,96.6],[296.1,90.0],[293.2,96.2],[283.6,94.1],[268.7,79.7],[260.3,93.3],[250.6,102.2],[251.8,111.3],[257.4,122.0],[269.1,134.9],[275.6,139.6],[281.4,150.3],[278.4,168.0],[283.2,178.7],[292.6,171.2],[302.2,170.9],[312.6,158.5],[314.8,150.9],[320.8,144.0],[320.4,133.5],[316.8,127.8],[314.9,106.5],[312.7,96.6]]]}},{"type":"Feature","id":"GT.SO","properties":{"name":"Sololá","country_code":"gt","country_es":"Guatemala","hc_key":"gt-so"},"geometry":{"type":"Polygon","coordinates":[[[200.0,191.8],[204.7,170.2],[203.3,158.4],[195.1,140.4],[192.8,113.3],[176.8,124.1],[170.4,124.2],[163.2,120.5],[155.9,120.6],[155.5,131.7],[144.2,142.7],[133.8,142.0],[130.6,145.6],[123.2,147.2],[119.7,143.6],[118.2,133.8],[103.0,136.5],[99.2,140.1],[105.4,151.8],[106.3,157.9],[101.2,169.2],[108.8,179.5],[112.0,189.9],[124.9,200.8],[130.2,201.9],[141.8,199.4],[147.1,201.7],[159.1,199.8],[163.3,200.9],[175.4,214.3],[178.6,212.8],[182.3,204.9],[192.0,200.9],[188.5,188.8],[192.5,187.4],[195.8,193.3],[200.0,191.8]]]}},{"type":"Feature","id":"GT.TO","properties":{"name":"Totonicapán","country_code":"gt","country_es":"Guatemala","hc_key":"gt-to"},"geometry":{"type":"Polygon","coordinates":[[[175.4,214.3],[163.3,200.9],[159.1,199.8],[147.1,201.7],[141.8,199.4],[130.2,201.9],[124.9,200.8],[112.0,189.9],[104.2,201.4],[101.2,214.5],[89.0,214.4],[84.2,220.3],[84.4,228.3],[78.2,234.8],[71.0,262.8],[71.4,273.3],[89.2,279.8],[99.9,281.3],[100.7,288.8],[108.1,299.0],[121.8,302.3],[135.1,308.5],[141.7,308.0],[140.4,295.8],[141.7,291.7],[154.9,279.9],[159.0,267.4],[162.4,263.8],[160.8,258.2],[155.6,257.3],[152.1,252.7],[152.8,247.9],[160.1,242.7],[164.3,232.9],[169.3,226.8],[167.3,220.7],[175.4,214.3]]]}},{"type":"Feature","id":"GT.PR","properties":{"name":"El Progreso","country_code":"gt","country_es":"Guatemala","hc_key":"gt-pr"},"geometry":{"type":"Polygon","coordinates":[[[426.8,151.1],[419.7,156.6],[401.2,163.8],[393.3,171.4],[392.1,176.6],[395.3,182.9],[390.4,199.0],[375.8,198.3],[373.0,203.3],[377.5,210.7],[380.8,207.6],[389.3,206.1],[402.5,208.2],[407.8,225.4],[448.7,253.8],[480.7,275.3],[487.6,279.1],[500.3,277.7],[512.1,280.1],[533.2,249.2],[533.4,245.6],[521.0,245.3],[519.6,242.4],[533.1,224.0],[541.5,220.2],[540.5,213.7],[529.4,211.4],[523.6,204.9],[516.3,205.1],[509.8,201.0],[500.8,189.7],[485.5,182.7],[470.9,179.9],[462.8,164.9],[460.7,163.3],[451.5,166.0],[436.0,160.4],[433.3,154.4],[426.8,151.1]]]}},{"type":"Feature","id":"GT.SR","properties":{"name":"Santa Rosa","country_code":"gt","country_es":"Guatemala","hc_key":"gt-sr"},"geometry":{"type":"Polygon","coordinates":[[[418.8,-84.0],[377.1,-65.5],[351.4,-55.9],[330.6,-50.9],[318.5,-49.0],[318.6,-13.0],[327.4,-8.6],[330.2,-2.3],[337.0,3.5],[331.2,11.2],[331.2,14.9],[337.7,16.5],[347.5,25.9],[342.3,28.8],[338.2,27.3],[329.0,28.5],[330.9,36.5],[334.8,40.1],[342.2,42.8],[349.1,48.7],[358.8,52.7],[366.1,59.3],[365.1,75.1],[369.9,87.2],[380.5,103.9],[387.9,105.5],[390.5,99.0],[399.7,106.4],[407.2,108.6],[412.5,103.4],[447.8,109.9],[451.5,100.0],[467.6,87.2],[462.9,72.6],[459.3,72.2],[459.2,66.1],[453.8,67.3],[444.8,65.5],[440.8,62.1],[431.6,39.2],[435.3,36.5],[447.3,33.2],[466.0,17.2],[468.1,-1.8],[465.7,-9.4],[459.7,-17.5],[450.3,-20.7],[444.6,-31.3],[440.5,-34.1],[424.5,-30.3],[412.2,-21.9],[405.2,-26.9],[408.9,-34.7],[410.8,-45.6],[415.0,-51.1],[420.9,-66.4],[421.4,-73.8],[418.8,-84.0]]]}},{"type":"Feature","id":"GT.IZ","properties":{"name":"Izabal","country_code":"gt","country_es":"Guatemala","hc_key":"gt-iz"},"geometry":{"type":"Polygon","coordinates":[[[582.3,285.6],[576.0,296.0],[576.6,305.5],[571.5,315.0],[573.6,350.1],[580.5,354.1],[586.5,365.6],[569.4,385.8],[569.4,391.1],[601.8,437.0],[614.6,444.7],[619.3,453.6],[628.4,457.2],[635.4,466.6],[639.4,469.4],[645.1,480.4],[668.8,481.0],[676.5,478.8],[678.5,472.0],[691.5,477.3],[711.2,476.5],[726.7,477.9],[749.5,472.2],[759.2,476.0],[771.5,467.2],[780.4,469.5],[791.8,467.0],[800.6,462.0],[801.6,456.4],[807.4,455.5],[833.5,439.5],[830.9,425.7],[840.7,426.8],[838.8,436.6],[844.7,437.2],[846.7,443.8],[852.8,451.4],[852.7,462.3],[857.3,464.3],[868.5,464.4],[854.4,474.5],[848.9,482.3],[837.8,488.5],[834.6,492.4],[838.2,496.7],[852.5,489.6],[860.0,481.8],[865.4,478.8],[878.9,467.7],[905.5,455.5],[928.5,436.8],[937.6,433.0],[930.8,424.9],[918.6,419.3],[913.1,419.2],[904.1,403.8],[892.2,391.9],[866.5,371.3],[745.3,276.0],[736.3,271.7],[710.2,262.8],[700.7,257.4],[691.8,265.6],[689.7,274.6],[687.5,294.2],[692.7,297.2],[694.3,307.4],[693.0,311.5],[684.1,317.3],[673.6,318.7],[663.9,315.5],[657.2,310.4],[627.2,298.1],[596.7,287.7],[582.3,285.6]]]}},{"type":"Feature","id":"GT.CQ","properties":{"name":"Chiquimula","country_code":"gt","country_es":"Guatemala","hc_key":"gt-cq"},"geometry":{"type":"Polygon","coordinates":[[[690.0,215.3],[679.2,203.1],[680.2,194.4],[690.2,180.8],[695.1,169.1],[701.9,161.0],[701.7,154.4],[698.1,149.8],[699.3,136.4],[698.0,127.3],[692.0,124.1],[682.3,126.9],[675.9,125.0],[672.4,120.0],[660.7,109.0],[656.1,102.1],[647.7,98.9],[645.6,91.2],[646.2,83.0],[636.7,90.9],[628.2,83.8],[618.3,85.5],[611.3,84.8],[607.4,89.8],[610.9,103.2],[610.5,107.6],[605.2,112.1],[585.8,111.3],[578.3,121.0],[572.6,124.6],[562.2,125.7],[558.6,125.7],[559.5,131.3],[568.6,157.0],[566.7,162.4],[566.8,174.1],[564.5,179.1],[548.9,179.3],[555.0,190.4],[555.6,202.5],[565.8,211.5],[568.9,211.2],[586.0,202.7],[603.6,201.6],[607.5,202.6],[623.1,215.2],[630.2,216.6],[643.6,212.5],[656.3,216.9],[663.1,213.1],[668.1,214.3],[674.9,221.2],[683.9,224.9],[690.0,215.3]]]}},{"type":"Feature","id":"GT.JA","properties":{"name":"Jalapa","country_code":"gt","country_es":"Guatemala","hc_key":"gt-ja"},"geometry":{"type":"Polygon","coordinates":[[[548.9,179.3],[564.5,179.1],[566.8,174.1],[566.7,162.4],[568.6,157.0],[559.5,131.3],[558.6,125.7],[562.2,125.7],[564.1,116.3],[542.4,105.1],[535.5,111.2],[528.6,110.2],[514.2,100.4],[510.7,88.1],[499.1,97.1],[492.9,97.5],[483.9,87.4],[467.6,87.2],[451.5,100.0],[447.8,109.9],[412.5,103.4],[407.2,108.6],[407.6,116.8],[410.6,123.9],[412.2,134.4],[423.3,143.3],[426.8,151.1],[433.3,154.4],[436.0,160.4],[451.5,166.0],[460.7,163.3],[462.8,164.9],[470.9,179.9],[485.5,182.7],[500.8,189.7],[509.8,201.0],[516.3,205.1],[523.6,204.9],[521.6,200.5],[534.1,180.8],[548.9,179.3]]]}},{"type":"Feature","id":"GT.JU","properties":{"name":"Jutiapa","country_code":"gt","country_es":"Guatemala","hc_key":"gt-ju"},"geometry":{"type":"Polygon","coordinates":[[[418.8,-84.0],[421.4,-73.8],[420.9,-66.4],[415.0,-51.1],[410.8,-45.6],[408.9,-34.7],[405.2,-26.9],[412.2,-21.9],[424.5,-30.3],[440.5,-34.1],[444.6,-31.3],[450.3,-20.7],[459.7,-17.5],[465.7,-9.4],[468.1,-1.8],[466.0,17.2],[447.3,33.2],[435.3,36.5],[431.6,39.2],[440.8,62.1],[444.8,65.5],[453.8,67.3],[459.2,66.1],[459.3,72.2],[462.9,72.6],[467.6,87.2],[483.9,87.4],[492.9,97.5],[499.1,97.1],[510.7,88.1],[514.2,100.4],[528.6,110.2],[535.5,111.2],[542.4,105.1],[564.1,116.3],[562.2,125.7],[572.6,124.6],[578.3,121.0],[585.8,111.3],[605.2,112.1],[610.5,107.6],[610.9,103.2],[607.4,89.8],[611.3,84.8],[599.7,73.8],[598.9,78.7],[592.3,81.8],[587.0,74.9],[590.7,66.2],[585.0,59.5],[586.6,55.7],[592.0,55.1],[597.6,49.0],[598.9,42.0],[604.2,38.2],[602.6,32.4],[574.8,25.6],[568.0,22.5],[556.3,11.8],[545.3,-7.7],[546.6,-17.7],[542.8,-19.8],[532.2,-13.0],[523.7,-12.1],[512.2,-16.5],[504.0,-23.8],[475.2,-44.6],[468.9,-56.0],[455.5,-65.5],[452.1,-73.5],[451.6,-82.0],[457.1,-99.9],[418.8,-84.0]]]}},{"type":"Feature","id":"GT.ZA","properties":{"name":"Zacapa","country_code":"gt","country_es":"Guatemala","hc_key":"gt-za"},"geometry":{"type":"Polygon","coordinates":[[[548.9,179.3],[534.1,180.8],[521.6,200.5],[523.6,204.9],[529.4,211.4],[540.5,213.7],[541.5,220.2],[533.1,224.0],[519.6,242.4],[521.0,245.3],[533.4,245.6],[533.2,249.2],[512.1,280.1],[519.2,283.2],[527.8,283.4],[539.9,279.4],[556.3,281.9],[564.5,281.4],[582.3,285.6],[596.7,287.7],[627.2,298.1],[657.2,310.4],[663.9,315.5],[673.6,318.7],[684.1,317.3],[693.0,311.5],[694.3,307.4],[692.7,297.2],[687.5,294.2],[689.7,274.6],[691.8,265.6],[700.7,257.4],[694.1,249.6],[690.1,237.3],[695.1,232.7],[695.1,225.7],[690.0,215.3],[683.9,224.9],[674.9,221.2],[668.1,214.3],[663.1,213.1],[656.3,216.9],[643.6,212.5],[630.2,216.6],[623.1,215.2],[607.5,202.6],[603.6,201.6],[586.0,202.7],[568.9,211.2],[565.8,211.5],[555.6,202.5],[555.0,190.4],[548.9,179.3]]]}}]}