{"type":"FeatureCollection","features":[{"type":"Feature","properties":{"name":"Demerara-Mahaica","country_code":"gy","country_es":"Guyana"},"geometry":{"type":"MultiPolygon","coordinates":[[[[-58.557458,6.737609],[-58.57368,6.736872],[-58.563357,6.79438],[-58.534847,6.853363],[-58.502404,6.875482],[-58.485691,6.868846],[-58.553034,6.764889],[-58.557458,6.737609]]],[[[-58.440959,6.904974],[-58.46357,6.90055],[-58.447349,6.943313],[-58.418838,6.972067],[-58.333798,6.965431],[-58.390819,6.919719],[-58.440959,6.904974]]],[[[-58.476351,6.921194],[-58.498471,6.918245],[-58.447349,7.02294],[-58.410482,7.00377],[-58.457672,6.963957],[-58.476351,6.921194]]],[[[-58.274811,6.105752],[-58.311187,6.124184],[-58.364275,6.130083],[-58.389345,6.248049],[-58.439975,6.315879],[-58.503387,6.365278],[-58.559916,6.451541],[-58.581053,6.464812],[-58.577612,6.594575],[-58.566798,6.6366],[-58.462096,6.82166],[-58.434568,6.857787],[-58.398684,6.883592],[-58.354444,6.894652],[-58.273336,6.880643],[-58.214349,6.849677],[-58.174041,6.815762],[-58.190263,6.748668],[-58.177482,6.672727],[-58.241385,6.542965],[-58.286609,6.495041],[-58.303813,6.461125],[-58.29005,6.413939],[-58.305288,6.371176],[-58.291033,6.322515],[-58.269896,6.301134],[-58.269896,6.265744],[-58.289066,6.222244],[-58.257607,6.144828],[-58.274811,6.105752]]],[[[-58.519608,6.977965],[-58.550577,6.946999],[-58.597766,6.808389],[-58.597766,6.722126],[-58.611039,6.687473],[-58.611039,6.509787],[-58.617429,6.488405],[-58.669534,6.494303],[-58.750642,6.531905],[-58.818969,6.537804],[-58.826834,6.555498],[-58.813561,6.669041],[-58.833715,6.714016],[-58.743268,6.769312],[-58.695095,6.82977],[-58.655771,6.837143],[-58.641024,6.859999],[-58.63365,6.90866],[-58.606614,6.935202],[-58.519608,6.977965]]]]}},{"type":"Feature","properties":{"name":"Mahaica-Berbice","country_code":"gy","country_es":"Guyana"},"geometry":{"type":"Polygon","coordinates":[[[-57.520757,6.27754],[-57.517316,6.315142],[-57.466194,6.337998],[-57.364933,6.287125],[-57.290215,6.234778],[-57.207633,6.151464],[-57.167817,6.085108],[-57.14373,5.978201],[-57.136849,5.882353],[-57.170275,5.799777],[-57.183055,5.731946],[-57.15946,5.69287],[-57.161427,5.639048],[-57.196819,5.564582],[-57.24745,5.492327],[-57.265146,5.403853],[-57.324133,5.338971],[-57.331507,5.307268],[-57.288741,5.308005],[-57.287758,5.2387],[-57.253348,5.235013],[-57.269078,5.256395],[-57.237127,5.268929],[-57.185021,5.183403],[-57.233194,5.142115],[-57.24745,5.172344],[-57.288741,5.170869],[-57.317251,5.094928],[-57.31676,5.059538],[-57.280876,5.025623],[-57.315285,5.025623],[-57.381154,5.005716],[-57.490281,4.990971],[-57.517316,5.012352],[-57.610221,4.991708],[-57.649055,5.008665],[-57.720331,4.989496],[-57.762114,4.935674],[-57.798489,4.922403],[-57.850594,4.922403],[-57.91843,4.830241],[-57.925803,4.796326],[-57.885004,4.762411],[-57.87124,4.72186],[-57.844204,4.687207],[-57.837322,4.65108],[-57.862883,4.60758],[-57.879105,4.556707],[-57.914497,4.484453],[-57.921871,4.451275],[-57.952839,4.409249],[-57.945466,4.344368],[-57.965128,4.282436],[-58.052134,4.193224],[-58.067864,4.150461],[-58.032472,3.98752],[-58.007894,3.957291],[-57.942025,3.905681],[-57.875172,3.812045],[-57.854035,3.766333],[-57.847154,3.702189],[-57.829457,3.662375],[-57.725738,3.607816],[-57.70755,3.560629],[-57.643647,3.516392],[-57.660852,3.469205],[-57.657903,3.395476],[-57.564998,3.349765],[-57.535504,3.368197],[-57.481924,3.34829],[-57.430802,3.360824],[-57.424903,3.387366],[-57.366899,3.365248],[-57.308403,3.394739],[-57.283334,3.343866],[-57.292182,3.276036],[-57.280876,3.248019],[-57.2853,3.191985],[-57.275469,3.133739],[-57.233194,3.141849],[-57.248924,3.112357],[-57.22238,3.078442],[-57.206159,3.028306],[-57.226313,3.020933],[-57.234669,2.970061],[-57.188462,2.959001],[-57.184038,2.944993],[-57.219922,2.908128],[-57.206159,2.856518],[-57.174207,2.818916],[-57.133899,2.832925],[-57.136849,2.77173],[-57.089659,2.773942],[-57.103422,2.740764],[-57.062131,2.68178],[-57.055741,2.641967],[-57.027231,2.648602],[-57.022807,2.584458],[-56.996754,2.554967],[-56.994296,2.504831],[-56.959887,2.524738],[-56.959887,2.48345],[-56.929902,2.436263],[-56.930885,2.392763],[-56.895001,2.362534],[-56.884678,2.303551],[-56.838471,2.281432],[-56.826674,2.261525],[-56.801604,2.165678],[-56.705258,2.029279],[-56.677731,2.018957],[-56.579419,2.016745],[-56.490938,1.962923],[-56.481598,1.941542],[-56.574995,1.905415],[-56.639881,1.937118],[-56.68363,1.91205],[-56.737701,1.913525],[-56.780467,1.878872],[-56.806028,1.873711],[-56.890577,1.889932],[-56.922037,1.917949],[-57.011009,1.918686],[-57.055741,1.948178],[-57.073929,1.996839],[-57.104406,2.021169],[-57.15307,2.002737],[-57.238602,1.948915],[-57.294639,1.975457],[-57.341338,1.968822],[-57.384595,1.925322],[-57.429327,1.900254],[-57.465211,1.816203],[-57.53108,1.731414],[-57.561065,1.709296],[-57.638732,1.696025],[-57.72328,1.711508],[-57.791116,1.704872],[-57.905158,1.648101],[-57.939075,1.643677],[-57.98479,1.657686],[-57.993639,1.568474],[-58.027556,1.516863],[-58.069339,1.508753],[-58.14848,1.519075],[-58.187313,1.567736],[-58.219756,1.55594],[-58.299389,1.575109],[-58.331832,1.593541],[-58.351495,1.553728],[-58.382954,1.537507],[-58.386395,1.490321],[-58.413431,1.471889],[-58.501912,1.454194],[-58.485199,1.536033],[-58.450298,1.586906],[-58.395243,1.646626],[-58.345596,1.76533],[-58.303322,1.827999],[-58.266946,1.897305],[-58.107681,2.34189],[-58.039845,2.474602],[-58.026573,2.509255],[-58.020183,2.577823],[-58.030997,2.706111],[-58.010843,2.773204],[-57.932193,2.878637],[-57.932193,2.905179],[-57.994622,3.053374],[-58.100307,3.204519],[-58.119478,3.291519],[-58.115054,3.355663],[-58.148972,3.488375],[-58.151429,3.534087],[-58.188788,3.614451],[-58.282185,3.752324],[-58.297423,3.789926],[-58.328883,3.918215],[-58.323476,4.000054],[-58.364767,4.138664],[-58.439975,4.251469],[-58.396227,4.381232],[-58.37853,4.447588],[-58.292999,4.596521],[-58.282185,4.634123],[-58.114562,4.637809],[-58.065898,4.654029],[-58.026573,4.767572],[-57.995605,4.870792],[-57.970535,4.905445],[-57.872223,5.014564],[-57.823067,5.143589],[-57.769978,5.223217],[-57.730162,5.313903],[-57.698211,5.347819],[-57.688379,5.383946],[-57.680023,5.479793],[-57.607764,5.773235],[-57.652496,5.808624],[-57.682481,5.87498],[-57.689363,5.980413],[-57.706567,6.00843],[-57.665768,6.027599],[-57.623493,6.020964],[-57.597441,6.080684],[-57.618086,6.106489],[-57.624968,6.16621],[-57.605306,6.183905],[-57.539437,6.196439],[-57.52469,6.207498],[-57.520757,6.27754]]]}},{"type":"Feature","properties":{"name":"Potaro-Siparuni","country_code":"gy","country_es":"Guyana"},"geometry":{"type":"Polygon","coordinates":[[[-58.282185,4.634123],[-58.292999,4.596521],[-58.37853,4.447588],[-58.396227,4.381232],[-58.439975,4.251469],[-58.516659,4.283173],[-58.54861,4.289071],[-58.597766,4.272851],[-58.633159,4.24852],[-58.673467,4.189537],[-58.807663,4.070833],[-58.853378,4.018486],[-58.880414,4.000054],[-58.925146,3.999316],[-58.955131,4.016274],[-59.022966,4.104749],[-59.047544,4.174054],[-59.068681,4.185851],[-59.147823,4.156359],[-59.189605,4.159308],[-59.249084,4.150461],[-59.384755,4.154884],[-59.447183,4.179215],[-59.472744,4.219029],[-59.4462,4.272851],[-59.454556,4.357639],[-59.435877,4.405563],[-59.466354,4.50141],[-59.487982,4.509521],[-59.52485,4.495512],[-59.557784,4.46086],[-59.590227,4.395241],[-59.618246,4.372385],[-59.686573,4.37091],[-59.737695,4.415148],[-59.796191,4.448326],[-59.867959,4.461597],[-59.868942,4.480766],[-59.914657,4.474131],[-59.943168,4.50436],[-59.984459,4.488877],[-60.020343,4.499199],[-60.066549,4.494038],[-60.098501,4.525741],[-60.111773,4.502148],[-60.14864,4.513207],[-60.164861,4.546385],[-60.134876,4.593572],[-60.088178,4.60758],[-60.075889,4.650343],[-60.03214,4.725546],[-60.034598,4.788216],[-60.020343,4.832453],[-60.017885,4.892174],[-60.000189,4.95853],[-59.999697,4.996869],[-59.981509,5.057327],[-59.982984,5.086081],[-60.055243,5.125157],[-60.088669,5.155386],[-59.99134,5.242386],[-59.959881,5.324963],[-59.918098,5.374361],[-59.853212,5.395005],[-59.748018,5.399429],[-59.657079,5.381734],[-59.583837,5.386158],[-59.573022,5.405327],[-59.588261,5.535827],[-59.551394,5.57859],[-59.492407,5.611031],[-59.417689,5.588175],[-59.380822,5.585226],[-59.335107,5.608819],[-59.27612,5.68476],[-59.239744,5.704667],[-59.20681,5.704667],[-59.147823,5.638311],[-59.101124,5.57048],[-59.098175,5.51887],[-59.077529,5.510022],[-59.022966,5.529192],[-58.999863,5.523293],[-58.95169,5.477581],[-58.88877,5.470209],[-58.845021,5.414912],[-58.859277,5.409014],[-58.884838,5.326437],[-58.820443,5.229115],[-58.821918,5.157598],[-58.846004,5.012352],[-58.84453,4.971801],[-58.819952,4.907657],[-58.794391,4.76536],[-58.780627,4.748402],[-58.735403,4.762411],[-58.682315,4.670987],[-58.56729,4.621589],[-58.520591,4.614216],[-58.370174,4.614953],[-58.282185,4.634123]]]}},{"type":"Feature","properties":{"name":"Upper Takutu-Upper Essequibo","country_code":"gy","country_es":"Guyana"},"geometry":{"type":"Polygon","coordinates":[[[-58.282185,4.634123],[-58.370174,4.614953],[-58.520591,4.614216],[-58.56729,4.621589],[-58.682315,4.670987],[-58.735403,4.762411],[-58.780627,4.748402],[-58.794391,4.76536],[-58.819952,4.907657],[-58.84453,4.971801],[-58.846004,5.012352],[-58.821918,5.157598],[-58.820443,5.229115],[-58.884838,5.326437],[-58.859277,5.409014],[-58.845021,5.414912],[-58.80373,5.416386],[-58.693129,5.437031],[-58.675433,5.455463],[-58.634633,5.540251],[-58.617429,5.623565],[-58.618412,5.69287],[-58.611039,5.756277],[-58.611039,5.841802],[-58.573188,5.914057],[-58.570239,6.019489],[-58.584986,6.074786],[-58.570239,6.208235],[-58.582528,6.234778],[-58.57368,6.293761],[-58.597766,6.341685],[-58.60219,6.416151],[-58.598258,6.423524],[-58.581053,6.464812],[-58.559916,6.451541],[-58.503387,6.365278],[-58.439975,6.315879],[-58.389345,6.248049],[-58.364275,6.130083],[-58.311187,6.124184],[-58.274811,6.105752],[-58.248267,6.093955],[-58.17994,6.114599],[-58.125377,6.07921],[-58.113579,6.029811],[-58.125868,5.98926],[-58.115054,5.971565],[-58.032472,5.942811],[-57.950873,5.92954],[-57.909582,5.869819],[-57.870748,5.864658],[-57.843713,5.841065],[-57.797506,5.862447],[-57.752774,5.859497],[-57.682481,5.87498],[-57.652496,5.808624],[-57.607764,5.773235],[-57.680023,5.479793],[-57.688379,5.383946],[-57.698211,5.347819],[-57.730162,5.313903],[-57.769978,5.223217],[-57.823067,5.143589],[-57.872223,5.014564],[-57.970535,4.905445],[-57.995605,4.870792],[-58.026573,4.767572],[-58.065898,4.654029],[-58.114562,4.637809],[-58.282185,4.634123]]]}},{"type":"Feature","properties":{"name":"Upper Demerara-Berbice","country_code":"gy","country_es":"Guyana"},"geometry":{"type":"Polygon","coordinates":[[[-58.439975,4.251469],[-58.364767,4.138664],[-58.323476,4.000054],[-58.328883,3.918215],[-58.297423,3.789926],[-58.282185,3.752324],[-58.188788,3.614451],[-58.151429,3.534087],[-58.148972,3.488375],[-58.115054,3.355663],[-58.119478,3.291519],[-58.100307,3.204519],[-57.994622,3.053374],[-57.932193,2.905179],[-57.932193,2.878637],[-58.010843,2.773204],[-58.030997,2.706111],[-58.020183,2.577823],[-58.026573,2.509255],[-58.039845,2.474602],[-58.107681,2.34189],[-58.266946,1.897305],[-58.303322,1.827999],[-58.345596,1.76533],[-58.395243,1.646626],[-58.450298,1.586906],[-58.485199,1.536033],[-58.501912,1.454194],[-58.51371,1.439448],[-58.487657,1.378253],[-58.481267,1.334016],[-58.518625,1.266922],[-58.556475,1.286829],[-58.580562,1.272821],[-58.682315,1.282405],[-58.709351,1.272083],[-58.77227,1.201303],[-58.833715,1.18582],[-58.89811,1.217524],[-58.927604,1.284617],[-59.010677,1.328117],[-59.177808,1.356871],[-59.242202,1.378253],[-59.272679,1.404795],[-59.294308,1.451982],[-59.32036,1.4741],[-59.33904,1.524973],[-59.379839,1.523499],[-59.416706,1.555202],[-59.445708,1.600914],[-59.486016,1.636304],[-59.530748,1.703397],[-59.573022,1.726991],[-59.639875,1.72183],[-59.682149,1.76533],[-59.646757,1.839796],[-59.705252,1.857491],[-59.749984,1.850855],[-59.76424,1.920898],[-59.742611,1.971034],[-59.738187,2.022644],[-59.75195,2.06172],[-59.735729,2.123652],[-59.745069,2.153881],[-59.742119,2.263737],[-59.762765,2.288068],[-59.801598,2.293229],[-59.90286,2.359585],[-59.9063,2.458382],[-59.935794,2.524],[-59.94071,2.563077],[-59.971186,2.592568],[-59.964796,2.613212],[-60.000189,2.694314],[-59.993798,2.857255],[-59.973153,2.939832],[-59.974136,3.017984],[-59.959389,3.066645],[-59.915149,3.11973],[-59.905317,3.154383],[-59.916623,3.194196],[-59.897452,3.217052],[-59.879756,3.273086],[-59.843381,3.349027],[-59.820769,3.363773],[-59.823718,3.431604],[-59.841415,3.424968],[-59.821261,3.484688],[-59.862552,3.552519],[-59.863043,3.581273],[-59.837974,3.60929],[-59.755391,3.638045],[-59.679691,3.701452],[-59.680183,3.730943],[-59.659046,3.769282],[-59.598092,3.80246],[-59.602516,3.855545],[-59.581871,3.899045],[-59.528782,3.932223],[-59.548444,3.961715],[-59.596126,3.970562],[-59.595634,3.996367],[-59.66347,4.079681],[-59.646265,4.13424],[-59.726881,4.177003],[-59.738187,4.202808],[-59.726389,4.270639],[-59.738678,4.286859],[-59.693455,4.340681],[-59.686573,4.37091],[-59.618246,4.372385],[-59.590227,4.395241],[-59.557784,4.46086],[-59.52485,4.495512],[-59.487982,4.509521],[-59.466354,4.50141],[-59.435877,4.405563],[-59.454556,4.357639],[-59.4462,4.272851],[-59.472744,4.219029],[-59.447183,4.179215],[-59.384755,4.154884],[-59.249084,4.150461],[-59.189605,4.159308],[-59.147823,4.156359],[-59.068681,4.185851],[-59.047544,4.174054],[-59.022966,4.104749],[-58.955131,4.016274],[-58.925146,3.999316],[-58.880414,4.000054],[-58.853378,4.018486],[-58.807663,4.070833],[-58.673467,4.189537],[-58.633159,4.24852],[-58.597766,4.272851],[-58.54861,4.289071],[-58.516659,4.283173],[-58.439975,4.251469]]]}},{"type":"Feature","properties":{"name":"Pomeroon-Supenaam","country_code":"gy","country_es":"Guyana"},"geometry":{"type":"Polygon","coordinates":[[[-58.617429,6.488405],[-58.686247,6.382235],[-58.679365,6.376337],[-58.628735,6.422786],[-58.60219,6.416151],[-58.597766,6.341685],[-58.57368,6.293761],[-58.582528,6.234778],[-58.570239,6.208235],[-58.584986,6.074786],[-58.570239,6.019489],[-58.573188,5.914057],[-58.611039,5.841802],[-58.611039,5.756277],[-58.618412,5.69287],[-58.617429,5.623565],[-58.634633,5.540251],[-58.675433,5.455463],[-58.693129,5.437031],[-58.80373,5.416386],[-58.845021,5.414912],[-58.88877,5.470209],[-58.95169,5.477581],[-58.999863,5.523293],[-59.022966,5.529192],[-59.077529,5.510022],[-59.098175,5.51887],[-59.101124,5.57048],[-59.147823,5.638311],[-59.20681,5.704667],[-59.239744,5.704667],[-59.27612,5.68476],[-59.335107,5.608819],[-59.380822,5.585226],[-59.417689,5.588175],[-59.492407,5.611031],[-59.551394,5.57859],[-59.588261,5.535827],[-59.573022,5.405327],[-59.583837,5.386158],[-59.657079,5.381734],[-59.748018,5.399429],[-59.853212,5.395005],[-59.918098,5.374361],[-59.959881,5.324963],[-59.99134,5.242386],[-60.088669,5.155386],[-60.131435,5.243123],[-60.176167,5.226903],[-60.213526,5.267454],[-60.273988,5.247547],[-60.333467,5.194462],[-60.419981,5.206996],[-60.456357,5.174556],[-60.497156,5.195937],[-60.554177,5.187827],[-60.601859,5.206996],[-60.672643,5.213632],[-60.739987,5.201835],[-60.816671,5.285149],[-61.379507,5.905947],[-61.396712,5.94576],[-61.338216,5.986311],[-61.269398,6.107227],[-61.194189,6.133032],[-61.161254,6.183167],[-61.121438,6.186854],[-61.113082,6.254684],[-61.151915,6.303346],[-61.161254,6.342422],[-61.138643,6.424261],[-61.170594,6.509049],[-61.209427,6.540753],[-61.204512,6.596049],[-61.170594,6.669041],[-61.129795,6.716228],[-61.070807,6.711804],[-61.061468,6.730236],[-61.01821,6.719914],[-61.000023,6.73466],[-60.933662,6.731711],[-60.901219,6.764889],[-60.907609,6.815762],[-60.837808,6.78627],[-60.793567,6.793643],[-60.721308,6.759728],[-60.700171,6.767101],[-60.65593,6.824609],[-60.620538,6.84599],[-60.54877,6.862948],[-60.420964,6.941838],[-60.377215,6.938152],[-60.359519,7.005245],[-60.313313,7.039898],[-60.292175,7.105516],[-60.348213,7.152703],[-60.319703,7.156389],[-60.266614,7.137957],[-60.212543,7.098143],[-60.154047,7.092245],[-60.087686,7.067915],[-60.031157,7.113626],[-59.957423,7.10183],[-59.885655,7.184406],[-59.831583,7.192516],[-59.686573,7.114364],[-59.582362,7.088559],[-59.486508,6.99566],[-59.330683,6.950686],[-59.268255,7.018516],[-59.208285,7.008194],[-59.154704,6.983864],[-59.174858,6.90055],[-59.173384,6.871796],[-59.076546,6.834194],[-59.02739,6.83788],[-59.002812,6.861474],[-58.964962,6.854101],[-58.950215,6.792906],[-58.927604,6.766363],[-58.854361,6.767838],[-58.833715,6.714016],[-58.813561,6.669041],[-58.826834,6.555498],[-58.818969,6.537804],[-58.750642,6.531905],[-58.669534,6.494303],[-58.617429,6.488405]]]}},{"type":"Feature","properties":{"name":"Barima-Waini","country_code":"gy","country_es":"Guyana"},"geometry":{"type":"Polygon","coordinates":[[[-59.154704,6.983864],[-59.208285,7.008194],[-59.268255,7.018516],[-59.330683,6.950686],[-59.486508,6.99566],[-59.582362,7.088559],[-59.686573,7.114364],[-59.831583,7.192516],[-59.885655,7.184406],[-59.957423,7.10183],[-60.031157,7.113626],[-60.087686,7.067915],[-60.154047,7.092245],[-60.212543,7.098143],[-60.266614,7.137957],[-60.319703,7.156389],[-60.348213,7.152703],[-60.3723,7.171872],[-60.415557,7.171135],[-60.475036,7.188093],[-60.512886,7.165237],[-60.547787,7.125423],[-60.627911,7.191042],[-60.64315,7.221271],[-60.630861,7.277305],[-60.606283,7.299423],[-60.601859,7.329652],[-60.628894,7.384949],[-60.653472,7.398957],[-60.656422,7.428449],[-60.701154,7.453517],[-60.730647,7.525034],[-60.716884,7.551576],[-60.671169,7.566322],[-60.624962,7.628992],[-60.600875,7.634153],[-60.584654,7.688712],[-60.582196,7.735899],[-60.539922,7.800043],[-60.503055,7.821424],[-60.374758,7.823636],[-60.342315,7.864187],[-60.27153,7.918009],[-60.231222,7.963721],[-60.183049,7.982891],[-60.129469,8.028603],[-60.046395,8.033026],[-60.019359,8.060306],[-59.999205,8.114865],[-59.993307,8.168688],[-59.939727,8.208501],[-59.848788,8.227671],[-59.816836,8.267484],[-59.815853,8.287391],[-59.85567,8.352273],[-59.959389,8.468027],[-60.020834,8.557976],[-59.968237,8.527747],[-59.932353,8.492358],[-59.875332,8.405357],[-59.837974,8.36923],[-59.735237,8.328679],[-59.680674,8.289603],[-59.622179,8.267484],[-59.60989,8.242416],[-59.543529,8.229883],[-59.433911,8.130348],[-59.456523,8.167213],[-59.533206,8.229145],[-59.608906,8.259374],[-59.700337,8.322781],[-59.76129,8.355222],[-59.781444,8.394298],[-59.755883,8.411256],[-59.703778,8.375129],[-59.66347,8.363332],[-59.611364,8.322781],[-59.545495,8.283705],[-59.454556,8.242416],[-59.348379,8.167213],[-59.165519,8.058831],[-59.105057,8.013119],[-59.021492,7.930543],[-58.884838,7.778661],[-58.833715,7.738111],[-58.781118,7.665119],[-58.829783,7.604661],[-58.88877,7.556],[-59.025424,7.498492],[-59.085394,7.435822],[-59.100633,7.394534],[-59.071139,7.342923],[-59.072614,7.325229],[-59.118329,7.280254],[-59.174367,7.110677],[-59.17535,7.069389],[-59.154704,6.983864]]]}},{"type":"Feature","properties":{"name":"East Berbice-Corentyne","country_code":"gy","country_es":"Guyana"},"geometry":{"type":"Polygon","coordinates":[[[-58.125377,6.07921],[-58.17994,6.114599],[-58.248267,6.093955],[-58.274811,6.105752],[-58.257607,6.144828],[-58.289066,6.222244],[-58.269896,6.265744],[-58.269896,6.301134],[-58.291033,6.322515],[-58.305288,6.371176],[-58.29005,6.413939],[-58.303813,6.461125],[-58.286609,6.495041],[-58.241385,6.542965],[-58.177482,6.672727],[-58.190263,6.748668],[-58.174041,6.815762],[-58.153396,6.831982],[-58.067864,6.82166],[-58.005928,6.791431],[-57.913514,6.712541],[-57.913023,6.656507],[-57.890902,6.596049],[-57.891886,6.53338],[-57.938584,6.526744],[-57.928753,6.488405],[-57.936618,6.451541],[-57.994622,6.436058],[-58.07917,6.344634],[-58.131767,6.207498],[-58.134225,6.127871],[-58.125377,6.07921]]]}},{"type":"Feature","properties":{"name":"Essequibo Islands-West Demerara","country_code":"gy","country_es":"Guyana"},"geometry":{"type":"Polygon","coordinates":[[[-57.682481,5.87498],[-57.752774,5.859497],[-57.797506,5.862447],[-57.843713,5.841065],[-57.870748,5.864658],[-57.909582,5.869819],[-57.950873,5.92954],[-58.032472,5.942811],[-58.115054,5.971565],[-58.125868,5.98926],[-58.113579,6.029811],[-58.125377,6.07921],[-58.134225,6.127871],[-58.131767,6.207498],[-58.07917,6.344634],[-57.994622,6.436058],[-57.936618,6.451541],[-57.928753,6.488405],[-57.938584,6.526744],[-57.891886,6.53338],[-57.890902,6.596049],[-57.913023,6.656507],[-57.913514,6.712541],[-57.891886,6.696321],[-57.757198,6.567295],[-57.646597,6.478083],[-57.598424,6.42721],[-57.528622,6.265744],[-57.520757,6.27754],[-57.52469,6.207498],[-57.539437,6.196439],[-57.605306,6.183905],[-57.624968,6.16621],[-57.618086,6.106489],[-57.597441,6.080684],[-57.623493,6.020964],[-57.665768,6.027599],[-57.706567,6.00843],[-57.689363,5.980413],[-57.682481,5.87498]]]}},{"type":"Feature","properties":{"name":"Cuyuni-Mazaruni","country_code":"gy","country_es":"Guyana"},"geometry":{"type":"Polygon","coordinates":[[[-58.833715,6.714016],[-58.854361,6.767838],[-58.927604,6.766363],[-58.950215,6.792906],[-58.964962,6.854101],[-59.002812,6.861474],[-59.02739,6.83788],[-59.076546,6.834194],[-59.173384,6.871796],[-59.174858,6.90055],[-59.154704,6.983864],[-59.17535,7.069389],[-59.174367,7.110677],[-59.118329,7.280254],[-59.072614,7.325229],[-59.071139,7.342923],[-59.100633,7.394534],[-59.085394,7.435822],[-59.025424,7.498492],[-58.88877,7.556],[-58.829783,7.604661],[-58.781118,7.665119],[-58.737861,7.588441],[-58.741794,7.629729],[-58.703943,7.620882],[-58.663144,7.585492],[-58.568273,7.453517],[-58.489623,7.376101],[-58.464062,7.311957],[-58.47291,7.244864],[-58.467503,7.115838],[-58.484707,7.010406],[-58.519608,6.977965],[-58.606614,6.935202],[-58.63365,6.90866],[-58.641024,6.859999],[-58.655771,6.837143],[-58.695095,6.82977],[-58.743268,6.769312],[-58.833715,6.714016]]]}}]}