{"type":"FeatureCollection","features":[{"type":"Feature","properties":{"name":"Islas de la Bahía","country_code":"hn","country_es":"Honduras"},"geometry":{"type":"MultiPolygon","coordinates":[[[[-86.881423,16.104356],[-86.897631,16.093743],[-86.963711,16.066501],[-86.997375,16.08419],[-86.988647,16.095511],[-86.944386,16.116738],[-86.890774,16.127705],[-86.872695,16.120984],[-86.881423,16.104356]]],[[[-86.201919,16.422758],[-86.223738,16.412145],[-86.243064,16.417805],[-86.27361,16.411084],[-86.312261,16.412499],[-86.362133,16.394102],[-86.416992,16.364031],[-86.453149,16.351295],[-86.491176,16.325822],[-86.548529,16.313086],[-86.600271,16.269571],[-86.599024,16.309195],[-86.531073,16.355894],[-86.440057,16.396579],[-86.33221,16.429126],[-86.301663,16.433018],[-86.181971,16.428065],[-86.201919,16.422758]]],[[[-85.895831,16.436556],[-85.94695,16.402947],[-85.95069,16.412145],[-85.927001,16.454952],[-85.911416,16.462028],[-85.883987,16.502713],[-85.850946,16.517218],[-85.817283,16.498467],[-85.844089,16.483609],[-85.862791,16.452476],[-85.882116,16.450707],[-85.895831,16.436556]]]]}},{"type":"Feature","properties":{"name":"Valle","country_code":"hn","country_es":"Honduras"},"geometry":{"type":"MultiPolygon","coordinates":[[[[-87.624513,13.25324],[-87.646955,13.248994],[-87.673761,13.283665],[-87.615162,13.290033],[-87.624513,13.25324]]],[[[-87.622643,13.368926],[-87.570901,13.371756],[-87.588356,13.357605],[-87.575888,13.318689],[-87.591473,13.304538],[-87.636981,13.319043],[-87.6588,13.331779],[-87.656306,13.349114],[-87.634487,13.373171],[-87.622643,13.368926]]],[[[-87.379518,13.393337],[-87.400713,13.41138],[-87.42939,13.409611],[-87.447468,13.420578],[-87.474898,13.393337],[-87.472404,13.366803],[-87.481755,13.35902],[-87.547835,13.355129],[-87.542848,13.371756],[-87.59833,13.384492],[-87.618279,13.37211],[-87.605811,13.406781],[-87.619526,13.412087],[-87.618902,13.451003],[-87.636358,13.463739],[-87.660047,13.440743],[-87.651319,13.412441],[-87.665657,13.385907],[-87.693087,13.36645],[-87.720516,13.35902],[-87.781609,13.38237],[-87.786596,13.398997],[-87.817143,13.406427],[-87.737971,13.441805],[-87.72114,13.460909],[-87.725503,13.498763],[-87.747946,13.513268],[-87.779739,13.510084],[-87.789713,13.532726],[-87.784103,13.560321],[-87.75979,13.616926],[-87.754803,13.690159],[-87.731737,13.721999],[-87.737971,13.738627],[-87.703685,13.815043],[-87.749816,13.845468],[-87.693087,13.849714],[-87.668151,13.834147],[-87.646955,13.834147],[-87.649449,13.761268],[-87.601447,13.72306],[-87.552199,13.718461],[-87.479261,13.668224],[-87.461183,13.669993],[-87.421909,13.637799],[-87.424402,13.598176],[-87.40009,13.545462],[-87.364556,13.519283],[-87.367673,13.49841],[-87.349595,13.453126],[-87.347724,13.433314],[-87.358946,13.408549],[-87.379518,13.393337]]]]}},{"type":"Feature","properties":{"name":"Atlántida","country_code":"hn","country_es":"Honduras"},"geometry":{"type":"Polygon","coordinates":[[[-87.72862,15.920744],[-87.687476,15.91473],[-87.643215,15.889257],[-87.636358,15.903762],[-87.59085,15.935249],[-87.617032,15.89421],[-87.509808,15.798336],[-87.479261,15.786307],[-87.447468,15.791968],[-87.426896,15.818855],[-87.390739,15.818148],[-87.380141,15.839374],[-87.344607,15.850342],[-87.241747,15.827346],[-87.151978,15.796921],[-87.059091,15.787369],[-86.95249,15.763312],[-86.878929,15.764373],[-86.799758,15.784538],[-86.770458,15.806827],[-86.741782,15.792322],[-86.698767,15.788784],[-86.503644,15.805058],[-86.470604,15.803996],[-86.438187,15.790907],[-86.447538,15.779232],[-86.441304,15.750222],[-86.408887,15.71449],[-86.394549,15.684772],[-86.363379,15.67239],[-86.361509,15.626399],[-86.375847,15.604818],[-86.420732,15.582884],[-86.46998,15.596681],[-86.517359,15.58819],[-86.547282,15.594558],[-86.583439,15.592436],[-86.636428,15.604818],[-86.669468,15.59562],[-86.732431,15.564133],[-86.779186,15.55069],[-86.843396,15.552812],[-86.855864,15.569086],[-86.926931,15.55069],[-86.990518,15.548921],[-87.04413,15.498684],[-87.072183,15.481349],[-87.137016,15.459061],[-87.182524,15.426513],[-87.223668,15.42722],[-87.342737,15.456584],[-87.375777,15.441372],[-87.416922,15.460829],[-87.430636,15.480287],[-87.438117,15.529109],[-87.46991,15.538661],[-87.508561,15.517081],[-87.610175,15.504698],[-87.62576,15.510712],[-87.671268,15.564841],[-87.687476,15.644795],[-87.697451,15.663546],[-87.78722,15.720858],[-87.764154,15.729349],[-87.75792,15.751283],[-87.794701,15.793029],[-87.789713,15.812841],[-87.766648,15.838667],[-87.751686,15.872276],[-87.72488,15.897394],[-87.72862,15.920744]]]}},{"type":"Feature","properties":{"name":"Gracias a Dios","country_code":"hn","country_es":"Honduras"},"geometry":{"type":"Polygon","coordinates":[[[-85.000009,15.987608],[-84.95076,15.972042],[-84.854757,15.929942],[-84.676465,15.876168],[-84.662127,15.865908],[-84.680829,15.834775],[-84.680829,15.794444],[-84.660257,15.774633],[-84.615372,15.779232],[-84.609138,15.808949],[-84.575475,15.783831],[-84.549915,15.787369],[-84.477601,15.778878],[-84.452665,15.795859],[-84.473861,15.80435],[-84.577968,15.822393],[-84.632827,15.847158],[-84.641555,15.862724],[-84.46451,15.830176],[-84.314894,15.817794],[-84.294946,15.811426],[-84.167149,15.709537],[-83.894101,15.48524],[-83.798721,15.429343],[-83.737005,15.411654],[-83.728901,15.393611],[-83.75072,15.386536],[-83.806202,15.422621],[-83.862931,15.449155],[-83.905946,15.451985],[-83.904075,15.46932],[-83.945843,15.517788],[-83.963922,15.512481],[-84.003819,15.5376],[-84.025015,15.535123],[-84.054938,15.511066],[-84.089225,15.524864],[-84.07364,15.550336],[-84.103563,15.551397],[-84.099822,15.523449],[-84.07551,15.490547],[-84.089225,15.482764],[-84.119148,15.539015],[-84.142213,15.552812],[-84.172136,15.545029],[-84.212657,15.551043],[-84.198943,15.520618],[-84.180864,15.51425],[-84.185851,15.483118],[-84.155305,15.507175],[-84.146577,15.535123],[-84.127875,15.532647],[-84.097952,15.473566],[-84.092341,15.451277],[-84.124135,15.430404],[-84.116654,15.404932],[-84.082367,15.360002],[-84.035612,15.341959],[-84.025638,15.351511],[-84.035612,15.380521],[-84.010053,15.356818],[-84.01317,15.325685],[-84.000079,15.308704],[-83.931505,15.311534],[-83.958934,15.29809],[-83.95083,15.275095],[-83.921531,15.247854],[-83.900958,15.243608],[-83.859814,15.251391],[-83.821787,15.270849],[-83.877269,15.304812],[-83.892231,15.323209],[-83.911556,15.326393],[-83.988234,15.352573],[-84.034989,15.401394],[-83.993845,15.421206],[-83.904699,15.383352],[-83.885373,15.352926],[-83.854204,15.335591],[-83.825527,15.329577],[-83.794981,15.29809],[-83.815553,15.284293],[-83.799345,15.274387],[-83.774409,15.286062],[-83.766928,15.256344],[-83.769421,15.219197],[-83.759447,15.201862],[-83.740122,15.222735],[-83.730771,15.203277],[-83.705835,15.237594],[-83.669678,15.252099],[-83.634144,15.256344],[-83.622923,15.295968],[-83.544375,15.280755],[-83.527543,15.284293],[-83.533154,15.211414],[-83.556219,15.209645],[-83.573675,15.234764],[-83.59861,15.232995],[-83.6223,15.195848],[-83.621676,15.17639],[-83.603598,15.181697],[-83.595494,15.209645],[-83.587389,15.166838],[-83.554973,15.168253],[-83.52692,15.200093],[-83.482035,15.21566],[-83.502607,15.246085],[-83.517569,15.289954],[-83.530037,15.301274],[-83.548115,15.292076],[-83.593,15.312242],[-83.610455,15.304812],[-83.609832,15.325332],[-83.669678,15.343021],[-83.689003,15.36071],[-83.72516,15.375568],[-83.703341,15.402102],[-83.673418,15.380521],[-83.542505,15.315779],[-83.407851,15.26625],[-83.356109,15.229811],[-83.344264,15.210707],[-83.328056,15.146672],[-83.310601,15.106341],[-83.284418,15.068487],[-83.253872,15.04443],[-83.130439,14.997023],[-83.177817,14.997023],[-83.217714,14.982518],[-83.26634,14.982872],[-83.285665,14.99207],[-83.272573,15.003038],[-83.354862,15.009759],[-83.390396,15.030986],[-83.415332,14.99667],[-83.458969,14.982518],[-83.485776,15.010113],[-83.509465,15.011528],[-83.513205,14.968721],[-83.52879,14.97332],[-83.52692,14.948202],[-83.604221,14.909286],[-83.615442,14.872493],[-83.650353,14.888767],[-83.69212,14.886998],[-83.713939,14.867186],[-83.705212,14.83853],[-83.746356,14.851973],[-83.744486,14.836407],[-83.765058,14.828978],[-83.821163,14.825086],[-83.801215,14.803859],[-83.839242,14.797491],[-83.869165,14.777326],[-83.889737,14.790416],[-83.896595,14.78051],[-83.924648,14.803859],[-83.924648,14.763528],[-84.023768,14.758222],[-84.04808,14.770604],[-84.074886,14.771665],[-84.104809,14.793953],[-84.122265,14.784401],[-84.095458,14.743363],[-84.102316,14.731688],[-84.129122,14.734518],[-84.144084,14.721782],[-84.183358,14.713645],[-84.2351,14.754684],[-84.261906,14.758222],[-84.266893,14.746547],[-84.261906,14.699494],[-84.267516,14.677913],[-84.287465,14.666946],[-84.338584,14.674729],[-84.362896,14.715414],[-84.408404,14.649257],[-84.482588,14.61954],[-84.519369,14.63829],[-84.53433,14.634045],[-84.527473,14.660224],[-84.600411,14.662701],[-84.661504,14.68322],[-84.698907,14.674729],[-84.72509,14.726028],[-84.745662,14.738764],[-84.746909,14.76459],[-84.766858,14.767066],[-84.755637,14.781571],[-84.769975,14.805274],[-84.817976,14.828624],[-84.904629,14.816949],[-84.966345,14.76459],[-85.000009,14.741948],[-85.000009,14.743009],[-85.000009,15.068841],[-85.000009,15.987608]]]}},{"type":"Feature","properties":{"name":"Colón","country_code":"hn","country_es":"Honduras"},"geometry":{"type":"Polygon","coordinates":[[[-86.420732,15.582884],[-86.375847,15.604818],[-86.361509,15.626399],[-86.363379,15.67239],[-86.394549,15.684772],[-86.408887,15.71449],[-86.441304,15.750222],[-86.447538,15.779232],[-86.438187,15.790907],[-86.415121,15.776402],[-86.374601,15.770741],[-86.33782,15.781354],[-86.243064,15.838667],[-86.20753,15.874045],[-86.137709,15.895626],[-85.994951,15.900578],[-85.971886,15.909069],[-85.933235,15.936664],[-85.912039,15.95966],[-85.903312,15.983717],[-85.91952,16.003882],[-86.01303,16.019802],[-86.008043,16.031123],[-85.98186,16.033246],[-85.850946,16.008481],[-85.813543,16.004236],[-85.69198,15.971688],[-85.686993,15.935249],[-85.673278,15.9494],[-85.608445,15.906947],[-85.564184,15.888904],[-85.488752,15.8698],[-85.362203,15.881121],[-85.254355,15.884305],[-85.196379,15.9073],[-85.124065,15.958598],[-85.076063,15.986193],[-85.000009,15.987608],[-85.000009,15.068841],[-85.059231,15.13712],[-85.092895,15.166838],[-85.232536,15.226627],[-85.249368,15.236886],[-85.307344,15.305166],[-85.360332,15.380875],[-85.395866,15.409178],[-85.504961,15.449508],[-85.607821,15.53477],[-85.68824,15.576869],[-85.709435,15.581469],[-85.736241,15.571563],[-85.764294,15.584653],[-85.786113,15.574393],[-85.795464,15.548567],[-85.836608,15.519557],[-85.872765,15.531232],[-85.908922,15.484179],[-85.970015,15.426513],[-86.027368,15.396441],[-86.063525,15.396795],[-86.148931,15.373092],[-86.171996,15.378045],[-86.232466,15.409531],[-86.241817,15.454461],[-86.235583,15.499038],[-86.24057,15.520972],[-86.314131,15.541845],[-86.377718,15.542553],[-86.420732,15.582884]]]}},{"type":"Feature","properties":{"name":"Olancho","country_code":"hn","country_es":"Honduras"},"geometry":{"type":"Polygon","coordinates":[[[-85.000009,15.068841],[-85.000009,14.743009],[-85.000009,14.741948],[-85.024944,14.712584],[-85.033049,14.669423],[-85.054244,14.663055],[-85.020581,14.633691],[-85.04801,14.605742],[-85.022451,14.605742],[-85.029308,14.588761],[-85.065465,14.55409],[-85.086661,14.544538],[-85.119078,14.573902],[-85.137156,14.578501],[-85.149624,14.536401],[-85.152118,14.485811],[-85.1783,14.455386],[-85.1783,14.427437],[-85.20573,14.406918],[-85.171443,14.381092],[-85.158352,14.338284],[-85.190145,14.309628],[-85.240017,14.297246],[-85.278044,14.297246],[-85.321682,14.281679],[-85.347865,14.249132],[-85.362826,14.249839],[-85.393996,14.210923],[-85.400853,14.185451],[-85.4314,14.133092],[-85.474414,14.103728],[-85.510571,14.093822],[-85.527403,14.050661],[-85.56356,14.04217],[-85.575405,14.075072],[-85.605951,14.097006],[-85.615302,14.147597],[-85.646472,14.183328],[-85.672031,14.17696],[-85.757437,14.198541],[-85.779879,14.170239],[-85.803568,14.167408],[-85.844713,14.182267],[-85.871519,14.165639],[-85.877129,14.14229],[-85.912663,14.132738],[-85.944456,14.167762],[-85.982483,14.184744],[-86.019264,14.254792],[-86.040459,14.26859],[-86.066642,14.271774],[-86.080357,14.253377],[-86.142073,14.268943],[-86.185088,14.334039],[-86.232466,14.341468],[-86.298546,14.316704],[-86.33595,14.290878],[-86.354028,14.286632],[-86.428213,14.290524],[-86.457512,14.323072],[-86.49928,14.342883],[-86.522969,14.364818],[-86.579075,14.38003],[-86.607751,14.381092],[-86.630817,14.407979],[-86.671338,14.40621],[-86.714352,14.423545],[-86.731184,14.500316],[-86.748639,14.541354],[-86.743652,14.575317],[-86.806615,14.639705],[-86.825941,14.644658],[-86.848383,14.665885],[-86.891397,14.762113],[-86.907606,14.809874],[-86.912593,14.847728],[-86.933165,14.897611],[-86.906359,14.940065],[-86.961218,14.977565],[-86.987401,15.016128],[-86.973686,15.040892],[-86.92132,15.053982],[-86.885787,15.081577],[-86.85524,15.171437],[-86.862721,15.231934],[-86.858981,15.253868],[-86.815343,15.285708],[-86.768588,15.294906],[-86.738665,15.270849],[-86.693157,15.268727],[-86.666351,15.28217],[-86.632687,15.340898],[-86.611492,15.341252],[-86.52671,15.386536],[-86.50302,15.389012],[-86.451902,15.366724],[-86.409511,15.328516],[-86.372107,15.329577],[-86.290442,15.374153],[-86.232466,15.409531],[-86.171996,15.378045],[-86.148931,15.373092],[-86.063525,15.396795],[-86.027368,15.396441],[-85.970015,15.426513],[-85.908922,15.484179],[-85.872765,15.531232],[-85.836608,15.519557],[-85.795464,15.548567],[-85.786113,15.574393],[-85.764294,15.584653],[-85.736241,15.571563],[-85.709435,15.581469],[-85.68824,15.576869],[-85.607821,15.53477],[-85.504961,15.449508],[-85.395866,15.409178],[-85.360332,15.380875],[-85.307344,15.305166],[-85.249368,15.236886],[-85.232536,15.226627],[-85.092895,15.166838],[-85.059231,15.13712],[-85.000009,15.068841]]]}},{"type":"Feature","properties":{"name":"Francisco Morazán","country_code":"hn","country_es":"Honduras"},"geometry":{"type":"Polygon","coordinates":[[[-86.987401,15.016128],[-86.961218,14.977565],[-86.906359,14.940065],[-86.933165,14.897611],[-86.912593,14.847728],[-86.907606,14.809874],[-86.891397,14.762113],[-86.848383,14.665885],[-86.825941,14.644658],[-86.806615,14.639705],[-86.743652,14.575317],[-86.748639,14.541354],[-86.731184,14.500316],[-86.714352,14.423545],[-86.788537,14.368356],[-86.821577,14.337577],[-86.829058,14.304675],[-86.847759,14.271774],[-86.897008,14.229674],[-86.920697,14.174838],[-86.901995,14.16104],[-86.911969,14.140875],[-86.963088,14.140875],[-86.984284,14.132384],[-86.95249,14.080378],[-86.916957,14.056321],[-86.91571,13.999363],[-86.926308,13.979197],[-86.954984,13.958678],[-86.989271,13.964692],[-86.984907,13.934621],[-86.992388,13.911625],[-86.995505,13.846176],[-87.013583,13.800184],[-87.035402,13.775066],[-87.084027,13.783557],[-87.122054,13.810444],[-87.131405,13.790632],[-87.128912,13.75207],[-87.110833,13.724122],[-87.130159,13.659734],[-87.183147,13.68096],[-87.214317,13.671054],[-87.263566,13.68839],[-87.297853,13.684498],[-87.319672,13.694758],[-87.360192,13.690512],[-87.393232,13.720938],[-87.386998,13.755254],[-87.423779,13.760915],[-87.454325,13.756669],[-87.465547,13.697942],[-87.461183,13.669993],[-87.479261,13.668224],[-87.552199,13.718461],[-87.601447,13.72306],[-87.649449,13.761268],[-87.646955,13.834147],[-87.619526,13.868818],[-87.606434,13.903134],[-87.59646,13.957263],[-87.615162,14.088515],[-87.613915,14.109388],[-87.579628,14.143705],[-87.540978,14.146889],[-87.50108,14.166701],[-87.483002,14.201371],[-87.425026,14.228966],[-87.430013,14.245594],[-87.456196,14.265759],[-87.463676,14.321657],[-87.459313,14.337931],[-87.419415,14.339699],[-87.382635,14.394889],[-87.410688,14.421423],[-87.411934,14.452202],[-87.451208,14.482273],[-87.46617,14.52225],[-87.415051,14.571779],[-87.39822,14.626615],[-87.342114,14.607511],[-87.327152,14.633337],[-87.325905,14.665885],[-87.312191,14.679329],[-87.266059,14.703386],[-87.249228,14.762113],[-87.257332,14.826855],[-87.245487,14.845605],[-87.208083,14.859403],[-87.219304,14.881337],[-87.246111,14.897965],[-87.209954,14.952447],[-87.190628,14.969075],[-87.184394,15.011528],[-87.166939,15.026033],[-87.119561,15.031694],[-87.074676,15.02108],[-87.021064,15.022849],[-86.987401,15.016128]]]}},{"type":"Feature","properties":{"name":"Yoro","country_code":"hn","country_es":"Honduras"},"geometry":{"type":"Polygon","coordinates":[[[-86.420732,15.582884],[-86.377718,15.542553],[-86.314131,15.541845],[-86.24057,15.520972],[-86.235583,15.499038],[-86.241817,15.454461],[-86.232466,15.409531],[-86.290442,15.374153],[-86.372107,15.329577],[-86.409511,15.328516],[-86.451902,15.366724],[-86.50302,15.389012],[-86.52671,15.386536],[-86.611492,15.341252],[-86.632687,15.340898],[-86.666351,15.28217],[-86.693157,15.268727],[-86.738665,15.270849],[-86.768588,15.294906],[-86.815343,15.285708],[-86.858981,15.253868],[-86.862721,15.231934],[-86.85524,15.171437],[-86.885787,15.081577],[-86.92132,15.053982],[-86.973686,15.040892],[-86.987401,15.016128],[-87.021064,15.022849],[-87.074676,15.02108],[-87.119561,15.031694],[-87.166939,15.026033],[-87.184394,15.011528],[-87.190628,14.969075],[-87.209954,14.952447],[-87.246111,14.897965],[-87.272293,14.921314],[-87.297229,14.916361],[-87.315308,14.928036],[-87.375154,14.93865],[-87.418792,14.908224],[-87.444351,14.911055],[-87.463676,14.971905],[-87.496716,14.993132],[-87.506067,15.022849],[-87.537237,15.053982],[-87.554692,15.055751],[-87.587109,15.026033],[-87.63137,15.016481],[-87.736101,15.016481],[-87.741088,15.061411],[-87.731737,15.081577],[-87.738595,15.110941],[-87.767894,15.139597],[-87.794077,15.139597],[-87.799688,15.153394],[-87.842702,15.16047],[-87.867638,15.18948],[-87.923121,15.190895],[-87.91751,15.237948],[-87.935588,15.24467],[-87.926861,15.259175],[-87.925614,15.296675],[-87.913146,15.323563],[-87.870132,15.34762],[-87.82026,15.416253],[-87.824,15.430051],[-87.852677,15.451631],[-87.846443,15.460122],[-87.81652,15.451277],[-87.813403,15.46932],[-87.830858,15.508236],[-87.809662,15.533708],[-87.793454,15.577931],[-87.777869,15.574039],[-87.762284,15.610479],[-87.777245,15.63312],[-87.819636,15.671683],[-87.805922,15.687956],[-87.823377,15.691848],[-87.78722,15.720858],[-87.697451,15.663546],[-87.687476,15.644795],[-87.671268,15.564841],[-87.62576,15.510712],[-87.610175,15.504698],[-87.508561,15.517081],[-87.46991,15.538661],[-87.438117,15.529109],[-87.430636,15.480287],[-87.416922,15.460829],[-87.375777,15.441372],[-87.342737,15.456584],[-87.223668,15.42722],[-87.182524,15.426513],[-87.137016,15.459061],[-87.072183,15.481349],[-87.04413,15.498684],[-86.990518,15.548921],[-86.926931,15.55069],[-86.855864,15.569086],[-86.843396,15.552812],[-86.779186,15.55069],[-86.732431,15.564133],[-86.669468,15.59562],[-86.636428,15.604818],[-86.583439,15.592436],[-86.547282,15.594558],[-86.517359,15.58819],[-86.46998,15.596681],[-86.420732,15.582884]]]}},{"type":"Feature","properties":{"name":"Comayagua","country_code":"hn","country_es":"Honduras"},"geometry":{"type":"Polygon","coordinates":[[[-87.246111,14.897965],[-87.219304,14.881337],[-87.208083,14.859403],[-87.245487,14.845605],[-87.257332,14.826855],[-87.249228,14.762113],[-87.266059,14.703386],[-87.312191,14.679329],[-87.325905,14.665885],[-87.327152,14.633337],[-87.342114,14.607511],[-87.39822,14.626615],[-87.415051,14.571779],[-87.46617,14.52225],[-87.451208,14.482273],[-87.411934,14.452202],[-87.410688,14.421423],[-87.382635,14.394889],[-87.419415,14.339699],[-87.459313,14.337931],[-87.463676,14.321657],[-87.456196,14.265759],[-87.430013,14.245594],[-87.425026,14.228966],[-87.483002,14.201371],[-87.50108,14.166701],[-87.540978,14.146889],[-87.579628,14.143705],[-87.613915,14.109388],[-87.615162,14.088515],[-87.650696,14.085331],[-87.68997,14.051015],[-87.691217,14.084624],[-87.703685,14.104082],[-87.742335,14.130969],[-87.780986,14.142998],[-87.777245,14.175545],[-87.79096,14.191465],[-87.825247,14.205617],[-87.825247,14.23215],[-87.727374,14.244532],[-87.683736,14.265759],[-87.639475,14.273542],[-87.627007,14.298307],[-87.63137,14.336515],[-87.651319,14.373309],[-87.696204,14.355266],[-87.779739,14.378261],[-87.78909,14.39029],[-87.828987,14.40055],[-87.8533,14.429206],[-87.855794,14.455739],[-87.900055,14.506684],[-87.898808,14.526142],[-87.941199,14.553029],[-87.951173,14.585931],[-87.969252,14.613172],[-88.004162,14.631568],[-88.061515,14.646427],[-88.074606,14.664824],[-88.062138,14.685343],[-88.077723,14.721075],[-88.069619,14.747608],[-88.022241,14.78617],[-87.986707,14.792538],[-87.986084,14.836053],[-87.963018,14.803152],[-87.883846,14.858341],[-87.843326,14.901503],[-87.802805,14.915654],[-87.741088,14.962353],[-87.736101,15.016481],[-87.63137,15.016481],[-87.587109,15.026033],[-87.554692,15.055751],[-87.537237,15.053982],[-87.506067,15.022849],[-87.496716,14.993132],[-87.463676,14.971905],[-87.444351,14.911055],[-87.418792,14.908224],[-87.375154,14.93865],[-87.315308,14.928036],[-87.297229,14.916361],[-87.272293,14.921314],[-87.246111,14.897965]]]}},{"type":"Feature","properties":{"name":"Cortés","country_code":"hn","country_es":"Honduras"},"geometry":{"type":"Polygon","coordinates":[[[-87.78722,15.720858],[-87.823377,15.691848],[-87.805922,15.687956],[-87.819636,15.671683],[-87.777245,15.63312],[-87.762284,15.610479],[-87.777869,15.574039],[-87.793454,15.577931],[-87.809662,15.533708],[-87.830858,15.508236],[-87.813403,15.46932],[-87.81652,15.451277],[-87.846443,15.460122],[-87.852677,15.451631],[-87.824,15.430051],[-87.82026,15.416253],[-87.870132,15.34762],[-87.913146,15.323563],[-87.925614,15.296675],[-87.926861,15.259175],[-87.935588,15.24467],[-87.91751,15.237948],[-87.923121,15.190895],[-87.867638,15.18948],[-87.842702,15.16047],[-87.799688,15.153394],[-87.794077,15.139597],[-87.767894,15.139597],[-87.738595,15.110941],[-87.731737,15.081577],[-87.741088,15.061411],[-87.736101,15.016481],[-87.741088,14.962353],[-87.802805,14.915654],[-87.843326,14.901503],[-87.883846,14.858341],[-87.963018,14.803152],[-87.986084,14.836053],[-87.987954,14.877446],[-87.995435,14.901149],[-88.027228,14.92839],[-88.053411,14.930866],[-88.04967,14.98924],[-88.030345,15.042307],[-88.017877,15.055751],[-88.042813,15.075209],[-88.093931,15.101389],[-88.113257,15.130752],[-88.10827,15.149856],[-88.067125,15.192664],[-88.061515,15.207523],[-88.102036,15.228042],[-88.123855,15.270496],[-88.131335,15.367785],[-88.169363,15.38229],[-88.227339,15.420498],[-88.241053,15.444909],[-88.241053,15.490901],[-88.262249,15.503991],[-88.356382,15.532647],[-88.409994,15.540784],[-88.467347,15.520618],[-88.398773,15.572624],[-88.352642,15.6172],[-88.316484,15.674867],[-88.295912,15.674867],[-88.247911,15.696093],[-88.241677,15.68831],[-88.232326,15.721212],[-88.214871,15.722981],[-88.169986,15.691848],[-88.14505,15.684772],[-88.118867,15.696093],[-88.060891,15.755529],[-88.036579,15.770741],[-88.031592,15.789845],[-87.992318,15.784538],[-87.933718,15.818855],[-87.924991,15.842205],[-87.95055,15.867323],[-87.908782,15.868031],[-87.845819,15.89421],[-87.760414,15.899517],[-87.72862,15.920744],[-87.72488,15.897394],[-87.751686,15.872276],[-87.766648,15.838667],[-87.789713,15.812841],[-87.794701,15.793029],[-87.75792,15.751283],[-87.764154,15.729349],[-87.78722,15.720858]]]}},{"type":"Feature","properties":{"name":"Intibucá","country_code":"hn","country_es":"Honduras"},"geometry":{"type":"Polygon","coordinates":[[[-88.074606,14.664824],[-88.061515,14.646427],[-88.004162,14.631568],[-87.969252,14.613172],[-87.951173,14.585931],[-87.941199,14.553029],[-87.898808,14.526142],[-87.900055,14.506684],[-87.855794,14.455739],[-87.8533,14.429206],[-87.921874,14.385337],[-87.95242,14.389582],[-87.953044,14.340407],[-87.969252,14.310689],[-88.002292,14.288047],[-88.013513,14.254085],[-88.055281,14.251962],[-88.105776,14.208093],[-88.125725,14.173423],[-88.154401,14.159271],[-88.232326,14.078609],[-88.210507,14.043231],[-88.217364,13.990872],[-88.244794,13.989457],[-88.236066,13.938159],[-88.263496,13.932852],[-88.285315,13.905965],[-88.319601,13.897474],[-88.326459,13.885092],[-88.355135,13.891106],[-88.360122,13.872709],[-88.393162,13.879785],[-88.43306,13.87094],[-88.470464,13.85219],[-88.496646,13.851129],[-88.488542,13.8812],[-88.502257,13.916932],[-88.49727,13.968938],[-88.496646,13.969645],[-88.480438,13.991933],[-88.375084,14.051015],[-88.33581,14.076841],[-88.320225,14.122124],[-88.326459,14.166347],[-88.328329,14.215522],[-88.345784,14.226136],[-88.388175,14.229674],[-88.421215,14.24807],[-88.411864,14.299015],[-88.422462,14.349251],[-88.454255,14.363403],[-88.494776,14.406918],[-88.501634,14.448664],[-88.481685,14.466707],[-88.457372,14.474136],[-88.388175,14.476966],[-88.360122,14.491117],[-88.342044,14.53817],[-88.322095,14.573548],[-88.33394,14.635814],[-88.343914,14.65421],[-88.265989,14.64855],[-88.163129,14.658809],[-88.100165,14.649611],[-88.074606,14.664824]]]}},{"type":"Feature","properties":{"name":"La Paz","country_code":"hn","country_es":"Honduras"},"geometry":{"type":"Polygon","coordinates":[[[-87.615162,14.088515],[-87.59646,13.957263],[-87.606434,13.903134],[-87.619526,13.868818],[-87.646955,13.834147],[-87.668151,13.834147],[-87.693087,13.849714],[-87.749816,13.845468],[-87.790337,13.870587],[-87.808415,13.908441],[-87.832728,13.915163],[-87.860781,13.890045],[-87.900055,13.89429],[-87.925614,13.879785],[-87.94681,13.890752],[-87.969875,13.888276],[-88.015383,13.866341],[-88.023488,13.891106],[-88.072736,13.943465],[-88.087698,13.980612],[-88.125101,13.991226],[-88.177467,13.985211],[-88.217364,13.990872],[-88.210507,14.043231],[-88.232326,14.078609],[-88.154401,14.159271],[-88.125725,14.173423],[-88.105776,14.208093],[-88.055281,14.251962],[-88.013513,14.254085],[-88.002292,14.288047],[-87.969252,14.310689],[-87.953044,14.340407],[-87.95242,14.389582],[-87.921874,14.385337],[-87.8533,14.429206],[-87.828987,14.40055],[-87.78909,14.39029],[-87.779739,14.378261],[-87.696204,14.355266],[-87.651319,14.373309],[-87.63137,14.336515],[-87.627007,14.298307],[-87.639475,14.273542],[-87.683736,14.265759],[-87.727374,14.244532],[-87.825247,14.23215],[-87.825247,14.205617],[-87.79096,14.191465],[-87.777245,14.175545],[-87.780986,14.142998],[-87.742335,14.130969],[-87.703685,14.104082],[-87.691217,14.084624],[-87.68997,14.051015],[-87.650696,14.085331],[-87.615162,14.088515]]]}},{"type":"Feature","properties":{"name":"Santa Bárbara","country_code":"hn","country_es":"Honduras"},"geometry":{"type":"Polygon","coordinates":[[[-87.986084,14.836053],[-87.986707,14.792538],[-88.022241,14.78617],[-88.069619,14.747608],[-88.077723,14.721075],[-88.062138,14.685343],[-88.074606,14.664824],[-88.100165,14.649611],[-88.163129,14.658809],[-88.265989,14.64855],[-88.343914,14.65421],[-88.322095,14.689234],[-88.323342,14.730981],[-88.36698,14.739825],[-88.388799,14.772019],[-88.360746,14.819072],[-88.381318,14.831454],[-88.407501,14.830747],[-88.422462,14.850205],[-88.442411,14.853742],[-88.463606,14.827563],[-88.487295,14.811642],[-88.533427,14.878507],[-88.555246,14.934758],[-88.601377,14.941834],[-88.644392,14.927329],[-88.679925,14.920961],[-88.702368,14.952093],[-88.669328,15.056458],[-88.644392,15.077332],[-88.645015,15.097497],[-88.66434,15.139597],[-88.654366,15.162593],[-88.679302,15.175329],[-88.718576,15.217075],[-88.715459,15.245023],[-88.760967,15.299859],[-88.499763,15.495854],[-88.467347,15.520618],[-88.409994,15.540784],[-88.356382,15.532647],[-88.262249,15.503991],[-88.241053,15.490901],[-88.241053,15.444909],[-88.227339,15.420498],[-88.169363,15.38229],[-88.131335,15.367785],[-88.123855,15.270496],[-88.102036,15.228042],[-88.061515,15.207523],[-88.067125,15.192664],[-88.10827,15.149856],[-88.113257,15.130752],[-88.093931,15.101389],[-88.042813,15.075209],[-88.017877,15.055751],[-88.030345,15.042307],[-88.04967,14.98924],[-88.053411,14.930866],[-88.027228,14.92839],[-87.995435,14.901149],[-87.987954,14.877446],[-87.986084,14.836053]]]}},{"type":"Feature","properties":{"name":"Copán","country_code":"hn","country_es":"Honduras"},"geometry":{"type":"Polygon","coordinates":[[[-89.146227,14.710815],[-89.170539,14.738764],[-89.189241,14.782986],[-89.227892,14.834638],[-89.231632,14.867186],[-89.198592,14.899734],[-89.169293,14.952093],[-89.168669,14.978273],[-89.188618,14.995962],[-89.173033,15.041953],[-89.140616,15.076624],[-89.109446,15.091129],[-89.007833,15.124738],[-88.972922,15.140658],[-88.760967,15.299859],[-88.715459,15.245023],[-88.718576,15.217075],[-88.679302,15.175329],[-88.654366,15.162593],[-88.66434,15.139597],[-88.645015,15.097497],[-88.644392,15.077332],[-88.669328,15.056458],[-88.702368,14.952093],[-88.679925,14.920961],[-88.644392,14.927329],[-88.639405,14.895488],[-88.643145,14.869309],[-88.676808,14.814826],[-88.676808,14.786878],[-88.659977,14.753622],[-88.655613,14.723905],[-88.727927,14.712584],[-88.777799,14.718598],[-88.79276,14.713291],[-88.783409,14.668715],[-88.752863,14.64112],[-88.733538,14.60928],[-88.731044,14.548784],[-88.782163,14.550199],[-88.82393,14.53534],[-88.82393,14.505269],[-88.84949,14.502792],[-88.892504,14.522958],[-88.92305,14.56152],[-88.930531,14.608926],[-88.994741,14.655979],[-89.010326,14.699848],[-89.025911,14.721075],[-89.085134,14.728858],[-89.146227,14.710815]]]}},{"type":"Feature","properties":{"name":"Lempira","country_code":"hn","country_es":"Honduras"},"geometry":{"type":"Polygon","coordinates":[[[-88.343914,14.65421],[-88.33394,14.635814],[-88.322095,14.573548],[-88.342044,14.53817],[-88.360122,14.491117],[-88.388175,14.476966],[-88.457372,14.474136],[-88.481685,14.466707],[-88.501634,14.448664],[-88.494776,14.406918],[-88.454255,14.363403],[-88.422462,14.349251],[-88.411864,14.299015],[-88.421215,14.24807],[-88.388175,14.229674],[-88.345784,14.226136],[-88.328329,14.215522],[-88.326459,14.166347],[-88.320225,14.122124],[-88.33581,14.076841],[-88.375084,14.051015],[-88.480438,13.991933],[-88.496023,13.969645],[-88.496646,13.969645],[-88.514102,13.987334],[-88.558363,13.990872],[-88.633794,14.014575],[-88.691147,14.01033],[-88.709848,14.039694],[-88.746629,14.05243],[-88.739148,14.099836],[-88.746629,14.111157],[-88.777175,14.099483],[-88.838892,14.10019],[-88.860087,14.15821],[-88.881283,14.18439],[-88.921804,14.199602],[-88.957337,14.184744],[-88.969805,14.209862],[-88.971052,14.269297],[-88.977909,14.301491],[-88.939882,14.344299],[-88.890634,14.360926],[-88.875049,14.405856],[-88.862581,14.407625],[-88.836398,14.386398],[-88.810215,14.386752],[-88.823307,14.40338],[-88.817696,14.427083],[-88.789643,14.4193],[-88.743512,14.441942],[-88.714836,14.527911],[-88.731044,14.548784],[-88.733538,14.60928],[-88.752863,14.64112],[-88.783409,14.668715],[-88.79276,14.713291],[-88.777799,14.718598],[-88.727927,14.712584],[-88.655613,14.723905],[-88.659977,14.753622],[-88.676808,14.786878],[-88.676808,14.814826],[-88.643145,14.869309],[-88.639405,14.895488],[-88.644392,14.927329],[-88.601377,14.941834],[-88.555246,14.934758],[-88.533427,14.878507],[-88.487295,14.811642],[-88.463606,14.827563],[-88.442411,14.853742],[-88.422462,14.850205],[-88.407501,14.830747],[-88.381318,14.831454],[-88.360746,14.819072],[-88.388799,14.772019],[-88.36698,14.739825],[-88.323342,14.730981],[-88.322095,14.689234],[-88.343914,14.65421]]]}},{"type":"Feature","properties":{"name":"Ocotepeque","country_code":"hn","country_es":"Honduras"},"geometry":{"type":"Polygon","coordinates":[[[-88.731044,14.548784],[-88.714836,14.527911],[-88.743512,14.441942],[-88.789643,14.4193],[-88.817696,14.427083],[-88.823307,14.40338],[-88.810215,14.386752],[-88.836398,14.386398],[-88.862581,14.407625],[-88.875049,14.405856],[-88.890634,14.360926],[-88.939882,14.344299],[-88.977909,14.301491],[-88.971052,14.269297],[-88.969805,14.209862],[-88.992871,14.252669],[-89.017807,14.271774],[-89.032768,14.323426],[-89.08264,14.335454],[-89.094485,14.344652],[-89.089498,14.364818],[-89.107576,14.39595],[-89.122538,14.394889],[-89.154331,14.351374],[-89.199839,14.364464],[-89.225398,14.382153],[-89.276517,14.392766],[-89.307687,14.406918],[-89.361922,14.415408],[-89.363793,14.446541],[-89.355688,14.475197],[-89.322648,14.487226],[-89.30457,14.513052],[-89.259062,14.554444],[-89.24597,14.573194],[-89.221035,14.579916],[-89.183631,14.569657],[-89.160565,14.580978],[-89.154954,14.615648],[-89.159318,14.666239],[-89.142486,14.691357],[-89.146227,14.710815],[-89.085134,14.728858],[-89.025911,14.721075],[-89.010326,14.699848],[-88.994741,14.655979],[-88.930531,14.608926],[-88.92305,14.56152],[-88.892504,14.522958],[-88.84949,14.502792],[-88.82393,14.505269],[-88.82393,14.53534],[-88.782163,14.550199],[-88.731044,14.548784]]]}},{"type":"Feature","properties":{"name":"Choluteca","country_code":"hn","country_es":"Honduras"},"geometry":{"type":"Polygon","coordinates":[[[-87.379518,13.393337],[-87.358946,13.408549],[-87.347724,13.433314],[-87.349595,13.453126],[-87.367673,13.49841],[-87.364556,13.519283],[-87.40009,13.545462],[-87.424402,13.598176],[-87.421909,13.637799],[-87.461183,13.669993],[-87.465547,13.697942],[-87.454325,13.756669],[-87.423779,13.760915],[-87.386998,13.755254],[-87.393232,13.720938],[-87.360192,13.690512],[-87.319672,13.694758],[-87.297853,13.684498],[-87.263566,13.68839],[-87.214317,13.671054],[-87.224292,13.628601],[-87.191252,13.597822],[-87.183771,13.566335],[-87.170056,13.558199],[-87.123925,13.555368],[-87.107093,13.520698],[-87.089014,13.507254],[-87.069689,13.508316],[-87.039143,13.525651],[-87.0167,13.550769],[-87.01109,13.573765],[-86.966205,13.601714],[-86.938152,13.638507],[-86.933165,13.660441],[-86.891397,13.65938],[-86.887033,13.65195],[-86.849006,13.676715],[-86.809732,13.681668],[-86.794147,13.700064],[-86.771082,13.707848],[-86.774199,13.654781],[-86.751756,13.624709],[-86.75612,13.55926],[-86.724327,13.439328],[-86.738665,13.396167],[-86.736795,13.371756],[-86.717469,13.361497],[-86.701884,13.31409],[-86.711235,13.285434],[-86.739912,13.263853],[-86.758614,13.264207],[-86.815966,13.291802],[-86.833421,13.293571],[-86.862721,13.280127],[-86.910723,13.239796],[-86.925684,13.216447],[-86.933165,13.1793],[-86.923191,13.160903],[-86.932542,13.108544],[-86.920074,13.096161],[-86.94875,13.069982],[-86.98366,13.021867],[-87.029792,12.996042],[-87.035402,12.979768],[-87.084651,12.996042],[-87.314061,12.98189],[-87.293489,13.0109],[-87.269176,13.029297],[-87.316555,13.03425],[-87.332139,13.042741],[-87.353335,13.072458],[-87.350841,13.088732],[-87.304087,13.098284],[-87.361439,13.113143],[-87.419415,13.111374],[-87.422532,13.149936],[-87.436247,13.189206],[-87.484872,13.270221],[-87.501704,13.269514],[-87.512301,13.286849],[-87.501704,13.304184],[-87.467417,13.325057],[-87.440611,13.35902],[-87.426896,13.355836],[-87.379518,13.37211],[-87.379518,13.393337]]]}},{"type":"Feature","properties":{"name":"El Paraíso","country_code":"hn","country_es":"Honduras"},"geometry":{"type":"Polygon","coordinates":[[[-87.214317,13.671054],[-87.183147,13.68096],[-87.130159,13.659734],[-87.110833,13.724122],[-87.128912,13.75207],[-87.131405,13.790632],[-87.122054,13.810444],[-87.084027,13.783557],[-87.035402,13.775066],[-87.013583,13.800184],[-86.995505,13.846176],[-86.992388,13.911625],[-86.984907,13.934621],[-86.989271,13.964692],[-86.954984,13.958678],[-86.926308,13.979197],[-86.91571,13.999363],[-86.916957,14.056321],[-86.95249,14.080378],[-86.984284,14.132384],[-86.963088,14.140875],[-86.911969,14.140875],[-86.901995,14.16104],[-86.920697,14.174838],[-86.897008,14.229674],[-86.847759,14.271774],[-86.829058,14.304675],[-86.821577,14.337577],[-86.788537,14.368356],[-86.714352,14.423545],[-86.671338,14.40621],[-86.630817,14.407979],[-86.607751,14.381092],[-86.579075,14.38003],[-86.522969,14.364818],[-86.49928,14.342883],[-86.457512,14.323072],[-86.428213,14.290524],[-86.354028,14.286632],[-86.33595,14.290878],[-86.298546,14.316704],[-86.232466,14.341468],[-86.185088,14.334039],[-86.142073,14.268943],[-86.080357,14.253377],[-86.066642,14.271774],[-86.040459,14.26859],[-86.019264,14.254792],[-85.982483,14.184744],[-85.944456,14.167762],[-85.912663,14.132738],[-85.877129,14.14229],[-85.871519,14.165639],[-85.844713,14.182267],[-85.803568,14.167408],[-85.779879,14.170239],[-85.757437,14.198541],[-85.672031,14.17696],[-85.646472,14.183328],[-85.615302,14.147597],[-85.605951,14.097006],[-85.575405,14.075072],[-85.56356,14.04217],[-85.593483,14.033326],[-85.612809,14.009976],[-85.647719,13.999363],[-85.699461,13.961154],[-85.727514,13.964692],[-85.747462,13.888276],[-85.728761,13.875186],[-85.72502,13.847945],[-85.742475,13.823888],[-85.758684,13.8391],[-85.801698,13.840515],[-85.82414,13.847945],[-85.861544,13.90455],[-85.883363,13.914102],[-85.91578,13.90738],[-85.936352,13.918347],[-85.957547,13.946296],[-86.028615,13.996179],[-86.031108,14.022712],[-86.020511,14.054906],[-86.096565,14.044293],[-86.121501,14.027311],[-86.149554,13.984504],[-86.183841,13.966815],[-86.218128,13.914102],[-86.283584,13.845822],[-86.299793,13.821057],[-86.314131,13.776481],[-86.325352,13.763391],[-86.358392,13.752424],[-86.410134,13.74924],[-86.448161,13.772943],[-86.490553,13.7595],[-86.541671,13.781788],[-86.580945,13.779665],[-86.66261,13.764806],[-86.72682,13.768344],[-86.766718,13.745348],[-86.771082,13.707848],[-86.794147,13.700064],[-86.809732,13.681668],[-86.849006,13.676715],[-86.887033,13.65195],[-86.891397,13.65938],[-86.933165,13.660441],[-86.938152,13.638507],[-86.966205,13.601714],[-87.01109,13.573765],[-87.0167,13.550769],[-87.039143,13.525651],[-87.069689,13.508316],[-87.089014,13.507254],[-87.107093,13.520698],[-87.123925,13.555368],[-87.170056,13.558199],[-87.183771,13.566335],[-87.191252,13.597822],[-87.224292,13.628601],[-87.214317,13.671054]]]}}]}