{"type":"FeatureCollection","features":[{"type":"Feature","properties":{"name":"Ouest","country_code":"ht","country_es":"Haití"},"geometry":{"type":"MultiPolygon","coordinates":[[[[-72.820578,18.700499],[-72.831124,18.696371],[-72.837965,18.702563],[-72.847371,18.72052],[-72.855922,18.727744],[-72.885851,18.731047],[-72.974781,18.750036],[-73.005565,18.752306],[-73.037204,18.75953],[-73.125564,18.813607],[-73.214495,18.836724],[-73.238437,18.851585],[-73.258675,18.878418],[-73.277487,18.891214],[-73.289743,18.904218],[-73.299435,18.925477],[-73.296299,18.936416],[-73.283758,18.949833],[-73.266371,18.960772],[-73.245848,18.968409],[-73.224471,18.971092],[-73.200813,18.968615],[-73.062001,18.913506],[-72.993308,18.89204],[-72.917204,18.855507],[-72.846231,18.827023],[-72.817157,18.792967],[-72.809462,18.771501],[-72.805756,18.745701],[-72.808891,18.720314],[-72.820578,18.700499]]],[[[-71.948374,18.53125],[-71.91189,18.495748],[-71.930987,18.50772],[-71.948089,18.53063],[-71.948374,18.53125]]],[[[-71.791606,18.680478],[-71.807853,18.664585],[-71.828375,18.631354],[-71.841487,18.617938],[-71.880536,18.605348],[-71.9555,18.618558],[-71.992555,18.611127],[-72.006236,18.601426],[-72.009657,18.640023],[-72.021913,18.656742],[-72.050987,18.631974],[-72.063813,18.601426],[-72.059253,18.567783],[-72.036165,18.532282],[-72.020203,18.523613],[-71.999395,18.516801],[-71.981153,18.506688],[-71.973457,18.487699],[-71.964621,18.478823],[-71.944099,18.479443],[-71.9079,18.490382],[-71.901629,18.469948],[-71.914455,18.460247],[-71.918161,18.449102],[-71.912175,18.430732],[-71.897353,18.422888],[-71.858304,18.4136],[-71.849753,18.406376],[-71.82638,18.376242],[-71.788755,18.352093],[-71.735169,18.333104],[-71.709231,18.313289],[-71.721202,18.293887],[-71.809563,18.279439],[-71.861154,18.309987],[-71.928707,18.31494],[-72.012792,18.313908],[-72.099442,18.332691],[-72.186093,18.349616],[-72.271318,18.344662],[-72.353977,18.349409],[-72.379916,18.379957],[-72.408989,18.377686],[-72.454309,18.399359],[-72.490224,18.401629],[-72.523573,18.386768],[-72.548086,18.358491],[-72.558062,18.351061],[-72.570318,18.350648],[-72.594831,18.340741],[-72.631315,18.336612],[-72.642432,18.327118],[-72.681196,18.324228],[-72.703714,18.304827],[-72.721101,18.307303],[-72.737063,18.315353],[-72.745044,18.288521],[-72.7573,18.279439],[-72.764996,18.265404],[-72.79806,18.273247],[-72.831979,18.284393],[-72.848796,18.274486],[-72.860198,18.262927],[-72.88186,18.273453],[-72.893261,18.288934],[-72.923475,18.290791],[-72.971361,18.282535],[-72.983332,18.30462],[-72.997584,18.322784],[-73.013261,18.34136],[-73.020672,18.365922],[-73.038059,18.382227],[-73.063142,18.383259],[-73.065422,18.410298],[-73.049745,18.435273],[-73.056016,18.458596],[-72.985612,18.470567],[-72.898962,18.450546],[-72.904093,18.434241],[-72.884995,18.437749],[-72.858202,18.446625],[-72.84053,18.446831],[-72.825993,18.440845],[-72.75502,18.429287],[-72.716541,18.437749],[-72.689462,18.459628],[-72.669225,18.490588],[-72.652693,18.52547],[-72.62818,18.55416],[-72.596541,18.560971],[-72.429796,18.54673],[-72.419535,18.558082],[-72.409844,18.55932],[-72.381056,18.53063],[-72.371365,18.52547],[-72.353977,18.530011],[-72.345712,18.546936],[-72.343431,18.570053],[-72.345141,18.631148],[-72.343431,18.642294],[-72.324904,18.671396],[-72.33032,18.683368],[-72.339441,18.689353],[-72.385046,18.710613],[-72.421816,18.713502],[-72.433502,18.716805],[-72.453739,18.733317],[-72.471696,18.753957],[-72.491079,18.768405],[-72.515307,18.765928],[-72.549511,18.785743],[-72.558062,18.794618],[-72.566613,18.813607],[-72.617919,18.889357],[-72.651838,18.918666],[-72.67293,18.931463],[-72.705994,18.94426],[-72.692028,18.960978],[-72.675211,18.972743],[-72.611648,18.970473],[-72.512456,18.957676],[-72.487658,18.958914],[-72.466851,18.928986],[-72.415545,18.908552],[-72.388752,18.889976],[-72.365094,18.867065],[-72.338871,18.834041],[-72.306377,18.814227],[-72.272173,18.80597],[-72.242244,18.786362],[-72.182102,18.730015],[-72.105713,18.70504],[-72.026759,18.729602],[-71.946094,18.743431],[-71.878541,18.720726],[-71.836641,18.7102],[-71.798732,18.688941],[-71.791606,18.680478]]]]}},{"type":"Feature","properties":{"name":"Grand'Anse","country_code":"ht","country_es":"Haití"},"geometry":{"type":"MultiPolygon","coordinates":[[[[-73.714444,18.601426],[-73.737532,18.588216],[-73.769455,18.588423],[-73.794253,18.601839],[-73.796534,18.628465],[-73.772591,18.639404],[-73.739812,18.636927],[-73.715014,18.623511],[-73.714444,18.601426]]],[[[-74.452396,18.360968],[-74.456672,18.384498],[-74.463228,18.39812],[-74.489166,18.429493],[-74.454392,18.477791],[-74.461803,18.491414],[-74.44356,18.503798],[-74.431874,18.550238],[-74.416767,18.560352],[-74.415627,18.577277],[-74.426458,18.608444],[-74.418477,18.617526],[-74.384558,18.636308],[-74.340093,18.653439],[-74.321281,18.656535],[-74.287932,18.651582],[-74.278811,18.666443],[-74.256008,18.670364],[-74.199856,18.667475],[-74.159952,18.659219],[-74.029121,18.603697],[-73.971544,18.601426],[-73.959288,18.58285],[-73.940761,18.587597],[-73.898576,18.568815],[-73.85354,18.56737],[-73.831308,18.560352],[-73.809645,18.542808],[-73.792828,18.538474],[-73.779432,18.54673],[-73.757199,18.539299],[-73.739242,18.54384],[-73.747793,18.527328],[-73.76518,18.508339],[-73.760334,18.494716],[-73.743517,18.487286],[-73.766035,18.463343],[-73.783992,18.424746],[-73.84784,18.407821],[-73.8943,18.407408],[-73.907982,18.387594],[-73.906272,18.363858],[-73.953872,18.367573],[-74.001473,18.38037],[-74.043088,18.393786],[-74.085273,18.403693],[-74.186745,18.39585],[-74.341803,18.365302],[-74.3971,18.359936],[-74.424748,18.365096],[-74.452396,18.360968]]]]}},{"type":"Feature","properties":{"name":"Nord-Ouest","country_code":"ht","country_es":"Haití"},"geometry":{"type":"MultiPolygon","coordinates":[[[[-72.762431,20.067293],[-72.6678,20.032204],[-72.62761,20.008262],[-72.639011,19.984732],[-72.655258,19.991337],[-72.739913,20.002482],[-72.779248,20.016931],[-72.827704,20.027251],[-72.844236,20.034475],[-72.878725,20.026425],[-72.92376,20.03819],[-72.945993,20.048923],[-72.960529,20.061307],[-72.947418,20.067293],[-72.900957,20.081947],[-72.850506,20.088552],[-72.821718,20.08979],[-72.802336,20.087314],[-72.762431,20.067293]]],[[[-72.675496,19.806813],[-72.705994,19.810941],[-72.747324,19.784935],[-72.768132,19.779775],[-72.830269,19.729619],[-72.905803,19.717029],[-72.946563,19.724253],[-72.987893,19.727555],[-73.028367,19.736843],[-73.066847,19.733334],[-73.113593,19.686481],[-73.121574,19.631785],[-73.120718,19.629101],[-73.138391,19.61713],[-73.148937,19.615066],[-73.185991,19.627037],[-73.207654,19.638389],[-73.22105,19.649742],[-73.241288,19.631165],[-73.284043,19.625593],[-73.379529,19.630133],[-73.409458,19.635913],[-73.433971,19.659236],[-73.457913,19.672239],[-73.463329,19.692054],[-73.468175,19.724665],[-73.432545,19.779156],[-73.42713,19.790301],[-73.417154,19.790508],[-73.365277,19.813625],[-73.364992,19.821055],[-73.420289,19.821055],[-73.404327,19.832407],[-73.38523,19.834471],[-73.344755,19.834058],[-73.222761,19.886897],[-73.187131,19.911459],[-73.167179,19.937672],[-73.155208,19.92405],[-73.143521,19.920334],[-73.115303,19.923431],[-73.100766,19.921366],[-73.074258,19.912491],[-73.041764,19.911666],[-73.00699,19.918477],[-72.977917,19.912285],[-72.967085,19.90279],[-72.960244,19.918477],[-72.941432,19.927971],[-72.918344,19.930242],[-72.898962,19.923431],[-72.872169,19.933751],[-72.84053,19.941594],[-72.807181,19.945516],[-72.776113,19.943864],[-72.673785,19.921366],[-72.648702,19.906506],[-72.62818,19.897424],[-72.568893,19.87988],[-72.565188,19.875752],[-72.573168,19.870179],[-72.5897,19.844172],[-72.622194,19.81734],[-72.658679,19.828486],[-72.672645,19.824977],[-72.675496,19.806813]]]]}},{"type":"Feature","properties":{"name":"Sud","country_code":"ht","country_es":"Haití"},"geometry":{"type":"MultiPolygon","coordinates":[[[[-73.694206,18.106887],[-73.687936,18.100489],[-73.676534,18.108126],[-73.660002,18.09409],[-73.612117,18.093265],[-73.592449,18.089343],[-73.577913,18.081087],[-73.577913,18.067052],[-73.590454,18.059415],[-73.610692,18.057557],[-73.649741,18.059415],[-73.667128,18.06313],[-73.68252,18.072005],[-73.707603,18.09409],[-73.704468,18.104204],[-73.694206,18.106887]]],[[[-73.00813,18.180985],[-73.09079,18.189861],[-73.125564,18.189861],[-73.154923,18.207405],[-73.163474,18.210501],[-73.296299,18.230935],[-73.355871,18.224949],[-73.365277,18.227219],[-73.359862,18.240429],[-73.346465,18.245383],[-73.310551,18.24497],[-73.310266,18.251162],[-73.377249,18.257973],[-73.458484,18.257561],[-73.481856,18.251162],[-73.51378,18.233205],[-73.534303,18.234856],[-73.542854,18.253226],[-73.550264,18.258593],[-73.563376,18.250956],[-73.577913,18.216693],[-73.597865,18.223917],[-73.609551,18.216693],[-73.619813,18.222059],[-73.624088,18.234856],[-73.618958,18.251162],[-73.633209,18.24724],[-73.645466,18.221027],[-73.660002,18.210295],[-73.656012,18.235682],[-73.646321,18.258593],[-73.665418,18.238572],[-73.674539,18.233205],[-73.691071,18.23754],[-73.694206,18.224123],[-73.737532,18.190686],[-73.80936,18.159107],[-73.827602,18.142182],[-73.844989,18.11473],[-73.802804,18.071799],[-73.791403,18.036504],[-73.793968,18.028867],[-73.80708,18.025978],[-73.873493,18.026184],[-73.89259,18.03217],[-73.900001,18.039187],[-73.903706,18.053842],[-73.967839,18.141356],[-73.981806,18.148993],[-73.989787,18.163235],[-74.008029,18.179747],[-74.105225,18.247653],[-74.122612,18.255703],[-74.152826,18.260657],[-74.176769,18.273041],[-74.18361,18.293268],[-74.208122,18.299667],[-74.242041,18.314115],[-74.248882,18.306684],[-74.267695,18.312876],[-74.287932,18.305033],[-74.308739,18.292442],[-74.330687,18.286044],[-74.349214,18.289759],[-74.391684,18.308955],[-74.408216,18.328356],[-74.446126,18.34652],[-74.452396,18.360968],[-74.424748,18.365096],[-74.3971,18.359936],[-74.341803,18.365302],[-74.186745,18.39585],[-74.085273,18.403693],[-74.043088,18.393786],[-74.001473,18.38037],[-73.953872,18.367573],[-73.906272,18.363858],[-73.907982,18.387594],[-73.8943,18.407408],[-73.84784,18.407821],[-73.783992,18.424746],[-73.751783,18.420412],[-73.718434,18.421856],[-73.68138,18.406996],[-73.658862,18.425159],[-73.626653,18.429287],[-73.599575,18.427017],[-73.581903,18.412775],[-73.567366,18.39585],[-73.545134,18.385117],[-73.564231,18.346313],[-73.51321,18.333929],[-73.449362,18.34363],[-73.418009,18.346726],[-73.386655,18.345694],[-73.350741,18.354569],[-73.319102,18.366541],[-73.267226,18.35973],[-73.21421,18.360762],[-73.162903,18.355189],[-73.140101,18.361587],[-73.115873,18.355189],[-73.077963,18.32588],[-73.04604,18.297603],[-73.037774,18.254052],[-73.012406,18.221027],[-73.006705,18.185939],[-73.00813,18.180985]]]]}},{"type":"Feature","properties":{"name":"Nippes","country_code":"ht","country_es":"Haití"},"geometry":{"type":"Polygon","coordinates":[[[-73.739242,18.54384],[-73.704468,18.573562],[-73.680525,18.573355],[-73.635204,18.58574],[-73.622093,18.587804],[-73.586464,18.579135],[-73.585894,18.562003],[-73.606131,18.549],[-73.632639,18.552922],[-73.632639,18.54673],[-73.654302,18.553541],[-73.673399,18.556224],[-73.692781,18.553954],[-73.714729,18.54673],[-73.691356,18.534139],[-73.675109,18.530217],[-73.669694,18.508752],[-73.652307,18.501321],[-73.620383,18.505656],[-73.604706,18.498225],[-73.569647,18.518453],[-73.526607,18.523406],[-73.368413,18.511848],[-73.34846,18.50772],[-73.308271,18.488318],[-73.286323,18.483983],[-73.206229,18.486667],[-73.166894,18.483571],[-73.13155,18.47098],[-73.097916,18.455294],[-73.081099,18.454055],[-73.056016,18.458596],[-73.049745,18.435273],[-73.065422,18.410298],[-73.063142,18.383259],[-73.038059,18.382227],[-73.020672,18.365922],[-73.013261,18.34136],[-72.997584,18.322784],[-73.001574,18.293062],[-73.014401,18.264785],[-73.012406,18.221027],[-73.037774,18.254052],[-73.04604,18.297603],[-73.077963,18.32588],[-73.115873,18.355189],[-73.140101,18.361587],[-73.162903,18.355189],[-73.21421,18.360762],[-73.267226,18.35973],[-73.319102,18.366541],[-73.350741,18.354569],[-73.386655,18.345694],[-73.418009,18.346726],[-73.449362,18.34363],[-73.51321,18.333929],[-73.564231,18.346313],[-73.545134,18.385117],[-73.567366,18.39585],[-73.581903,18.412775],[-73.599575,18.427017],[-73.626653,18.429287],[-73.658862,18.425159],[-73.68138,18.406996],[-73.718434,18.421856],[-73.751783,18.420412],[-73.783992,18.424746],[-73.766035,18.463343],[-73.743517,18.487286],[-73.760334,18.494716],[-73.76518,18.508339],[-73.747793,18.527328],[-73.739242,18.54384]]]}},{"type":"Feature","properties":{"name":"L'Artibonite","country_code":"ht","country_es":"Haití"},"geometry":{"type":"Polygon","coordinates":[[[-72.705994,18.94426],[-72.70856,18.945498],[-72.813737,19.053034],[-72.818298,19.078627],[-72.776113,19.094727],[-72.737633,19.097204],[-72.716541,19.104015],[-72.707134,19.118669],[-72.71312,19.137246],[-72.727657,19.147153],[-72.762431,19.163046],[-72.772977,19.175636],[-72.797205,19.215885],[-72.803476,19.231984],[-72.786374,19.254482],[-72.768702,19.286681],[-72.75787,19.291634],[-72.725662,19.295349],[-72.713975,19.293492],[-72.728512,19.320324],[-72.738488,19.325897],[-72.758726,19.327548],[-72.770412,19.336217],[-72.774402,19.355825],[-72.768702,19.389056],[-72.75388,19.377497],[-72.734498,19.375846],[-72.723381,19.383483],[-72.728227,19.42208],[-72.713975,19.423112],[-72.692313,19.409903],[-72.680056,19.40949],[-72.699153,19.445816],[-72.709415,19.451183],[-72.761006,19.454279],[-72.774117,19.463361],[-72.796065,19.49205],[-72.814877,19.504847],[-72.87844,19.532299],[-72.931456,19.563466],[-72.9668,19.574818],[-73.002144,19.603508],[-73.018961,19.600618],[-73.080814,19.62229],[-73.120718,19.629101],[-73.121574,19.631785],[-73.113593,19.686481],[-73.066847,19.733334],[-73.028367,19.736843],[-72.987893,19.727555],[-72.946563,19.724253],[-72.905803,19.717029],[-72.830269,19.729619],[-72.768132,19.779775],[-72.747324,19.784935],[-72.705994,19.810941],[-72.675496,19.806813],[-72.663809,19.782664],[-72.643287,19.767391],[-72.640436,19.744893],[-72.618774,19.747989],[-72.597966,19.733128],[-72.607373,19.699484],[-72.594831,19.682353],[-72.570603,19.672446],[-72.556637,19.63261],[-72.54039,19.591949],[-72.512456,19.565942],[-72.482528,19.543032],[-72.446613,19.528996],[-72.416685,19.537872],[-72.416685,19.563878],[-72.396733,19.563259],[-72.378205,19.579978],[-72.361103,19.581629],[-72.327184,19.565117],[-72.322339,19.501751],[-72.283859,19.467695],[-72.243669,19.449119],[-72.226567,19.413618],[-72.231983,19.385753],[-72.227137,19.35727],[-72.210605,19.328787],[-72.200059,19.301954],[-72.24595,19.240859],[-72.25165,19.168412],[-72.224572,19.143025],[-72.233978,19.121765],[-72.231983,19.097616],[-72.225142,19.067895],[-72.238824,19.01712],[-72.229988,18.940545],[-72.243669,18.908139],[-72.247375,18.877179],[-72.271033,18.864382],[-72.318348,18.869749],[-72.365094,18.867065],[-72.388752,18.889976],[-72.415545,18.908552],[-72.466851,18.928986],[-72.487658,18.958914],[-72.512456,18.957676],[-72.611648,18.970473],[-72.675211,18.972743],[-72.692028,18.960978],[-72.705994,18.94426]]]}},{"type":"Feature","properties":{"name":"Centre","country_code":"ht","country_es":"Haití"},"geometry":{"type":"Polygon","coordinates":[[[-71.749421,19.279869],[-71.716642,19.247877],[-71.639113,19.211963],[-71.643673,19.152519],[-71.648804,19.135182],[-71.661345,19.117431],[-71.695264,19.09452],[-71.710371,19.081723],[-71.7403,19.041888],[-71.783625,18.996273],[-71.796736,18.988636],[-71.848042,18.975633],[-71.86543,18.964281],[-71.862579,18.947149],[-71.844337,18.949833],[-71.819824,18.957882],[-71.796166,18.957057],[-71.787045,18.950039],[-71.773079,18.921762],[-71.733459,18.882546],[-71.728043,18.864176],[-71.726903,18.823515],[-71.718922,18.784092],[-71.720347,18.765516],[-71.732319,18.730015],[-71.744005,18.711438],[-71.758257,18.700499],[-71.791606,18.680478],[-71.798732,18.688941],[-71.836641,18.7102],[-71.878541,18.720726],[-71.946094,18.743431],[-72.026759,18.729602],[-72.105713,18.70504],[-72.182102,18.730015],[-72.242244,18.786362],[-72.272173,18.80597],[-72.306377,18.814227],[-72.338871,18.834041],[-72.365094,18.867065],[-72.318348,18.869749],[-72.271033,18.864382],[-72.247375,18.877179],[-72.243669,18.908139],[-72.229988,18.940545],[-72.238824,19.01712],[-72.225142,19.067895],[-72.231983,19.097616],[-72.233978,19.121765],[-72.224572,19.143025],[-72.25165,19.168412],[-72.24595,19.240859],[-72.200059,19.301954],[-72.170416,19.292047],[-72.148468,19.2712],[-72.139632,19.258403],[-72.119965,19.260055],[-72.050987,19.300922],[-71.978873,19.335804],[-71.943244,19.315783],[-71.906189,19.299684],[-71.887662,19.285029],[-71.837781,19.277186],[-71.819254,19.278218],[-71.78391,19.275328],[-71.749421,19.279869]]]}},{"type":"Feature","properties":{"name":"Nord-Est","country_code":"ht","country_es":"Haití"},"geometry":{"type":"Polygon","coordinates":[[[-71.749421,19.279869],[-71.78391,19.275328],[-71.819254,19.278218],[-71.837781,19.277186],[-71.887662,19.285029],[-71.906189,19.299684],[-71.943244,19.315783],[-71.978873,19.335804],[-71.995405,19.387405],[-72.045856,19.435909],[-72.08291,19.44561],[-72.072934,19.460471],[-72.069799,19.48689],[-72.086901,19.513103],[-72.097162,19.542619],[-72.110844,19.566149],[-72.113694,19.589679],[-72.110274,19.616098],[-72.098302,19.623529],[-72.08234,19.626831],[-72.060963,19.656553],[-72.056687,19.69515],[-72.047851,19.712075],[-72.027614,19.699691],[-72.010797,19.700929],[-71.999395,19.715584],[-71.987709,19.718473],[-71.968897,19.732302],[-71.940393,19.732096],[-71.891368,19.718473],[-71.864574,19.715171],[-71.857734,19.710011],[-71.863719,19.69742],[-71.884242,19.690196],[-71.91189,19.690609],[-71.901629,19.672446],[-71.884242,19.670382],[-71.850608,19.677812],[-71.821249,19.656759],[-71.810988,19.673478],[-71.813268,19.680908],[-71.835216,19.686275],[-71.846047,19.701136],[-71.836641,19.717441],[-71.799587,19.711249],[-71.757402,19.710217],[-71.74486,19.664809],[-71.747711,19.622909],[-71.74315,19.599999],[-71.715217,19.537459],[-71.703245,19.459233],[-71.703815,19.41465],[-71.720917,19.38596],[-71.733459,19.355412],[-71.769943,19.33374],[-71.776499,19.327548],[-71.771653,19.307527],[-71.749421,19.279869]]]}},{"type":"Feature","properties":{"name":"Nord","country_code":"ht","country_es":"Haití"},"geometry":{"type":"Polygon","coordinates":[[[-71.978873,19.335804],[-72.050987,19.300922],[-72.119965,19.260055],[-72.139632,19.258403],[-72.148468,19.2712],[-72.170416,19.292047],[-72.200059,19.301954],[-72.210605,19.328787],[-72.227137,19.35727],[-72.231983,19.385753],[-72.226567,19.413618],[-72.243669,19.449119],[-72.283859,19.467695],[-72.322339,19.501751],[-72.327184,19.565117],[-72.361103,19.581629],[-72.378205,19.579978],[-72.396733,19.563259],[-72.416685,19.563878],[-72.416685,19.537872],[-72.446613,19.528996],[-72.482528,19.543032],[-72.512456,19.565942],[-72.54039,19.591949],[-72.556637,19.63261],[-72.570603,19.672446],[-72.594831,19.682353],[-72.607373,19.699484],[-72.597966,19.733128],[-72.618774,19.747989],[-72.640436,19.744893],[-72.643287,19.767391],[-72.663809,19.782664],[-72.675496,19.806813],[-72.672645,19.824977],[-72.658679,19.828486],[-72.622194,19.81734],[-72.5897,19.844172],[-72.573168,19.870179],[-72.565188,19.875752],[-72.544095,19.851396],[-72.517587,19.834058],[-72.489939,19.824564],[-72.474547,19.834058],[-72.45602,19.824977],[-72.426091,19.813831],[-72.397588,19.806813],[-72.385046,19.810529],[-72.378775,19.794636],[-72.33032,19.752117],[-72.330605,19.745925],[-72.350842,19.752117],[-72.338301,19.723014],[-72.33374,19.718473],[-72.312363,19.716203],[-72.316068,19.724665],[-72.302956,19.739114],[-72.316068,19.739114],[-72.309797,19.751911],[-72.316068,19.765739],[-72.294975,19.758103],[-72.274738,19.756245],[-72.256496,19.761818],[-72.24823,19.776472],[-72.238539,19.786586],[-72.218586,19.786999],[-72.20519,19.776266],[-72.213741,19.752117],[-72.196924,19.742622],[-72.180677,19.740765],[-72.141057,19.74737],[-72.125095,19.741384],[-72.110559,19.727761],[-72.100867,19.724872],[-72.066378,19.724665],[-72.047851,19.712075],[-72.056687,19.69515],[-72.060963,19.656553],[-72.08234,19.626831],[-72.098302,19.623529],[-72.110274,19.616098],[-72.113694,19.589679],[-72.110844,19.566149],[-72.097162,19.542619],[-72.086901,19.513103],[-72.069799,19.48689],[-72.072934,19.460471],[-72.08291,19.44561],[-72.045856,19.435909],[-71.995405,19.387405],[-71.978873,19.335804]]]}},{"type":"Feature","properties":{"name":"Sud-Est","country_code":"ht","country_es":"Haití"},"geometry":{"type":"Polygon","coordinates":[[[-73.012406,18.221027],[-73.014401,18.264785],[-73.001574,18.293062],[-72.997584,18.322784],[-72.983332,18.30462],[-72.971361,18.282535],[-72.923475,18.290791],[-72.893261,18.288934],[-72.88186,18.273453],[-72.860198,18.262927],[-72.848796,18.274486],[-72.831979,18.284393],[-72.79806,18.273247],[-72.764996,18.265404],[-72.7573,18.279439],[-72.745044,18.288521],[-72.737063,18.315353],[-72.721101,18.307303],[-72.703714,18.304827],[-72.681196,18.324228],[-72.642432,18.327118],[-72.631315,18.336612],[-72.594831,18.340741],[-72.570318,18.350648],[-72.558062,18.351061],[-72.548086,18.358491],[-72.523573,18.386768],[-72.490224,18.401629],[-72.454309,18.399359],[-72.408989,18.377686],[-72.379916,18.379957],[-72.353977,18.349409],[-72.271318,18.344662],[-72.186093,18.349616],[-72.099442,18.332691],[-72.012792,18.313908],[-71.928707,18.31494],[-71.861154,18.309987],[-71.809563,18.279439],[-71.721202,18.293887],[-71.721772,18.292855],[-71.765953,18.220202],[-71.773934,18.201419],[-71.775359,18.172317],[-71.764528,18.143627],[-71.760822,18.086866],[-71.764243,18.069322],[-71.776214,18.039187],[-71.792746,18.04992],[-71.862579,18.136609],[-71.893078,18.162616],[-71.928137,18.183669],[-72.006806,18.209469],[-72.0393,18.225568],[-72.071794,18.23754],[-72.110844,18.23754],[-72.190653,18.224949],[-72.29469,18.225775],[-72.440343,18.223917],[-72.518727,18.210501],[-72.550936,18.224743],[-72.556351,18.220821],[-72.549511,18.18243],[-72.559202,18.172523],[-72.570603,18.172317],[-72.597966,18.182224],[-72.613073,18.184907],[-72.731077,18.174587],[-72.75502,18.176238],[-72.748179,18.155598],[-72.768987,18.158075],[-72.775828,18.163235],[-72.803761,18.146104],[-72.858772,18.151264],[-72.885851,18.141563],[-72.912074,18.155804],[-72.947418,18.169221],[-72.985327,18.178715],[-73.00813,18.180985],[-73.006705,18.185939],[-73.012406,18.221027]]]}}]}