{"type":"FeatureCollection","features":[{"type":"Feature","id":"MX.BC","properties":{"name":"Baja California","country_code":"mx","country_es":"México","hc_key":"mx-bc"},"geometry":{"type":"MultiPolygon","coordinates":[[[[1.9,811.4],[1.7,808.8],[-2.1,811.7],[-4.0,811.4],[0.5,816.8],[1.8,822.1],[3.1,817.6],[1.9,811.4]]],[[[-96.3,852.9],[-98.3,852.3],[-99.9,859.2],[-99.6,862.3],[-95.7,858.5],[-96.3,852.9]]],[[[34.1,805.0],[36.8,808.0],[36.1,804.8],[34.1,805.0]]],[[[37.7,804.7],[37.5,805.9],[38.6,804.6],[37.7,804.7]]],[[[29.5,975.8],[25.3,974.8],[21.6,968.1],[23.8,962.8],[23.6,953.9],[26.6,949.1],[27.6,944.0],[24.8,939.3],[24.3,934.2],[22.3,925.8],[24.3,921.3],[23.6,919.7],[27.0,916.9],[27.3,909.5],[26.6,905.5],[28.1,897.3],[26.3,888.3],[29.7,879.8],[32.9,877.2],[33.7,872.5],[39.6,870.5],[44.4,864.5],[52.9,856.7],[57.3,850.5],[56.1,849.3],[59.5,842.7],[59.4,836.7],[62.6,839.0],[64.8,832.8],[68.0,834.1],[69.9,830.3],[72.3,821.1],[75.5,819.0],[80.6,818.1],[79.3,812.3],[81.9,808.8],[80.9,806.0],[82.2,801.3],[58.5,803.1],[38.9,804.6],[37.6,809.3],[39.7,812.3],[37.6,814.4],[41.0,821.8],[37.5,829.2],[34.0,829.9],[28.1,840.7],[24.4,842.3],[23.5,847.3],[20.6,848.4],[13.3,859.0],[6.4,861.5],[3.5,865.7],[-1.6,869.6],[-3.2,869.4],[-9.2,875.5],[-8.8,880.8],[-12.1,883.4],[-10.7,888.4],[-11.5,898.2],[-17.9,903.9],[-16.5,913.3],[-17.2,916.5],[-20.5,918.7],[-22.5,922.6],[-25.3,922.8],[-23.7,930.0],[-24.4,932.8],[-29.6,941.8],[-33.8,946.5],[-32.5,950.4],[-35.3,954.3],[-32.6,952.9],[-30.7,957.8],[-34.8,960.3],[-37.3,963.5],[-39.5,973.7],[-41.8,975.1],[-44.0,982.2],[-43.9,985.1],[33.3,983.5],[30.3,979.3],[29.5,975.8]]],[[[65.9,846.7],[58.9,856.2],[59.8,861.4],[61.8,861.3],[66.6,854.7],[65.7,851.9],[71.8,850.7],[73.2,839.1],[65.9,846.7]]]]}},{"type":"Feature","id":"MX.BS","properties":{"name":"Baja California Sur","country_code":"mx","country_es":"México","hc_key":"mx-bs"},"geometry":{"type":"MultiPolygon","coordinates":[[[[174.6,652.2],[172.4,651.9],[171.2,653.9],[170.3,660.5],[174.6,652.2]]],[[[100.8,669.3],[104.5,669.1],[110.1,663.3],[109.4,660.6],[100.8,669.3]]],[[[156.0,667.6],[158.3,664.6],[156.9,662.1],[154.1,668.5],[156.0,667.6]]],[[[148.8,686.2],[150.9,680.3],[146.6,683.0],[144.7,686.2],[148.8,686.2]]],[[[95.3,687.2],[92.7,679.9],[90.0,680.2],[93.8,688.4],[96.7,697.6],[97.2,695.9],[94.8,689.4],[95.3,687.2]]],[[[135.0,725.7],[128.7,716.7],[129.5,720.6],[130.9,724.9],[135.0,725.7]]],[[[34.1,805.0],[36.1,804.8],[37.3,802.0],[37.7,804.7],[38.6,804.6],[38.7,804.5],[38.9,804.6],[58.5,803.1],[82.2,801.3],[81.5,796.3],[86.8,788.0],[94.1,784.2],[96.5,776.5],[99.3,772.0],[98.6,770.6],[102.6,767.4],[107.1,765.6],[104.6,761.5],[109.2,755.5],[107.8,752.1],[111.5,745.8],[115.2,745.9],[110.8,751.2],[110.0,757.5],[111.1,758.0],[119.3,750.0],[118.8,745.5],[122.9,743.1],[122.0,738.7],[124.2,736.0],[123.9,733.1],[126.2,726.3],[124.6,722.2],[126.0,715.2],[129.0,712.1],[132.0,705.4],[135.2,704.8],[134.9,702.3],[138.4,690.7],[143.2,685.6],[146.3,677.8],[143.8,673.2],[143.0,668.5],[144.7,661.1],[148.5,655.4],[155.6,651.4],[157.5,655.2],[156.3,658.9],[160.0,659.8],[161.9,656.3],[167.4,652.6],[167.9,648.4],[173.4,648.8],[173.4,643.1],[177.5,638.7],[177.9,633.1],[184.8,629.5],[186.4,625.7],[186.2,619.7],[182.3,612.7],[175.9,610.1],[169.4,604.5],[167.4,604.5],[162.6,610.1],[160.7,621.5],[156.2,629.9],[147.1,635.6],[131.9,652.1],[117.7,661.5],[112.8,666.9],[110.9,671.3],[110.2,669.4],[106.6,670.0],[105.3,674.1],[101.5,679.0],[97.3,679.0],[95.6,682.9],[96.7,694.1],[98.7,697.2],[99.3,704.6],[98.3,704.8],[98.9,714.8],[96.3,725.0],[93.2,727.3],[91.8,732.2],[88.6,735.5],[86.7,734.6],[79.2,740.2],[68.6,749.5],[68.9,751.4],[65.6,756.9],[66.7,763.6],[61.4,755.7],[58.9,757.6],[54.2,757.9],[52.7,755.2],[49.5,755.7],[46.7,758.7],[44.1,764.5],[39.4,766.7],[37.8,766.1],[34.5,771.2],[30.6,773.3],[28.6,772.4],[22.4,777.1],[22.3,783.5],[19.5,786.4],[15.0,788.5],[11.5,794.8],[9.9,794.3],[5.7,798.3],[5.3,802.2],[20.2,797.6],[23.7,797.3],[29.8,800.6],[30.8,795.3],[35.0,792.4],[36.4,789.8],[38.6,792.1],[41.6,791.4],[42.9,793.7],[39.4,795.1],[36.7,793.7],[34.7,798.4],[35.3,803.0],[31.8,800.9],[34.1,805.0]]]]}},{"type":"Feature","id":"MX.SO","properties":{"name":"Sonora","country_code":"mx","country_es":"México","hc_key":"mx-so"},"geometry":{"type":"MultiPolygon","coordinates":[[[[99.7,827.5],[90.5,833.7],[93.9,837.1],[93.7,841.1],[96.1,845.6],[101.3,846.2],[101.3,842.9],[103.6,838.3],[99.7,827.5]]],[[[31.4,946.1],[29.8,945.2],[27.4,947.8],[28.9,949.2],[31.4,946.1]]],[[[221.9,749.3],[200.1,732.6],[196.3,733.3],[196.4,738.9],[187.6,748.7],[187.4,746.2],[183.0,746.0],[179.5,747.4],[176.7,751.0],[173.4,760.5],[162.9,764.7],[159.2,768.5],[155.0,770.7],[158.5,770.6],[153.4,776.4],[152.4,782.4],[154.1,784.6],[153.2,790.0],[156.4,791.1],[147.0,794.7],[145.7,797.0],[144.2,791.5],[140.7,796.4],[138.7,795.5],[132.6,800.1],[125.9,812.9],[118.3,816.3],[116.9,821.0],[111.1,827.9],[112.0,829.5],[108.6,832.0],[104.9,837.0],[104.8,841.6],[103.0,844.7],[102.9,849.4],[99.8,848.9],[97.1,852.1],[98.7,855.3],[89.8,872.7],[87.8,873.4],[88.4,883.2],[85.2,886.6],[85.3,892.6],[81.8,896.8],[79.2,902.2],[78.0,907.6],[81.7,920.3],[76.1,924.1],[66.0,926.9],[64.2,929.2],[63.1,934.7],[59.6,937.5],[54.4,939.4],[51.2,935.5],[47.0,936.0],[36.9,943.9],[34.3,947.3],[31.3,947.7],[23.6,953.9],[23.8,962.8],[21.6,968.1],[25.3,974.8],[29.5,975.8],[132.1,928.7],[145.8,922.5],[147.8,922.1],[213.1,918.8],[209.9,900.2],[217.5,892.7],[220.8,891.3],[224.3,887.6],[225.1,870.1],[224.5,868.6],[221.8,846.7],[218.7,846.5],[220.6,822.9],[219.6,816.9],[222.7,806.0],[219.3,803.1],[211.5,805.3],[205.2,805.0],[202.5,801.4],[206.3,791.2],[210.0,788.4],[211.0,785.4],[214.5,782.2],[213.9,780.3],[217.9,775.9],[218.2,768.6],[216.7,763.8],[220.0,758.4],[223.3,756.3],[223.3,756.3],[223.5,755.9],[223.5,755.9],[221.9,749.3]]],[[[194.8,729.2],[195.9,731.7],[195.1,729.3],[195.0,729.3],[194.8,729.2]]],[[[196.9,730.1],[197.2,732.8],[199.5,731.7],[198.4,731.0],[196.9,730.1]]]]}},{"type":"Feature","id":"MX.CL","properties":{"name":"Colima","country_code":"mx","country_es":"México","hc_key":"mx-cl"},"geometry":{"type":"MultiPolygon","coordinates":[[[[127.4,450.9],[122.4,452.6],[124.9,456.2],[127.9,452.1],[127.4,450.9]]],[[[382.4,445.2],[374.0,452.0],[361.5,457.5],[362.5,459.7],[352.3,462.2],[354.3,465.9],[356.4,465.2],[365.6,468.6],[368.9,474.2],[371.4,475.4],[379.1,471.5],[386.1,474.8],[387.3,471.9],[391.0,468.5],[390.0,460.2],[391.7,455.5],[387.2,452.7],[386.5,449.4],[382.4,445.2]]]]}},{"type":"Feature","id":"MX.NA","properties":{"name":"Nayarit","country_code":"mx","country_es":"México","hc_key":"mx-na"},"geometry":{"type":"MultiPolygon","coordinates":[[[[281.1,557.6],[284.9,556.1],[284.4,552.5],[281.5,554.0],[281.1,557.6]]],[[[362.2,580.2],[362.0,579.1],[361.6,578.1],[359.2,571.5],[369.6,560.3],[367.5,553.3],[365.7,550.4],[375.0,545.1],[373.7,541.2],[370.2,538.7],[365.3,537.4],[365.7,530.1],[363.6,525.9],[363.1,520.2],[356.4,525.3],[354.8,527.6],[351.4,528.2],[347.7,531.5],[345.2,531.8],[340.8,528.6],[334.8,528.1],[327.9,519.5],[325.5,522.4],[321.4,522.0],[322.2,526.3],[327.3,532.3],[330.0,533.4],[330.6,538.8],[329.7,543.9],[331.3,549.5],[323.8,553.6],[316.4,566.8],[315.5,570.2],[315.7,578.0],[313.4,587.5],[317.2,588.9],[322.3,586.9],[323.1,588.9],[321.6,593.9],[318.7,597.9],[322.9,602.0],[322.2,605.1],[325.1,606.9],[334.0,606.2],[340.3,602.4],[342.3,597.7],[338.6,593.5],[339.4,588.5],[346.2,593.5],[349.9,591.6],[352.7,585.4],[356.5,583.8],[361.4,586.0],[362.2,580.2]]]]}},{"type":"Feature","id":"MX.CM","properties":{"name":"Campeche","country_code":"mx","country_es":"México","hc_key":"mx-cm"},"geometry":{"type":"MultiPolygon","coordinates":[[[[818.4,464.6],[813.7,461.4],[807.9,460.3],[817.2,465.5],[818.4,464.6]]],[[[907.4,440.3],[907.3,435.0],[841.5,430.0],[840.4,429.4],[840.0,435.7],[835.7,435.5],[827.9,438.3],[818.6,439.3],[816.7,433.4],[808.5,432.9],[804.5,434.8],[797.2,440.3],[796.6,451.5],[789.1,450.8],[786.9,452.4],[784.2,457.8],[799.2,460.8],[803.3,460.6],[806.7,457.8],[801.3,457.5],[809.3,453.5],[816.8,452.1],[819.8,455.0],[825.9,457.8],[827.9,464.1],[822.2,467.2],[821.5,469.2],[830.8,475.1],[838.6,481.3],[845.3,490.0],[845.1,501.9],[846.4,505.6],[852.7,511.5],[851.5,517.0],[851.3,530.0],[850.3,534.7],[851.1,542.8],[853.2,546.1],[853.8,535.5],[859.5,534.6],[862.2,531.6],[866.0,531.4],[867.4,533.7],[870.6,528.4],[873.5,526.6],[876.0,521.8],[882.9,517.8],[886.0,513.1],[890.1,509.2],[892.0,504.5],[893.7,502.4],[903.0,496.0],[908.0,489.2],[908.4,482.1],[906.4,479.2],[906.3,468.7],[910.6,450.3],[906.9,443.4],[907.4,440.3]]]]}},{"type":"Feature","id":"MX.QR","properties":{"name":"Quintana Roo","country_code":"mx","country_es":"México","hc_key":"mx-qr"},"geometry":{"type":"MultiPolygon","coordinates":[[[[985.1,549.4],[979.7,538.9],[977.4,536.6],[976.3,543.3],[978.4,547.8],[985.1,549.4]]],[[[952.6,582.1],[954.4,581.1],[963.6,581.1],[966.1,582.5],[966.9,586.0],[961.9,585.5],[966.6,588.3],[971.7,586.8],[974.9,582.5],[978.5,582.4],[979.9,573.7],[982.8,572.4],[980.4,566.5],[979.3,559.9],[973.3,550.1],[967.8,544.5],[961.4,532.1],[961.6,519.9],[955.6,511.8],[952.9,511.5],[952.9,508.9],[956.0,507.3],[955.8,504.9],[959.5,507.7],[964.1,507.6],[964.6,505.3],[956.9,499.9],[956.3,494.7],[958.1,494.1],[960.4,498.0],[963.5,498.5],[960.1,486.5],[959.0,476.5],[957.0,473.0],[956.3,462.3],[954.8,459.5],[954.4,454.0],[953.1,458.9],[950.1,463.1],[944.7,464.8],[946.8,472.4],[944.9,479.4],[941.6,474.7],[937.2,463.8],[929.7,462.9],[925.9,452.9],[923.1,450.4],[922.1,445.5],[917.4,438.7],[910.8,442.5],[907.4,440.3],[906.9,443.4],[910.6,450.3],[906.3,468.7],[906.4,479.2],[908.4,482.1],[908.0,489.2],[903.0,496.0],[893.7,502.4],[892.0,504.5],[893.1,511.1],[899.0,512.5],[904.0,516.4],[909.2,517.5],[916.1,523.3],[925.2,528.2],[927.3,532.9],[930.8,534.9],[934.4,539.8],[939.8,539.4],[943.6,541.7],[951.2,548.8],[955.0,561.2],[952.5,567.0],[953.9,574.4],[952.6,582.1]]]]}},{"type":"Feature","id":"MX.MX","properties":{"name":"México","country_code":"mx","country_es":"México","hc_key":"mx-mx"},"geometry":{"type":"Polygon","coordinates":[[[562.9,460.8],[560.8,458.7],[557.0,458.8],[556.0,461.4],[551.6,462.9],[552.3,464.1],[550.4,472.1],[545.4,480.7],[540.8,472.7],[539.0,472.7],[538.3,468.1],[540.1,464.5],[538.5,460.3],[539.6,456.8],[533.8,451.6],[533.1,446.9],[530.3,447.2],[527.2,450.0],[522.9,444.6],[520.6,446.1],[512.7,443.9],[510.1,439.5],[505.7,435.7],[502.4,437.9],[502.9,440.8],[499.9,445.0],[498.9,452.3],[492.9,453.2],[504.1,467.9],[502.9,470.3],[508.9,474.1],[506.8,479.4],[509.7,493.4],[515.5,502.3],[515.9,505.3],[519.2,507.5],[526.5,501.0],[529.7,502.2],[532.0,498.6],[531.0,494.6],[533.6,493.0],[535.9,487.3],[542.1,495.9],[548.6,498.4],[551.8,494.4],[550.6,490.2],[552.5,489.6],[555.2,492.8],[560.1,491.6],[563.5,487.6],[561.8,481.8],[560.0,481.6],[562.6,477.2],[561.6,474.5],[563.2,467.0],[562.9,460.8]]]}},{"type":"Feature","id":"MX.MO","properties":{"name":"Morelos","country_code":"mx","country_es":"México","hc_key":"mx-mo"},"geometry":{"type":"Polygon","coordinates":[[[551.6,462.9],[556.0,461.4],[557.0,458.8],[560.8,458.7],[562.9,460.8],[562.7,455.8],[560.1,452.8],[562.4,448.1],[559.6,448.3],[562.6,438.5],[557.8,440.9],[549.4,435.2],[543.9,442.8],[542.3,438.9],[539.2,438.8],[536.3,441.5],[533.1,446.9],[533.8,451.6],[539.6,456.8],[538.5,460.3],[540.1,464.5],[548.8,461.6],[551.6,462.9]]]}},{"type":"Feature","id":"MX.DF","properties":{"name":"Distrito Federal","country_code":"mx","country_es":"México","hc_key":"mx-df"},"geometry":{"type":"Polygon","coordinates":[[[551.6,462.9],[548.8,461.6],[540.1,464.5],[538.3,468.1],[539.0,472.7],[540.8,472.7],[545.4,480.7],[550.4,472.1],[552.3,464.1],[551.6,462.9]]]}},{"type":"Feature","id":"MX.QT","properties":{"name":"Querétaro","country_code":"mx","country_es":"México","hc_key":"mx-qt"},"geometry":{"type":"Polygon","coordinates":[[[519.2,507.5],[515.9,505.3],[515.5,502.3],[509.7,493.4],[507.8,494.9],[507.7,498.9],[503.7,503.5],[500.6,505.7],[496.5,511.7],[496.2,515.7],[493.4,522.9],[496.9,531.5],[501.8,529.0],[504.2,530.4],[506.7,528.4],[509.4,529.9],[511.0,539.0],[514.2,540.7],[518.9,539.2],[523.0,542.6],[519.9,544.2],[519.9,549.0],[522.2,552.6],[527.6,548.2],[534.2,549.9],[540.3,558.1],[544.1,548.3],[543.7,544.9],[546.2,544.2],[546.3,540.7],[539.9,538.4],[535.1,537.9],[535.6,534.8],[533.6,529.8],[531.0,527.5],[530.0,523.7],[531.2,521.0],[526.4,517.4],[519.8,515.1],[519.2,507.5]]]}},{"type":"Feature","id":"MX.TB","properties":{"name":"Tabasco","country_code":"mx","country_es":"México","hc_key":"mx-tb"},"geometry":{"type":"Polygon","coordinates":[[[840.4,429.4],[841.9,408.4],[825.8,407.4],[827.2,410.5],[823.0,413.3],[823.1,415.0],[818.0,416.8],[814.9,424.2],[811.4,424.5],[810.1,430.4],[803.6,430.7],[798.4,425.9],[790.6,421.9],[788.3,418.4],[779.5,409.3],[774.1,410.3],[771.4,414.2],[768.4,415.4],[767.2,422.4],[767.2,429.4],[764.1,428.0],[760.0,430.7],[755.8,429.9],[752.8,417.4],[749.7,414.0],[747.1,407.1],[745.0,408.7],[745.8,413.5],[741.2,418.0],[733.7,420.9],[732.3,423.6],[728.4,425.2],[729.1,429.5],[725.5,437.4],[735.2,441.7],[734.7,439.8],[738.7,440.9],[741.5,443.9],[744.8,443.7],[745.1,446.4],[749.9,447.7],[762.3,448.5],[771.1,449.9],[776.5,455.9],[784.2,457.8],[786.9,452.4],[789.1,450.8],[796.6,451.5],[797.2,440.3],[804.5,434.8],[808.5,432.9],[816.7,433.4],[818.6,439.3],[827.9,438.3],[835.7,435.5],[840.0,435.7],[840.4,429.4]]]}},{"type":"Feature","id":"MX.CS","properties":{"name":"Chiapas","country_code":"mx","country_es":"México","hc_key":"mx-cs"},"geometry":{"type":"MultiPolygon","coordinates":[[[[731.3,358.0],[736.2,354.4],[730.6,356.4],[731.3,358.0]]],[[[825.8,407.4],[831.2,405.3],[840.0,395.6],[852.6,389.9],[856.8,384.2],[857.1,380.1],[860.4,380.6],[866.7,376.3],[864.5,373.9],[865.6,368.4],[863.6,364.7],[818.1,361.7],[817.1,360.8],[802.1,331.1],[802.3,329.1],[807.4,323.2],[804.6,320.0],[803.7,313.1],[805.0,308.9],[802.2,302.8],[784.5,319.1],[779.0,325.7],[773.6,328.6],[764.1,337.1],[747.8,349.0],[737.0,354.9],[740.2,355.6],[738.5,358.0],[731.6,359.9],[733.0,364.7],[729.4,373.4],[732.3,379.3],[732.3,385.0],[736.4,387.8],[737.7,392.8],[737.2,398.0],[745.5,404.2],[747.1,407.1],[749.7,414.0],[752.8,417.4],[755.8,429.9],[760.0,430.7],[764.1,428.0],[767.2,429.4],[767.2,422.4],[768.4,415.4],[771.4,414.2],[774.1,410.3],[779.5,409.3],[788.3,418.4],[790.6,421.9],[798.4,425.9],[803.6,430.7],[810.1,430.4],[811.4,424.5],[814.9,424.2],[818.0,416.8],[823.1,415.0],[823.0,413.3],[827.2,410.5],[825.8,407.4]]]]}},{"type":"Feature","id":"MX.NL","properties":{"name":"Nuevo León","country_code":"mx","country_es":"México","hc_key":"mx-nl"},"geometry":{"type":"Polygon","coordinates":[[[511.5,785.9],[513.8,784.2],[514.8,782.3],[508.3,778.4],[508.6,775.7],[512.9,775.2],[516.6,762.3],[515.2,757.0],[516.2,753.4],[520.9,751.3],[518.1,745.5],[520.9,745.7],[526.2,743.6],[527.3,741.6],[526.2,737.6],[527.3,734.0],[529.3,735.2],[532.1,731.5],[534.8,731.1],[536.5,722.8],[540.3,724.3],[544.9,719.9],[547.4,723.4],[555.6,721.4],[556.1,720.4],[557.0,702.0],[560.7,700.2],[546.3,686.9],[541.2,687.9],[536.3,683.1],[537.3,674.9],[532.8,676.7],[526.6,673.2],[524.4,669.6],[520.9,669.2],[518.1,666.6],[519.1,663.0],[522.6,664.6],[523.9,658.3],[522.7,650.6],[523.6,647.9],[528.2,644.0],[523.7,636.8],[515.5,635.5],[511.9,627.4],[513.7,621.8],[508.9,623.2],[506.1,620.9],[508.6,619.4],[508.6,616.6],[499.3,616.9],[498.9,614.5],[495.5,615.8],[494.2,622.8],[494.7,626.4],[493.1,631.9],[493.2,637.9],[489.9,641.9],[489.0,645.4],[488.6,655.0],[480.8,665.3],[482.6,672.2],[481.6,677.6],[483.7,680.2],[480.1,683.0],[482.2,687.0],[486.0,689.5],[490.4,690.3],[495.4,689.1],[499.5,689.8],[501.5,692.4],[497.9,694.9],[492.8,694.6],[488.7,697.2],[485.4,701.4],[488.6,700.3],[485.6,704.4],[483.4,704.6],[479.0,710.8],[478.8,717.1],[476.2,718.7],[475.8,721.7],[472.2,724.4],[469.7,729.1],[466.1,732.3],[481.2,746.1],[482.7,741.9],[486.7,747.5],[487.6,757.5],[483.5,759.9],[482.2,756.9],[479.3,758.3],[479.1,764.0],[484.8,768.5],[491.1,770.6],[492.5,779.0],[494.2,782.7],[499.0,786.3],[506.3,780.8],[511.5,785.9]]]}},{"type":"Feature","id":"MX.SI","properties":{"name":"Sinaloa","country_code":"mx","country_es":"México","hc_key":"mx-si"},"geometry":{"type":"Polygon","coordinates":[[[195.1,729.3],[195.1,726.3],[196.9,730.1],[198.4,731.0],[199.5,731.7],[200.9,728.2],[200.1,732.6],[221.9,749.3],[223.3,756.3],[223.3,756.3],[226.7,759.5],[230.6,758.0],[232.5,755.3],[238.3,753.2],[238.9,749.3],[244.2,741.1],[245.3,727.9],[246.3,726.0],[257.9,723.3],[260.2,721.5],[262.9,713.4],[267.3,710.5],[273.6,704.7],[269.2,699.6],[268.0,696.6],[266.8,688.0],[269.7,677.9],[273.1,673.3],[275.7,672.9],[279.0,669.6],[283.5,661.3],[284.3,657.1],[287.3,654.2],[290.8,654.0],[295.3,657.7],[297.9,657.7],[302.8,653.6],[306.2,645.8],[309.2,645.4],[307.3,640.8],[307.8,632.4],[310.2,626.9],[314.0,623.0],[314.9,616.8],[319.6,611.7],[325.0,611.2],[325.1,606.9],[322.2,605.1],[322.9,602.0],[318.7,597.9],[321.6,593.9],[323.1,588.9],[322.3,586.9],[317.2,588.9],[313.4,587.5],[310.8,592.3],[305.9,597.7],[302.8,599.5],[296.4,607.9],[289.3,614.6],[286.2,621.2],[283.2,623.6],[276.4,632.3],[273.5,637.8],[269.0,642.9],[257.5,651.6],[256.6,653.3],[244.1,662.0],[252.0,657.6],[254.2,658.8],[252.9,663.0],[249.3,661.1],[238.8,668.1],[242.2,664.2],[236.8,668.5],[235.5,673.7],[237.7,673.4],[235.8,681.6],[235.1,675.1],[231.6,677.4],[227.5,685.9],[232.2,680.8],[232.4,684.0],[236.5,681.7],[233.5,686.1],[229.8,688.3],[225.8,688.0],[225.0,692.0],[224.1,688.1],[222.0,692.1],[214.1,697.2],[210.1,696.4],[199.8,702.8],[204.7,704.3],[207.3,708.7],[199.3,704.6],[198.1,707.1],[193.7,707.7],[194.2,709.8],[189.2,712.8],[189.7,721.4],[194.8,729.2],[195.0,729.3],[195.1,729.3]]]}},{"type":"Feature","id":"MX.CH","properties":{"name":"Chihuahua","country_code":"mx","country_es":"México","hc_key":"mx-ch"},"geometry":{"type":"Polygon","coordinates":[[[223.3,756.3],[223.3,756.3],[220.0,758.4],[216.7,763.8],[218.2,768.6],[217.9,775.9],[213.9,780.3],[214.5,782.2],[211.0,785.4],[210.0,788.4],[206.3,791.2],[202.5,801.4],[205.2,805.0],[211.5,805.3],[219.3,803.1],[222.7,806.0],[219.6,816.9],[220.6,822.9],[218.7,846.5],[221.8,846.7],[224.5,868.6],[225.1,870.1],[224.3,887.6],[220.8,891.3],[217.5,892.7],[209.9,900.2],[213.1,918.8],[237.2,917.8],[237.8,934.6],[291.9,933.0],[296.9,930.8],[299.1,925.6],[302.9,920.6],[308.0,918.6],[315.5,910.4],[321.1,906.3],[322.2,903.7],[328.3,898.0],[332.6,896.5],[339.7,891.5],[343.6,886.8],[344.7,881.6],[350.2,873.4],[350.2,864.0],[353.8,858.3],[355.0,853.8],[360.9,848.9],[363.6,848.5],[370.5,841.6],[379.1,839.3],[383.0,835.4],[387.3,834.6],[392.9,829.9],[394.9,830.0],[373.7,788.7],[385.1,741.2],[374.5,745.5],[368.7,746.0],[364.8,744.1],[355.2,731.0],[352.6,730.3],[344.7,735.3],[339.5,736.0],[338.2,734.4],[335.2,737.8],[328.1,734.4],[320.5,738.7],[316.4,743.5],[312.1,743.3],[304.8,748.8],[302.6,745.0],[300.4,745.3],[300.0,740.4],[298.1,738.5],[297.9,733.6],[291.0,731.2],[292.9,724.0],[292.0,720.3],[287.7,717.5],[286.9,709.6],[280.8,704.3],[273.6,704.7],[267.3,710.5],[262.9,713.4],[260.2,721.5],[257.9,723.3],[246.3,726.0],[245.3,727.9],[244.2,741.1],[238.9,749.3],[238.3,753.2],[232.5,755.3],[230.6,758.0],[226.7,759.5],[223.5,755.9],[223.3,756.3]]]}},{"type":"Feature","id":"MX.VE","properties":{"name":"Veracruz","country_code":"mx","country_es":"México","hc_key":"mx-ve"},"geometry":{"type":"Polygon","coordinates":[[[725.5,437.4],[729.1,429.5],[728.4,425.2],[732.3,423.6],[733.7,420.9],[741.2,418.0],[745.8,413.5],[745.0,408.7],[747.1,407.1],[745.5,404.2],[737.2,398.0],[698.6,398.5],[696.1,403.9],[693.3,404.9],[686.5,411.8],[687.9,417.5],[673.7,408.6],[667.0,409.1],[662.5,418.2],[667.0,426.4],[664.5,431.0],[660.2,432.4],[654.8,431.4],[650.4,433.3],[649.5,436.4],[644.7,441.6],[643.3,445.7],[636.5,448.2],[634.0,450.2],[635.3,445.3],[632.2,440.4],[629.4,445.6],[618.4,443.2],[617.2,448.8],[610.9,449.8],[610.0,454.5],[613.6,458.5],[611.9,467.7],[617.4,468.6],[621.7,472.9],[613.0,474.4],[606.4,478.2],[609.4,479.6],[606.7,483.1],[608.9,487.6],[609.1,495.0],[614.3,502.3],[614.3,504.8],[605.2,508.6],[602.9,507.7],[600.5,503.8],[595.2,505.6],[592.1,508.6],[592.0,514.8],[594.7,515.9],[596.7,514.1],[599.4,517.6],[598.2,520.4],[594.1,521.0],[592.5,527.5],[588.1,529.1],[585.8,525.5],[585.5,518.7],[583.9,516.2],[582.8,522.8],[579.7,523.7],[572.1,513.9],[570.6,515.0],[568.7,511.4],[566.4,511.0],[563.9,515.0],[565.8,520.8],[568.2,522.8],[569.5,530.3],[575.1,528.8],[575.0,532.9],[578.4,538.0],[575.4,540.8],[572.8,540.4],[573.2,544.0],[570.3,540.8],[565.4,544.7],[567.1,548.1],[564.5,549.7],[563.8,554.4],[559.7,557.4],[560.3,560.2],[565.7,563.8],[562.0,568.5],[565.8,571.5],[568.8,578.0],[568.2,582.2],[559.5,587.6],[565.6,588.4],[570.6,587.6],[570.8,589.9],[574.0,590.5],[577.8,586.7],[584.7,584.5],[586.0,581.3],[588.7,583.4],[589.8,576.8],[595.4,567.3],[599.2,563.2],[606.2,557.5],[605.3,552.1],[603.1,546.6],[600.9,552.6],[603.7,554.1],[604.0,557.1],[600.1,560.0],[594.8,566.1],[591.4,571.5],[594.1,559.8],[597.1,554.8],[600.3,554.2],[600.1,551.2],[606.3,538.5],[611.6,529.6],[613.5,523.5],[617.8,518.8],[631.1,506.0],[639.4,495.5],[643.4,483.2],[646.7,475.0],[651.2,471.9],[653.8,467.9],[657.9,465.9],[659.4,461.5],[663.0,457.7],[658.9,458.4],[664.5,454.7],[673.2,452.6],[667.3,455.1],[675.8,453.6],[686.0,454.2],[693.7,448.8],[700.7,448.0],[709.6,435.8],[713.8,434.3],[725.5,437.4]]]}},{"type":"Feature","id":"MX.ZA","properties":{"name":"Zacatecas","country_code":"mx","country_es":"México","hc_key":"mx-za"},"geometry":{"type":"Polygon","coordinates":[[[361.6,578.1],[362.0,579.1],[362.2,580.2],[365.8,592.2],[366.4,609.9],[368.3,612.5],[369.2,621.7],[374.9,626.6],[375.7,629.8],[378.6,629.0],[379.5,631.3],[377.0,634.3],[378.0,637.2],[376.1,640.0],[378.3,640.7],[378.1,645.4],[384.1,648.8],[389.3,655.5],[392.3,655.9],[393.3,658.7],[398.5,661.2],[413.7,658.3],[424.3,660.8],[424.0,673.8],[417.9,683.2],[420.8,685.0],[434.7,686.6],[445.3,683.5],[448.6,678.5],[454.6,676.5],[453.8,671.8],[459.1,671.7],[463.0,675.0],[468.1,673.6],[471.6,667.9],[480.8,665.3],[479.5,661.6],[475.4,657.9],[467.1,643.6],[453.0,632.7],[451.2,629.8],[447.4,627.9],[443.7,623.1],[439.2,619.3],[435.1,621.1],[433.3,615.9],[431.4,614.6],[434.0,609.8],[433.2,605.4],[438.0,597.0],[443.7,593.0],[448.0,587.0],[450.4,585.8],[455.0,587.7],[456.5,591.0],[464.5,591.3],[466.4,587.2],[463.7,582.7],[465.8,572.6],[459.2,563.3],[455.6,566.5],[450.7,567.7],[447.8,569.6],[443.1,573.5],[442.3,579.2],[439.6,579.7],[436.5,582.7],[434.9,582.0],[432.1,586.1],[430.3,583.5],[424.6,580.0],[420.8,580.0],[419.9,576.5],[413.2,566.0],[412.8,563.0],[416.1,559.2],[415.6,554.0],[420.4,552.5],[418.9,546.3],[414.6,542.2],[406.4,542.0],[406.0,532.9],[399.9,534.1],[390.3,538.4],[387.3,538.3],[385.7,540.6],[382.3,539.6],[383.4,545.4],[382.3,550.6],[384.7,549.3],[389.8,553.5],[389.5,561.6],[393.8,565.7],[397.7,567.9],[402.3,568.4],[404.6,571.2],[403.2,573.7],[406.1,577.8],[405.7,579.9],[401.1,580.4],[401.2,582.6],[394.7,587.6],[392.8,583.6],[395.2,581.4],[392.1,577.4],[390.7,573.4],[384.2,573.4],[384.0,580.3],[386.5,587.9],[384.8,590.3],[381.2,589.2],[378.1,575.0],[376.8,581.1],[378.1,589.5],[380.1,591.5],[380.6,595.7],[373.5,597.0],[373.3,589.7],[375.5,586.5],[374.4,581.9],[368.4,581.1],[361.6,578.1]]]}},{"type":"Feature","id":"MX.AG","properties":{"name":"Aguascalientes","country_code":"mx","country_es":"México","hc_key":"mx-ag"},"geometry":{"type":"Polygon","coordinates":[[[447.8,569.6],[446.2,567.3],[440.8,563.9],[439.8,560.2],[434.6,556.8],[424.7,557.7],[420.7,560.2],[416.1,559.2],[412.8,563.0],[413.2,566.0],[419.9,576.5],[420.8,580.0],[424.6,580.0],[430.3,583.5],[432.1,586.1],[434.9,582.0],[436.5,582.7],[439.6,579.7],[442.3,579.2],[443.1,573.5],[447.8,569.6]]]}},{"type":"Feature","id":"MX.JA","properties":{"name":"Jalisco","country_code":"mx","country_es":"México","hc_key":"mx-ja"},"geometry":{"type":"Polygon","coordinates":[[[416.1,559.2],[420.7,560.2],[424.7,557.7],[434.6,556.8],[439.8,560.2],[440.8,563.9],[446.2,567.3],[447.8,569.6],[450.7,567.7],[455.6,566.5],[459.2,563.3],[457.2,560.9],[458.7,555.6],[455.4,551.1],[457.7,544.9],[453.8,540.6],[450.8,540.4],[448.0,537.3],[441.5,526.9],[440.2,521.5],[444.0,517.9],[443.9,515.1],[439.8,508.8],[434.8,507.0],[432.9,507.8],[425.9,505.9],[419.6,502.3],[405.6,497.9],[405.8,493.9],[416.4,492.5],[418.7,489.0],[415.1,487.4],[415.6,482.5],[417.7,478.6],[417.5,474.6],[422.1,475.2],[424.5,471.4],[420.7,465.5],[418.2,466.5],[412.7,464.4],[409.0,459.0],[402.7,455.4],[398.1,458.5],[396.3,455.9],[391.7,455.5],[390.0,460.2],[391.0,468.5],[387.3,471.9],[386.1,474.8],[379.1,471.5],[371.4,475.4],[368.9,474.2],[365.6,468.6],[356.4,465.2],[354.3,465.9],[352.3,462.2],[347.3,465.2],[344.7,465.2],[337.3,470.4],[334.8,477.6],[329.1,481.5],[319.5,495.2],[318.6,501.5],[313.5,509.2],[317.9,512.2],[326.6,513.1],[329.6,515.7],[327.9,519.5],[334.8,528.1],[340.8,528.6],[345.2,531.8],[347.7,531.5],[351.4,528.2],[354.8,527.6],[356.4,525.3],[363.1,520.2],[363.6,525.9],[365.7,530.1],[365.3,537.4],[370.2,538.7],[373.7,541.2],[375.0,545.1],[365.7,550.4],[367.5,553.3],[369.6,560.3],[359.2,571.5],[361.6,578.1],[368.4,581.1],[374.4,581.9],[375.5,586.5],[373.3,589.7],[373.5,597.0],[380.6,595.7],[380.1,591.5],[378.1,589.5],[376.8,581.1],[378.1,575.0],[381.2,589.2],[384.8,590.3],[386.5,587.9],[384.0,580.3],[384.2,573.4],[390.7,573.4],[392.1,577.4],[395.2,581.4],[392.8,583.6],[394.7,587.6],[401.2,582.6],[401.1,580.4],[405.7,579.9],[406.1,577.8],[403.2,573.7],[404.6,571.2],[402.3,568.4],[397.7,567.9],[393.8,565.7],[389.5,561.6],[389.8,553.5],[384.7,549.3],[382.3,550.6],[383.4,545.4],[382.3,539.6],[385.7,540.6],[387.3,538.3],[390.3,538.4],[399.9,534.1],[406.0,532.9],[406.4,542.0],[414.6,542.2],[418.9,546.3],[420.4,552.5],[415.6,554.0],[416.1,559.2]]]}},{"type":"Feature","id":"MX.MI","properties":{"name":"Michoacán","country_code":"mx","country_es":"México","hc_key":"mx-mi"},"geometry":{"type":"Polygon","coordinates":[[[503.7,503.5],[507.7,498.9],[507.8,494.9],[509.7,493.4],[506.8,479.4],[508.9,474.1],[502.9,470.3],[504.1,467.9],[492.9,453.2],[490.8,450.3],[489.7,452.6],[487.1,449.8],[489.3,439.6],[493.7,436.4],[491.0,432.9],[490.8,435.9],[486.3,439.2],[481.1,439.2],[478.9,440.6],[470.7,440.4],[462.4,438.0],[456.8,441.7],[450.0,441.5],[448.1,437.1],[448.8,431.0],[446.9,427.8],[438.8,426.0],[438.5,417.0],[423.2,421.6],[418.1,422.2],[408.0,426.5],[404.8,426.7],[396.0,429.5],[391.1,431.9],[388.4,437.8],[383.6,441.9],[382.4,445.2],[386.5,449.4],[387.2,452.7],[391.7,455.5],[396.3,455.9],[398.1,458.5],[402.7,455.4],[409.0,459.0],[412.7,464.4],[418.2,466.5],[420.7,465.5],[424.5,471.4],[422.1,475.2],[417.5,474.6],[417.7,478.6],[415.6,482.5],[415.1,487.4],[418.7,489.0],[416.4,492.5],[405.8,493.9],[405.6,497.9],[419.6,502.3],[425.9,505.9],[432.9,507.8],[434.8,507.0],[439.8,508.8],[445.1,508.1],[446.8,502.1],[454.3,502.1],[456.8,506.2],[462.3,507.2],[465.3,504.8],[463.9,496.8],[471.9,496.2],[472.9,498.7],[478.7,498.4],[478.2,493.2],[481.8,492.3],[484.8,494.2],[486.7,491.9],[494.3,493.4],[494.9,492.1],[500.0,494.2],[499.9,498.3],[503.7,503.5]]]}},{"type":"Feature","id":"MX.OA","properties":{"name":"Oaxaca","country_code":"mx","country_es":"México","hc_key":"mx-oa"},"geometry":{"type":"Polygon","coordinates":[[[731.6,359.9],[729.3,362.7],[726.4,361.7],[719.2,364.7],[718.6,362.0],[726.2,360.2],[731.3,358.0],[730.6,356.4],[718.5,360.7],[709.0,360.5],[713.0,364.0],[710.4,366.9],[706.6,364.1],[703.1,369.1],[695.7,362.7],[705.1,361.9],[689.7,358.2],[685.5,355.1],[682.7,351.1],[663.9,344.7],[654.0,338.9],[646.9,339.1],[642.4,337.6],[637.8,339.3],[631.8,339.9],[625.3,342.5],[620.2,345.9],[616.3,347.0],[597.9,348.0],[583.2,356.2],[569.3,359.9],[575.1,362.0],[577.6,364.5],[577.0,369.3],[580.5,369.9],[580.2,374.5],[583.1,374.7],[586.1,377.6],[588.4,386.9],[582.9,393.8],[580.1,394.0],[576.2,398.2],[576.2,403.5],[573.8,409.4],[575.7,417.6],[574.9,418.9],[578.7,419.8],[581.0,423.8],[589.9,424.8],[591.2,421.1],[594.2,421.1],[596.8,423.8],[593.6,428.7],[596.7,435.0],[600.9,437.3],[599.8,431.3],[603.4,427.8],[605.4,423.7],[607.8,423.7],[611.6,429.6],[616.1,431.0],[622.0,429.2],[626.9,434.0],[630.2,435.6],[632.2,440.4],[635.3,445.3],[634.0,450.2],[636.5,448.2],[643.3,445.7],[644.7,441.6],[649.5,436.4],[650.4,433.3],[654.8,431.4],[660.2,432.4],[664.5,431.0],[667.0,426.4],[662.5,418.2],[667.0,409.1],[673.7,408.6],[687.9,417.5],[686.5,411.8],[693.3,404.9],[696.1,403.9],[698.6,398.5],[737.2,398.0],[737.7,392.8],[736.4,387.8],[732.3,385.0],[732.3,379.3],[729.4,373.4],[733.0,364.7],[731.6,359.9]]]}},{"type":"Feature","id":"MX.PU","properties":{"name":"Puebla","country_code":"mx","country_es":"México","hc_key":"mx-pu"},"geometry":{"type":"Polygon","coordinates":[[[562.9,460.8],[563.2,467.0],[561.6,474.5],[562.6,477.2],[568.8,476.5],[573.1,469.3],[578.9,464.4],[583.9,468.5],[588.2,466.7],[591.1,468.8],[591.6,472.6],[597.3,471.8],[598.9,474.8],[593.9,477.8],[590.9,477.2],[590.8,481.2],[583.8,484.4],[584.0,486.5],[579.9,485.7],[576.1,493.0],[580.9,501.2],[579.5,505.8],[575.6,505.3],[575.8,509.5],[578.5,510.2],[583.9,516.2],[585.5,518.7],[585.8,525.5],[588.1,529.1],[592.5,527.5],[594.1,521.0],[598.2,520.4],[599.4,517.6],[596.7,514.1],[594.7,515.9],[592.0,514.8],[592.1,508.6],[595.2,505.6],[600.5,503.8],[602.9,507.7],[605.2,508.6],[614.3,504.8],[614.3,502.3],[609.1,495.0],[608.9,487.6],[606.7,483.1],[609.4,479.6],[606.4,478.2],[613.0,474.4],[621.7,472.9],[617.4,468.6],[611.9,467.7],[613.6,458.5],[610.0,454.5],[610.9,449.8],[617.2,448.8],[618.4,443.2],[629.4,445.6],[632.2,440.4],[630.2,435.6],[626.9,434.0],[622.0,429.2],[616.1,431.0],[611.6,429.6],[607.8,423.7],[605.4,423.7],[603.4,427.8],[599.8,431.3],[600.9,437.3],[596.7,435.0],[593.6,428.7],[596.8,423.8],[594.2,421.1],[591.2,421.1],[589.9,424.8],[581.0,423.8],[578.7,419.8],[574.9,418.9],[572.4,421.3],[567.5,420.9],[559.0,423.7],[557.5,426.7],[554.2,427.5],[550.1,431.0],[549.4,435.2],[557.8,440.9],[562.6,438.5],[559.6,448.3],[562.4,448.1],[560.1,452.8],[562.7,455.8],[562.9,460.8]]]}},{"type":"Feature","id":"MX.GR","properties":{"name":"Guerrero","country_code":"mx","country_es":"México","hc_key":"mx-gr"},"geometry":{"type":"Polygon","coordinates":[[[549.4,435.2],[550.1,431.0],[554.2,427.5],[557.5,426.7],[559.0,423.7],[567.5,420.9],[572.4,421.3],[574.9,418.9],[575.7,417.6],[573.8,409.4],[576.2,403.5],[576.2,398.2],[580.1,394.0],[582.9,393.8],[588.4,386.9],[586.1,377.6],[583.1,374.7],[580.2,374.5],[580.5,369.9],[577.0,369.3],[577.6,364.5],[575.1,362.0],[569.3,359.9],[561.0,368.5],[558.2,367.4],[539.4,372.1],[531.1,372.5],[526.2,374.1],[517.0,380.6],[478.5,393.1],[478.6,394.5],[474.0,398.5],[464.2,402.6],[462.7,405.9],[457.4,407.8],[456.3,410.5],[451.3,416.0],[443.2,419.6],[438.5,417.0],[438.8,426.0],[446.9,427.8],[448.8,431.0],[448.1,437.1],[450.0,441.5],[456.8,441.7],[462.4,438.0],[470.7,440.4],[478.9,440.6],[481.1,439.2],[486.3,439.2],[490.8,435.9],[491.0,432.9],[493.7,436.4],[489.3,439.6],[487.1,449.8],[489.7,452.6],[490.8,450.3],[492.9,453.2],[498.9,452.3],[499.9,445.0],[502.9,440.8],[502.4,437.9],[505.7,435.7],[510.1,439.5],[512.7,443.9],[520.6,446.1],[522.9,444.6],[527.2,450.0],[530.3,447.2],[533.1,446.9],[536.3,441.5],[539.2,438.8],[542.3,438.9],[543.9,442.8],[549.4,435.2]]]}},{"type":"Feature","id":"MX.TL","properties":{"name":"Tlaxcala","country_code":"mx","country_es":"México","hc_key":"mx-tl"},"geometry":{"type":"Polygon","coordinates":[[[562.6,477.2],[560.0,481.6],[561.8,481.8],[564.8,483.7],[572.9,482.5],[575.5,487.1],[579.9,485.7],[584.0,486.5],[583.8,484.4],[590.8,481.2],[590.9,477.2],[593.9,477.8],[598.9,474.8],[597.3,471.8],[591.6,472.6],[591.1,468.8],[588.2,466.7],[583.9,468.5],[578.9,464.4],[573.1,469.3],[568.8,476.5],[562.6,477.2]]]}},{"type":"Feature","id":"MX.TM","properties":{"name":"Tamaulipas","country_code":"mx","country_es":"México","hc_key":"mx-tm"},"geometry":{"type":"Polygon","coordinates":[[[508.6,616.6],[508.6,619.4],[506.1,620.9],[508.9,623.2],[513.7,621.8],[511.9,627.4],[515.5,635.5],[523.7,636.8],[528.2,644.0],[523.6,647.9],[522.7,650.6],[523.9,658.3],[522.6,664.6],[519.1,663.0],[518.1,666.6],[520.9,669.2],[524.4,669.6],[526.6,673.2],[532.8,676.7],[537.3,674.9],[536.3,683.1],[541.2,687.9],[546.3,686.9],[560.7,700.2],[557.0,702.0],[556.1,720.4],[555.6,721.4],[547.4,723.4],[544.9,719.9],[540.3,724.3],[536.5,722.8],[534.8,731.1],[532.1,731.5],[529.3,735.2],[527.3,734.0],[526.2,737.6],[527.3,741.6],[526.2,743.6],[520.9,745.7],[518.1,745.5],[520.9,751.3],[516.2,753.4],[515.2,757.0],[516.6,762.3],[512.9,775.2],[508.6,775.7],[508.3,778.4],[514.8,782.3],[518.5,781.5],[521.7,778.9],[523.1,773.5],[521.6,769.1],[524.8,765.4],[523.8,759.3],[526.1,757.6],[528.2,751.8],[531.3,750.8],[532.0,742.2],[536.4,740.3],[537.6,736.0],[547.4,734.9],[552.8,730.4],[554.8,731.3],[562.0,729.0],[567.2,724.8],[581.4,725.1],[587.6,723.4],[594.5,717.9],[599.7,722.2],[604.0,722.6],[603.6,713.5],[599.0,700.7],[594.7,692.6],[589.4,667.5],[588.1,648.4],[588.3,638.3],[587.6,620.3],[589.0,609.6],[585.6,600.5],[586.0,593.1],[588.7,583.4],[586.0,581.3],[584.7,584.5],[577.8,586.7],[574.0,590.5],[570.8,589.9],[570.6,587.6],[565.6,588.4],[559.5,587.6],[554.4,587.0],[552.8,585.3],[548.4,585.5],[537.5,588.4],[532.7,596.6],[531.4,594.9],[526.8,597.9],[527.6,594.3],[523.2,595.2],[511.5,599.4],[509.6,602.8],[513.8,606.2],[513.8,608.5],[509.9,614.1],[507.7,612.1],[508.6,616.6]],[[584.9,669.0],[583.4,664.1],[586.7,665.1],[587.1,655.5],[586.2,646.5],[587.5,641.3],[587.9,657.4],[588.8,669.0],[592.1,687.9],[595.8,696.8],[595.8,701.8],[592.3,703.3],[592.6,700.6],[590.7,697.6],[586.5,699.3],[585.7,695.2],[587.1,691.5],[585.2,684.5],[589.4,683.1],[586.2,680.4],[588.3,671.5],[587.0,666.0],[584.9,669.0]]]}},{"type":"Feature","id":"MX.CO","properties":{"name":"Coahuila","country_code":"mx","country_es":"México","hc_key":"mx-co"},"geometry":{"type":"Polygon","coordinates":[[[394.9,830.0],[400.3,828.6],[401.7,831.3],[409.6,837.8],[408.3,839.5],[412.0,851.3],[415.1,857.0],[420.5,858.6],[424.1,858.4],[426.8,862.8],[433.7,859.5],[449.3,858.8],[452.0,860.6],[452.9,858.6],[456.6,859.1],[458.1,855.4],[462.2,853.2],[461.5,848.4],[468.9,847.6],[469.7,845.0],[476.4,840.7],[478.2,837.2],[481.4,835.1],[483.1,828.0],[486.6,823.7],[487.6,820.1],[490.9,815.9],[495.0,805.0],[498.0,801.7],[502.1,799.9],[505.6,794.0],[508.9,790.7],[511.5,785.9],[506.3,780.8],[499.0,786.3],[494.2,782.7],[492.5,779.0],[491.1,770.6],[484.8,768.5],[479.1,764.0],[479.3,758.3],[482.2,756.9],[483.5,759.9],[487.6,757.5],[486.7,747.5],[482.7,741.9],[481.2,746.1],[466.1,732.3],[469.7,729.1],[472.2,724.4],[475.8,721.7],[476.2,718.7],[478.8,717.1],[479.0,710.8],[483.4,704.6],[485.6,704.4],[488.6,700.3],[485.4,701.4],[488.7,697.2],[492.8,694.6],[497.9,694.9],[501.5,692.4],[499.5,689.8],[495.4,689.1],[490.4,690.3],[486.0,689.5],[482.2,687.0],[480.1,683.0],[483.7,680.2],[481.6,677.6],[482.6,672.2],[480.8,665.3],[471.6,667.9],[468.1,673.6],[463.0,675.0],[459.1,671.7],[453.8,671.8],[454.6,676.5],[448.6,678.5],[445.3,683.5],[434.7,686.6],[420.8,685.0],[417.9,683.2],[412.2,676.5],[412.1,670.1],[407.7,673.0],[402.0,674.5],[398.2,677.2],[397.3,682.8],[393.5,685.3],[389.3,691.1],[392.2,695.6],[390.0,700.2],[395.6,706.1],[394.7,721.9],[396.8,727.1],[396.6,730.9],[385.1,741.2],[373.7,788.7],[394.9,830.0]]]}},{"type":"Feature","id":"MX.YU","properties":{"name":"Yucatán","country_code":"mx","country_es":"México","hc_key":"mx-yu"},"geometry":{"type":"Polygon","coordinates":[[[853.2,546.1],[851.8,545.8],[854.3,554.2],[862.1,560.0],[872.9,565.6],[896.3,570.9],[911.0,576.0],[914.2,579.3],[919.7,581.4],[925.6,581.4],[930.9,584.2],[937.0,584.3],[946.3,582.8],[942.7,581.8],[952.6,582.1],[953.9,574.4],[952.5,567.0],[955.0,561.2],[951.2,548.8],[943.6,541.7],[939.8,539.4],[934.4,539.8],[930.8,534.9],[927.3,532.9],[925.2,528.2],[916.1,523.3],[909.2,517.5],[904.0,516.4],[899.0,512.5],[893.1,511.1],[892.0,504.5],[890.1,509.2],[886.0,513.1],[882.9,517.8],[876.0,521.8],[873.5,526.6],[870.6,528.4],[867.4,533.7],[866.0,531.4],[862.2,531.6],[859.5,534.6],[853.8,535.5],[853.2,546.1]]]}},{"type":"Feature","id":"MX.DG","properties":{"name":"Durango","country_code":"mx","country_es":"México","hc_key":"mx-dg"},"geometry":{"type":"Polygon","coordinates":[[[273.6,704.7],[280.8,704.3],[286.9,709.6],[287.7,717.5],[292.0,720.3],[292.9,724.0],[291.0,731.2],[297.9,733.6],[298.1,738.5],[300.0,740.4],[300.4,745.3],[302.6,745.0],[304.8,748.8],[312.1,743.3],[316.4,743.5],[320.5,738.7],[328.1,734.4],[335.2,737.8],[338.2,734.4],[339.5,736.0],[344.7,735.3],[352.6,730.3],[355.2,731.0],[364.8,744.1],[368.7,746.0],[374.5,745.5],[385.1,741.2],[396.6,730.9],[396.8,727.1],[394.7,721.9],[395.6,706.1],[390.0,700.2],[392.2,695.6],[389.3,691.1],[393.5,685.3],[397.3,682.8],[398.2,677.2],[402.0,674.5],[407.7,673.0],[412.1,670.1],[412.2,676.5],[417.9,683.2],[424.0,673.8],[424.3,660.8],[413.7,658.3],[398.5,661.2],[393.3,658.7],[392.3,655.9],[389.3,655.5],[384.1,648.8],[378.1,645.4],[378.3,640.7],[376.1,640.0],[378.0,637.2],[377.0,634.3],[379.5,631.3],[378.6,629.0],[375.7,629.8],[374.9,626.6],[369.2,621.7],[368.3,612.5],[366.4,609.9],[365.8,592.2],[362.2,580.2],[361.4,586.0],[356.5,583.8],[352.7,585.4],[349.9,591.6],[346.2,593.5],[339.4,588.5],[338.6,593.5],[342.3,597.7],[340.3,602.4],[334.0,606.2],[325.1,606.9],[325.0,611.2],[319.6,611.7],[314.9,616.8],[314.0,623.0],[310.2,626.9],[307.8,632.4],[307.3,640.8],[309.2,645.4],[306.2,645.8],[302.8,653.6],[297.9,657.7],[295.3,657.7],[290.8,654.0],[287.3,654.2],[284.3,657.1],[283.5,661.3],[279.0,669.6],[275.7,672.9],[273.1,673.3],[269.7,677.9],[266.8,688.0],[268.0,696.6],[269.2,699.6],[273.6,704.7]]]}},{"type":"Feature","id":"MX.GJ","properties":{"name":"Guanajuato","country_code":"mx","country_es":"México","hc_key":"mx-gj"},"geometry":{"type":"Polygon","coordinates":[[[519.9,549.0],[519.9,544.2],[523.0,542.6],[518.9,539.2],[514.2,540.7],[511.0,539.0],[509.4,529.9],[506.7,528.4],[504.2,530.4],[501.8,529.0],[496.9,531.5],[493.4,522.9],[496.2,515.7],[496.5,511.7],[500.6,505.7],[503.7,503.5],[499.9,498.3],[500.0,494.2],[494.9,492.1],[494.3,493.4],[486.7,491.9],[484.8,494.2],[481.8,492.3],[478.2,493.2],[478.7,498.4],[472.9,498.7],[471.9,496.2],[463.9,496.8],[465.3,504.8],[462.3,507.2],[456.8,506.2],[454.3,502.1],[446.8,502.1],[445.1,508.1],[439.8,508.8],[443.9,515.1],[444.0,517.9],[440.2,521.5],[441.5,526.9],[448.0,537.3],[450.8,540.4],[453.8,540.6],[457.7,544.9],[455.4,551.1],[458.7,555.6],[457.2,560.9],[459.2,563.3],[461.7,562.6],[466.0,564.6],[468.3,560.9],[478.7,560.3],[490.6,550.9],[495.0,551.8],[496.4,556.9],[498.2,558.0],[509.8,553.7],[514.0,550.3],[519.9,549.0]]]}},{"type":"Feature","id":"MX.SL","properties":{"name":"San Luis Potosí","country_code":"mx","country_es":"México","hc_key":"mx-sl"},"geometry":{"type":"Polygon","coordinates":[[[508.6,616.6],[507.7,612.1],[509.9,614.1],[513.8,608.5],[513.8,606.2],[509.6,602.8],[511.5,599.4],[523.2,595.2],[527.6,594.3],[526.8,597.9],[531.4,594.9],[532.7,596.6],[537.5,588.4],[548.4,585.5],[552.8,585.3],[554.4,587.0],[559.5,587.6],[568.2,582.2],[568.8,578.0],[565.8,571.5],[562.0,568.5],[565.7,563.8],[560.3,560.2],[559.7,557.4],[563.8,554.4],[564.5,549.7],[562.1,548.8],[562.0,542.6],[554.0,541.0],[549.8,545.1],[546.2,544.2],[543.7,544.9],[544.1,548.3],[540.3,558.1],[534.2,549.9],[527.6,548.2],[522.2,552.6],[519.9,549.0],[514.0,550.3],[509.8,553.7],[498.2,558.0],[496.4,556.9],[495.0,551.8],[490.6,550.9],[478.7,560.3],[468.3,560.9],[466.0,564.6],[461.7,562.6],[459.2,563.3],[465.8,572.6],[463.7,582.7],[466.4,587.2],[464.5,591.3],[456.5,591.0],[455.0,587.7],[450.4,585.8],[448.0,587.0],[443.7,593.0],[438.0,597.0],[433.2,605.4],[434.0,609.8],[431.4,614.6],[433.3,615.9],[435.1,621.1],[439.2,619.3],[443.7,623.1],[447.4,627.9],[451.2,629.8],[453.0,632.7],[467.1,643.6],[475.4,657.9],[479.5,661.6],[480.8,665.3],[488.6,655.0],[489.0,645.4],[489.9,641.9],[493.2,637.9],[493.1,631.9],[494.7,626.4],[494.2,622.8],[495.5,615.8],[498.9,614.5],[499.3,616.9],[508.6,616.6]]]}},{"type":"Feature","id":"MX.HG","properties":{"name":"Hidalgo","country_code":"mx","country_es":"México","hc_key":"mx-hg"},"geometry":{"type":"Polygon","coordinates":[[[564.5,549.7],[567.1,548.1],[565.4,544.7],[570.3,540.8],[573.2,544.0],[572.8,540.4],[575.4,540.8],[578.4,538.0],[575.0,532.9],[575.1,528.8],[569.5,530.3],[568.2,522.8],[565.8,520.8],[563.9,515.0],[566.4,511.0],[568.7,511.4],[570.6,515.0],[572.1,513.9],[579.7,523.7],[582.8,522.8],[583.9,516.2],[578.5,510.2],[575.8,509.5],[575.6,505.3],[579.5,505.8],[580.9,501.2],[576.1,493.0],[579.9,485.7],[575.5,487.1],[572.9,482.5],[564.8,483.7],[561.8,481.8],[563.5,487.6],[560.1,491.6],[555.2,492.8],[552.5,489.6],[550.6,490.2],[551.8,494.4],[548.6,498.4],[542.1,495.9],[535.9,487.3],[533.6,493.0],[531.0,494.6],[532.0,498.6],[529.7,502.2],[526.5,501.0],[519.2,507.5],[519.8,515.1],[526.4,517.4],[531.2,521.0],[530.0,523.7],[531.0,527.5],[533.6,529.8],[535.6,534.8],[535.1,537.9],[539.9,538.4],[546.3,540.7],[546.2,544.2],[549.8,545.1],[554.0,541.0],[562.0,542.6],[562.1,548.8],[564.5,549.7]]]}}]}