{"type":"FeatureCollection","features":[{"type":"Feature","properties":{"name":"Atlántico Sur","country_code":"ni","country_es":"Nicaragua"},"geometry":{"type":"MultiPolygon","coordinates":[[[[-83.720323,11.883329],[-83.733717,11.905772],[-83.735701,11.941595],[-83.728756,11.973533],[-83.708417,11.987344],[-83.726276,11.920015],[-83.720323,11.883329]]],[[[-83.025324,12.175521],[-83.053601,12.144014],[-83.055585,12.166457],[-83.032269,12.190627],[-83.025324,12.175521]]],[[[-83.529335,13.032673],[-83.507507,12.902762],[-83.54124,12.639056],[-83.54124,12.580791],[-83.513956,12.51044],[-83.48568,12.47246],[-83.481712,12.416784],[-83.492625,12.400383],[-83.617636,12.374919],[-83.637479,12.385709],[-83.60325,12.413763],[-83.612675,12.454764],[-83.634502,12.473755],[-83.637479,12.564822],[-83.623589,12.570864],[-83.588367,12.559642],[-83.563564,12.590717],[-83.555627,12.636035],[-83.568524,12.666247],[-83.556123,12.69689],[-83.55513,12.752566],[-83.54124,12.76983],[-83.544713,12.796589],[-83.56406,12.812559],[-83.616147,12.816874],[-83.645912,12.786663],[-83.637479,12.748682],[-83.613171,12.735303],[-83.597297,12.694301],[-83.603746,12.652867],[-83.58936,12.632151],[-83.620116,12.614024],[-83.673692,12.570432],[-83.705937,12.557053],[-83.76745,12.546695],[-83.774395,12.533315],[-83.774395,12.481523],[-83.734213,12.477639],[-83.719331,12.423689],[-83.733717,12.362834],[-83.707425,12.336075],[-83.676668,12.342549],[-83.671708,12.288599],[-83.656329,12.340391],[-83.640951,12.358518],[-83.61714,12.34816],[-83.66377,12.25623],[-83.685598,12.13754],[-83.678653,12.009787],[-83.671212,11.988208],[-83.713378,12.049063],[-83.723299,12.074527],[-83.70048,12.095244],[-83.697503,12.135382],[-83.728756,12.171636],[-83.777867,12.176816],[-83.760009,12.153078],[-83.740166,12.166889],[-83.716354,12.138835],[-83.71685,12.108623],[-83.732229,12.087043],[-83.73967,12.052084],[-83.804159,12.060284],[-83.76745,12.043452],[-83.754056,11.998997],[-83.766954,11.96447],[-83.760009,11.946774],[-83.799198,11.902751],[-83.836404,11.871245],[-83.80664,11.84837],[-83.784812,11.813411],[-83.742646,11.80521],[-83.747111,11.823769],[-83.735205,11.853549],[-83.699984,11.849665],[-83.653849,11.667099],[-83.653353,11.611423],[-83.694527,11.593296],[-83.713874,11.573442],[-83.761001,11.557473],[-83.794238,11.443963],[-83.822018,11.447416],[-83.85327,11.407277],[-83.868153,11.374908],[-83.868153,11.273482],[-83.837396,11.142708],[-83.815569,11.090053],[-83.752072,10.982154],[-83.72578,10.963164],[-83.718339,10.944174],[-83.761497,10.984744],[-83.794238,11.031788],[-83.882539,11.050778],[-83.900397,11.115086],[-83.946036,11.098685],[-83.969848,11.103433],[-84.009533,11.087464],[-84.039298,11.109907],[-84.04029,11.122855],[-84.08196,11.12156],[-84.174726,11.144435],[-84.212427,11.19709],[-84.280389,11.253197],[-84.327516,11.276935],[-84.353312,11.30801],[-84.362241,11.346854],[-84.377124,11.36196],[-84.48626,11.428426],[-84.552733,11.452164],[-84.563647,11.52942],[-84.560671,11.562221],[-84.533883,11.652425],[-84.555214,11.708532],[-84.557694,11.753419],[-84.586963,11.793557],[-84.607798,11.862613],[-84.621688,11.89973],[-84.574561,11.922605],[-84.702548,11.982597],[-84.708997,11.992955],[-84.772494,12.149625],[-84.785888,12.209617],[-84.783904,12.280399],[-84.851866,12.390025],[-84.854842,12.439227],[-84.845417,12.470733],[-84.888079,12.531589],[-84.915363,12.589423],[-84.944631,12.615319],[-84.968443,12.649415],[-84.985309,12.660636],[-84.985309,12.70207],[-84.998207,12.730555],[-85.03194,12.762062],[-85.080059,12.793568],[-85.117761,12.775873],[-85.131155,12.721491],[-85.165384,12.693438],[-85.162407,12.655025],[-85.179274,12.660205],[-85.20507,12.714586],[-85.226897,12.778462],[-85.222432,12.805653],[-85.207054,12.816874],[-85.168856,12.816011],[-85.148021,12.829391],[-85.145045,12.854855],[-85.131155,12.860897],[-85.082043,12.853129],[-85.030452,12.864782],[-84.958025,12.850971],[-84.935702,12.868666],[-84.918339,12.900173],[-84.898496,12.89672],[-84.83996,12.941175],[-84.795809,12.94808],[-84.771502,12.940311],[-84.748186,12.950238],[-84.733304,13.026199],[-84.696595,13.066338],[-84.727351,13.057274],[-84.743226,13.069359],[-84.773486,13.130214],[-84.801266,13.147046],[-84.751659,13.21567],[-84.492709,13.246745],[-84.353312,13.247177],[-84.321067,13.254083],[-84.298248,13.273936],[-84.236735,13.264009],[-84.17671,13.280842],[-84.152403,13.275231],[-84.133056,13.216102],[-84.108748,13.197543],[-84.069062,13.201428],[-84.082456,13.221281],[-84.035825,13.214376],[-84.027392,13.235956],[-83.987706,13.234661],[-83.994155,13.256241],[-83.964391,13.250198],[-83.864184,13.244156],[-83.807136,13.21826],[-83.832435,13.178121],[-83.830947,13.147478],[-83.75604,13.093528],[-83.657322,13.037421],[-83.638967,13.031378],[-83.529335,13.032673]]]]}},{"type":"Feature","properties":{"name":"Atlántico Norte","country_code":"ni","country_es":"Nicaragua"},"geometry":{"type":"MultiPolygon","coordinates":[[[[-82.732641,14.36933],[-82.750996,14.361561],[-82.804076,14.365877],[-82.784729,14.382278],[-82.767366,14.414216],[-82.737602,14.421553],[-82.725696,14.397384],[-82.732641,14.36933]]],[[[-83.529335,13.032673],[-83.638967,13.031378],[-83.657322,13.037421],[-83.75604,13.093528],[-83.830947,13.147478],[-83.832435,13.178121],[-83.807136,13.21826],[-83.864184,13.244156],[-83.964391,13.250198],[-83.994155,13.256241],[-83.987706,13.234661],[-84.027392,13.235956],[-84.035825,13.214376],[-84.082456,13.221281],[-84.069062,13.201428],[-84.108748,13.197543],[-84.133056,13.216102],[-84.152403,13.275231],[-84.17671,13.280842],[-84.236735,13.264009],[-84.298248,13.273936],[-84.321067,13.254083],[-84.353312,13.247177],[-84.492709,13.246745],[-84.751659,13.21567],[-84.769517,13.242861],[-84.883118,13.381404],[-84.9739,13.298537],[-84.998207,13.29379],[-85.097918,13.292063],[-85.136612,13.259693],[-85.16836,13.181574],[-85.187211,13.16431],[-85.241779,13.14532],[-85.3023,13.170353],[-85.33256,13.198838],[-85.362325,13.200996],[-85.434255,13.257967],[-85.485351,13.325296],[-85.506682,13.370614],[-85.500729,13.419384],[-85.469477,13.446143],[-85.403995,13.489735],[-85.388617,13.560517],[-85.409948,13.611445],[-85.408956,13.626551],[-85.384152,13.65331],[-85.365301,13.692154],[-85.282457,13.703375],[-85.156454,13.778473],[-85.061208,13.735314],[-85.051783,13.742651],[-84.924788,13.940754],[-84.863771,14.040021],[-84.852858,14.071528],[-84.862283,14.107782],[-84.858811,14.153963],[-84.836983,14.268768],[-84.837976,14.306749],[-84.927269,14.312359],[-84.939671,14.317539],[-84.989278,14.373215],[-84.981341,14.440975],[-84.970427,14.476798],[-85.008625,14.510463],[-84.999199,14.575634],[-85.024003,14.602824],[-85.048311,14.605846],[-85.020034,14.633899],[-85.053767,14.662816],[-85.032932,14.669722],[-85.024499,14.71245],[-85.002176,14.740504],[-84.966458,14.764673],[-84.904449,14.816897],[-84.818133,14.82855],[-84.77051,14.805244],[-84.747194,14.764673],[-84.74521,14.739209],[-84.724871,14.72583],[-84.699075,14.67447],[-84.661374,14.683533],[-84.600357,14.662816],[-84.527434,14.660658],[-84.533883,14.633899],[-84.519001,14.638215],[-84.482787,14.619225],[-84.408376,14.649437],[-84.363234,14.715903],[-84.33843,14.67447],[-84.28783,14.667132],[-84.267491,14.677922],[-84.262035,14.758631],[-84.235247,14.754747],[-84.183159,14.713745],[-84.143969,14.721945],[-84.095354,14.743525],[-84.122638,14.784527],[-84.104779,14.794022],[-84.075511,14.771579],[-84.023423,14.758199],[-83.924705,14.763379],[-83.924705,14.803517],[-83.896429,14.780642],[-83.869641,14.77719],[-83.83938,14.797475],[-83.801183,14.803517],[-83.821026,14.825529],[-83.765465,14.828981],[-83.746615,14.852288],[-83.704945,14.838477],[-83.71437,14.867394],[-83.692047,14.886815],[-83.64988,14.88811],[-83.615651,14.873004],[-83.604242,14.909259],[-83.526854,14.948534],[-83.528343,14.973567],[-83.512964,14.968819],[-83.508996,15.011547],[-83.486176,15.010252],[-83.458892,14.982198],[-83.415238,14.996873],[-83.390434,15.030969],[-83.354717,15.010252],[-83.272865,15.002915],[-83.26592,14.98263],[-83.217801,14.98263],[-83.177123,14.996873],[-83.130492,14.996873],[-83.165217,14.969251],[-83.179603,14.986083],[-83.208871,14.941628],[-83.234171,14.921343],[-83.266912,14.866962],[-83.273857,14.82596],[-83.294196,14.803949],[-83.328425,14.791001],[-83.309574,14.813875],[-83.328425,14.832003],[-83.30511,14.838477],[-83.287251,14.825529],[-83.30759,14.910553],[-83.322472,14.913574],[-83.370095,14.882931],[-83.414246,14.827687],[-83.397875,14.807833],[-83.386962,14.7664],[-83.337354,14.73144],[-83.321976,14.749999],[-83.356205,14.770716],[-83.333386,14.773305],[-83.314535,14.749567],[-83.315527,14.772874],[-83.299157,14.771147],[-83.259967,14.595919],[-83.240124,14.523842],[-83.192005,14.386594],[-83.186548,14.34775],[-83.191509,14.313223],[-83.218793,14.250209],[-83.301637,14.119867],[-83.337354,14.07757],[-83.349756,14.049085],[-83.396883,14.016284],[-83.431608,13.956723],[-83.454924,13.86393],[-83.493617,13.737903],[-83.517429,13.62353],[-83.520405,13.5316],[-83.54124,13.481534],[-83.559099,13.4155],[-83.570013,13.286884],[-83.563068,13.230776],[-83.529335,13.032673]]]]}},{"type":"Feature","properties":{"name":"Rivas","country_code":"ni","country_es":"Nicaragua"},"geometry":{"type":"Polygon","coordinates":[[[-84.884606,10.947626],[-84.931237,10.942016],[-85.508666,11.152203],[-85.569187,11.195795],[-85.59796,11.210037],[-85.631196,11.196226],[-85.658977,11.159109],[-85.701639,11.08099],[-85.785971,11.112496],[-85.802838,11.166015],[-85.821192,11.192774],[-85.927848,11.311031],[-85.960093,11.333906],[-85.994818,11.343833],[-86.043929,11.398214],[-86.070717,11.411593],[-86.104946,11.446984],[-86.162987,11.484533],[-86.175389,11.519493],[-86.136199,11.587685],[-86.101474,11.61056],[-86.078158,11.604949],[-86.035496,11.626097],[-86.008708,11.676163],[-85.989857,11.677026],[-85.971503,11.661488],[-85.894115,11.682205],[-85.522556,11.680479],[-85.10139,11.631708],[-85.340994,11.147024],[-85.300316,11.110339],[-85.161415,11.057252],[-85.027475,11.008482],[-84.941655,10.980428],[-84.884606,10.947626]]]}},{"type":"Feature","properties":{"name":"Rio San Juan","country_code":"ni","country_es":"Nicaragua"},"geometry":{"type":"Polygon","coordinates":[[[-83.718339,10.944174],[-83.710401,10.922594],[-83.696511,10.936836],[-83.644424,10.926046],[-83.670716,10.922594],[-83.669227,10.869939],[-83.660298,10.834116],[-83.663274,10.806926],[-83.698,10.788798],[-83.768938,10.772398],[-83.835412,10.747365],[-83.859719,10.721901],[-83.886507,10.727512],[-83.907342,10.715427],[-83.933138,10.718448],[-83.993659,10.765061],[-83.998124,10.781893],[-84.022431,10.787072],[-84.076503,10.763766],[-84.088409,10.775419],[-84.10726,10.767219],[-84.137024,10.78923],[-84.180679,10.789662],[-84.191592,10.781893],[-84.226813,10.819442],[-84.20449,10.836706],[-84.208459,10.860875],[-84.264515,10.901877],[-84.31065,10.919572],[-84.341902,10.959711],[-84.355792,10.99467],[-84.417802,10.955395],[-84.438141,10.952374],[-84.466417,10.968343],[-84.489236,10.996397],[-84.582002,11.034377],[-84.620696,11.035672],[-84.676752,11.070632],[-84.708004,11.062863],[-84.884606,10.947626],[-84.941655,10.980428],[-85.027475,11.008482],[-85.161415,11.057252],[-85.300316,11.110339],[-85.340994,11.147024],[-85.10139,11.631708],[-85.083036,11.662352],[-85.040869,11.690405],[-84.985805,11.708532],[-84.942151,11.77543],[-84.899489,11.784925],[-84.874189,11.801326],[-84.808211,11.860886],[-84.794817,11.868223],[-84.668815,11.869518],[-84.607798,11.862613],[-84.586963,11.793557],[-84.557694,11.753419],[-84.555214,11.708532],[-84.533883,11.652425],[-84.560671,11.562221],[-84.563647,11.52942],[-84.552733,11.452164],[-84.48626,11.428426],[-84.377124,11.36196],[-84.362241,11.346854],[-84.353312,11.30801],[-84.327516,11.276935],[-84.280389,11.253197],[-84.212427,11.19709],[-84.174726,11.144435],[-84.08196,11.12156],[-84.04029,11.122855],[-84.039298,11.109907],[-84.009533,11.087464],[-83.969848,11.103433],[-83.946036,11.098685],[-83.900397,11.115086],[-83.882539,11.050778],[-83.794238,11.031788],[-83.761497,10.984744],[-83.718339,10.944174]]]}},{"type":"Feature","properties":{"name":"Carazo","country_code":"ni","country_es":"Nicaragua"},"geometry":{"type":"Polygon","coordinates":[[[-86.101474,11.61056],[-86.136199,11.587685],[-86.175389,11.519493],[-86.207137,11.536325],[-86.244343,11.571716],[-86.336116,11.611423],[-86.365385,11.63775],[-86.376794,11.669689],[-86.496348,11.759461],[-86.502301,11.766798],[-86.46708,11.79701],[-86.432851,11.804779],[-86.409535,11.831538],[-86.375306,11.858297],[-86.355959,11.889372],[-86.293454,11.939005],[-86.281052,11.957133],[-86.270139,11.944185],[-86.150089,11.894551],[-86.134711,11.873834],[-86.072205,11.856139],[-86.097505,11.809095],[-86.103458,11.784062],[-86.098001,11.721912],[-86.118836,11.687384],[-86.119332,11.633003],[-86.101474,11.61056]]]}},{"type":"Feature","properties":{"name":"Granada","country_code":"ni","country_es":"Nicaragua"},"geometry":{"type":"Polygon","coordinates":[[[-85.522556,11.680479],[-85.894115,11.682205],[-85.971503,11.661488],[-85.989857,11.677026],[-86.008708,11.676163],[-86.035496,11.626097],[-86.078158,11.604949],[-86.101474,11.61056],[-86.119332,11.633003],[-86.118836,11.687384],[-86.098001,11.721912],[-86.103458,11.784062],[-86.097505,11.809095],[-86.072205,11.856139],[-85.964061,12.091359],[-85.967038,12.106465],[-86.000275,12.143583],[-85.916438,12.181132],[-85.885186,12.203143],[-85.851453,12.198827],[-85.842027,12.156962],[-85.784979,12.115097],[-85.731403,12.041294],[-85.656496,12.046473],[-85.522556,11.680479]]]}},{"type":"Feature","properties":{"name":"Jinotega","country_code":"ni","country_es":"Nicaragua"},"geometry":{"type":"Polygon","coordinates":[[[-85.743309,13.824223],[-85.724954,13.847961],[-85.728923,13.875151],[-85.747278,13.888531],[-85.727435,13.964923],[-85.699158,13.961471],[-85.648063,13.999451],[-85.612842,14.00981],[-85.593495,14.033547],[-85.528013,14.050811],[-85.510651,14.093539],[-85.474933,14.103466],[-85.431775,14.132815],[-85.400522,14.18547],[-85.393577,14.210934],[-85.363317,14.250209],[-85.347939,14.249346],[-85.321151,14.281284],[-85.277992,14.297253],[-85.239795,14.297253],[-85.190187,14.30977],[-85.157943,14.338255],[-85.171833,14.380983],[-85.205566,14.407311],[-85.178778,14.427596],[-85.178778,14.455218],[-85.15199,14.485861],[-85.149509,14.53679],[-85.137604,14.578655],[-85.119249,14.573907],[-85.086508,14.544559],[-85.065177,14.554485],[-85.024003,14.602824],[-84.999199,14.575634],[-85.008625,14.510463],[-84.970427,14.476798],[-84.981341,14.440975],[-84.989278,14.373215],[-84.939671,14.317539],[-84.927269,14.312359],[-84.837976,14.306749],[-84.836983,14.268768],[-84.858811,14.153963],[-84.862283,14.107782],[-84.852858,14.071528],[-84.863771,14.040021],[-84.924788,13.940754],[-85.051783,13.742651],[-85.061208,13.735314],[-85.156454,13.778473],[-85.282457,13.703375],[-85.365301,13.692154],[-85.384152,13.65331],[-85.408956,13.626551],[-85.409948,13.611445],[-85.388617,13.560517],[-85.403995,13.489735],[-85.469477,13.446143],[-85.500729,13.419384],[-85.506682,13.370614],[-85.562242,13.334791],[-85.604905,13.327886],[-85.63963,13.298106],[-85.671874,13.245882],[-85.744797,13.162152],[-85.839547,13.084896],[-85.918423,13.017136],[-85.994322,13.009367],[-86.007716,12.993829],[-86.057323,13.034831],[-86.099489,13.046916],[-86.115364,13.065475],[-86.159018,13.090939],[-86.234421,13.16431],[-86.247815,13.188911],[-86.236406,13.208333],[-86.23591,13.23725],[-86.221523,13.279115],[-86.230453,13.321843],[-86.22698,13.359824],[-86.21309,13.390036],[-86.16001,13.442691],[-86.117844,13.440964],[-86.059804,13.493188],[-86.038969,13.509157],[-86.018133,13.500525],[-85.949179,13.503977],[-85.919911,13.484987],[-85.899572,13.491893],[-85.882705,13.515199],[-85.831114,13.55318],[-85.833098,13.61274],[-85.820696,13.661079],[-85.791428,13.709418],[-85.782995,13.781926],[-85.76712,13.80998],[-85.743309,13.824223]]]}},{"type":"Feature","properties":{"name":"León","country_code":"ni","country_es":"Nicaragua"},"geometry":{"type":"Polygon","coordinates":[[[-86.67047,12.000724],[-86.689816,12.024462],[-86.727518,12.088338],[-86.762739,12.182426],[-86.797464,12.218681],[-87.002342,12.341686],[-87.01524,12.357223],[-87.071297,12.38873],[-87.102053,12.420668],[-87.171007,12.451743],[-87.173488,12.474618],[-87.142731,12.446996],[-87.098085,12.433184],[-87.120904,12.458217],[-87.098581,12.471165],[-87.049469,12.476776],[-87.005815,12.49965],[-86.954223,12.552305],[-86.921979,12.610571],[-86.853024,12.681353],[-86.833678,12.690416],[-86.799945,12.739619],[-86.782086,12.752135],[-86.710155,12.761198],[-86.669973,12.778894],[-86.654595,12.838454],[-86.664021,12.95887],[-86.711148,13.056411],[-86.721069,13.090076],[-86.680887,13.097413],[-86.64517,13.082738],[-86.613421,13.088349],[-86.547443,13.110361],[-86.491387,13.121582],[-86.45319,13.09655],[-86.411519,13.03181],[-86.406559,12.975271],[-86.428882,12.93729],[-86.419953,12.899741],[-86.38622,12.88334],[-86.26369,12.848381],[-86.278572,12.724513],[-86.288989,12.636467],[-86.328675,12.612729],[-86.353975,12.582517],[-86.364392,12.52382],[-86.343557,12.490155],[-86.34703,12.469439],[-86.510734,12.308884],[-86.52512,12.289894],[-86.526608,12.203143],[-86.506765,12.176816],[-86.505277,12.15912],[-86.538018,12.109055],[-86.584153,12.07798],[-86.612429,12.08618],[-86.650627,12.07539],[-86.638225,12.029209],[-86.67047,12.000724]]]}},{"type":"Feature","properties":{"name":"Managua","country_code":"ni","country_es":"Nicaragua"},"geometry":{"type":"Polygon","coordinates":[[[-85.851453,12.198827],[-85.885186,12.203143],[-85.916438,12.181132],[-86.000275,12.143583],[-86.028551,12.152215],[-86.108915,12.131498],[-86.188287,12.059421],[-86.161995,12.018419],[-86.163483,11.995976],[-86.194239,11.96188],[-86.230453,11.964901],[-86.257737,11.985186],[-86.281052,11.957133],[-86.293454,11.939005],[-86.355959,11.889372],[-86.375306,11.858297],[-86.409535,11.831538],[-86.432851,11.804779],[-86.46708,11.79701],[-86.502301,11.766798],[-86.515695,11.782767],[-86.542483,11.842328],[-86.58961,11.882466],[-86.62235,11.935984],[-86.630288,11.965333],[-86.67047,12.000724],[-86.638225,12.029209],[-86.650627,12.07539],[-86.612429,12.08618],[-86.584153,12.07798],[-86.538018,12.109055],[-86.505277,12.15912],[-86.506765,12.176816],[-86.526608,12.203143],[-86.52512,12.289894],[-86.510734,12.308884],[-86.34703,12.469439],[-86.343557,12.490155],[-86.364392,12.52382],[-86.353975,12.582517],[-86.328675,12.612729],[-86.288989,12.636467],[-86.100978,12.59417],[-86.050378,12.548853],[-85.971999,12.522093],[-85.978448,12.50483],[-85.969518,12.456491],[-85.920407,12.390025],[-85.917431,12.341254],[-85.830122,12.260114],[-85.851453,12.198827]]]}},{"type":"Feature","properties":{"name":"Masaya","country_code":"ni","country_es":"Nicaragua"},"geometry":{"type":"Polygon","coordinates":[[[-86.000275,12.143583],[-85.967038,12.106465],[-85.964061,12.091359],[-86.072205,11.856139],[-86.134711,11.873834],[-86.150089,11.894551],[-86.270139,11.944185],[-86.281052,11.957133],[-86.257737,11.985186],[-86.230453,11.964901],[-86.194239,11.96188],[-86.163483,11.995976],[-86.161995,12.018419],[-86.188287,12.059421],[-86.108915,12.131498],[-86.028551,12.152215],[-86.000275,12.143583]]]}},{"type":"Feature","properties":{"name":"Chinandega","country_code":"ni","country_es":"Nicaragua"},"geometry":{"type":"Polygon","coordinates":[[[-86.721069,13.090076],[-86.711148,13.056411],[-86.664021,12.95887],[-86.654595,12.838454],[-86.669973,12.778894],[-86.710155,12.761198],[-86.782086,12.752135],[-86.799945,12.739619],[-86.833678,12.690416],[-86.853024,12.681353],[-86.921979,12.610571],[-86.954223,12.552305],[-87.005815,12.49965],[-87.049469,12.476776],[-87.098581,12.471165],[-87.120904,12.458217],[-87.157613,12.481092],[-87.180433,12.522957],[-87.176464,12.485839],[-87.21863,12.53202],[-87.312884,12.602802],[-87.331239,12.639056],[-87.344633,12.619203],[-87.455257,12.743935],[-87.467659,12.76983],[-87.46369,12.786231],[-87.50288,12.812127],[-87.523219,12.810832],[-87.482541,12.781483],[-87.491967,12.771557],[-87.529172,12.803495],[-87.646741,12.872551],[-87.685435,12.917868],[-87.685931,12.947648],[-87.66708,12.982176],[-87.610032,13.024041],[-87.58374,13.057274],[-87.547527,13.052095],[-87.467659,12.982176],[-87.467659,12.954122],[-87.434918,12.922616],[-87.392752,12.913552],[-87.289569,12.919595],[-87.289569,12.926932],[-87.367948,12.928658],[-87.36894,12.953691],[-87.313876,12.981313],[-87.084691,12.995987],[-87.035083,12.979587],[-87.029626,12.995987],[-86.982996,13.021452],[-86.948767,13.069791],[-86.919994,13.096118],[-86.932396,13.108634],[-86.923467,13.160858],[-86.932892,13.179848],[-86.925947,13.216534],[-86.911065,13.23984],[-86.862946,13.279547],[-86.816315,13.292063],[-86.748849,13.260988],[-86.732479,13.268325],[-86.706683,13.25883],[-86.70321,13.236819],[-86.715116,13.200565],[-86.726526,13.189775],[-86.731983,13.149636],[-86.721069,13.090076]]]}},{"type":"Feature","properties":{"name":"Estelí","country_code":"ni","country_es":"Nicaragua"},"geometry":{"type":"Polygon","coordinates":[[[-86.21309,13.390036],[-86.22698,13.359824],[-86.230453,13.321843],[-86.221523,13.279115],[-86.23591,13.23725],[-86.236406,13.208333],[-86.247815,13.188911],[-86.234421,13.16431],[-86.159018,13.090939],[-86.115364,13.065475],[-86.099489,13.046916],[-86.137191,12.996851],[-86.150585,12.960165],[-86.209122,12.940743],[-86.242358,12.917005],[-86.258233,12.884635],[-86.26369,12.848381],[-86.38622,12.88334],[-86.419953,12.899741],[-86.428882,12.93729],[-86.406559,12.975271],[-86.411519,13.03181],[-86.45319,13.09655],[-86.491387,13.121582],[-86.547443,13.110361],[-86.613421,13.088349],[-86.64517,13.082738],[-86.680887,13.097413],[-86.721069,13.090076],[-86.731983,13.149636],[-86.726526,13.189775],[-86.715116,13.200565],[-86.63128,13.283],[-86.562822,13.396941],[-86.52264,13.430606],[-86.496348,13.43449],[-86.428386,13.404278],[-86.38622,13.411616],[-86.309328,13.435354],[-86.253768,13.438375],[-86.234917,13.432332],[-86.21309,13.390036]]]}},{"type":"Feature","properties":{"name":"Madriz","country_code":"ni","country_es":"Nicaragua"},"geometry":{"type":"Polygon","coordinates":[[[-86.059804,13.493188],[-86.117844,13.440964],[-86.16001,13.442691],[-86.21309,13.390036],[-86.234917,13.432332],[-86.253768,13.438375],[-86.309328,13.435354],[-86.38622,13.411616],[-86.428386,13.404278],[-86.496348,13.43449],[-86.52264,13.430606],[-86.562822,13.396941],[-86.63128,13.283],[-86.715116,13.200565],[-86.70321,13.236819],[-86.706683,13.25883],[-86.732479,13.268325],[-86.711644,13.285589],[-86.701722,13.314075],[-86.7171,13.361982],[-86.736447,13.371909],[-86.738928,13.396078],[-86.724542,13.439669],[-86.756786,13.559222],[-86.751329,13.624393],[-86.764227,13.637341],[-86.740416,13.660216],[-86.648146,13.647268],[-86.615405,13.600655],[-86.563318,13.56958],[-86.538018,13.586413],[-86.505277,13.593318],[-86.433347,13.592455],[-86.377786,13.574759],[-86.303872,13.58037],[-86.276588,13.574328],[-86.22698,13.549295],[-86.205649,13.599792],[-86.164475,13.614466],[-86.112387,13.567422],[-86.089568,13.528579],[-86.059804,13.493188]]]}},{"type":"Feature","properties":{"name":"Matagalpa","country_code":"ni","country_es":"Nicaragua"},"geometry":{"type":"Polygon","coordinates":[[[-85.971999,12.522093],[-86.050378,12.548853],[-86.100978,12.59417],[-86.288989,12.636467],[-86.278572,12.724513],[-86.26369,12.848381],[-86.258233,12.884635],[-86.242358,12.917005],[-86.209122,12.940743],[-86.150585,12.960165],[-86.137191,12.996851],[-86.099489,13.046916],[-86.057323,13.034831],[-86.007716,12.993829],[-85.994322,13.009367],[-85.918423,13.017136],[-85.839547,13.084896],[-85.744797,13.162152],[-85.671874,13.245882],[-85.63963,13.298106],[-85.604905,13.327886],[-85.562242,13.334791],[-85.506682,13.370614],[-85.485351,13.325296],[-85.434255,13.257967],[-85.362325,13.200996],[-85.33256,13.198838],[-85.3023,13.170353],[-85.241779,13.14532],[-85.187211,13.16431],[-85.16836,13.181574],[-85.136612,13.259693],[-85.097918,13.292063],[-84.998207,13.29379],[-84.9739,13.298537],[-84.883118,13.381404],[-84.769517,13.242861],[-84.751659,13.21567],[-84.801266,13.147046],[-84.773486,13.130214],[-84.743226,13.069359],[-84.727351,13.057274],[-84.696595,13.066338],[-84.733304,13.026199],[-84.748186,12.950238],[-84.771502,12.940311],[-84.795809,12.94808],[-84.83996,12.941175],[-84.898496,12.89672],[-84.918339,12.900173],[-84.935702,12.868666],[-84.958025,12.850971],[-85.030452,12.864782],[-85.082043,12.853129],[-85.131155,12.860897],[-85.145045,12.854855],[-85.148021,12.829391],[-85.168856,12.816011],[-85.207054,12.816874],[-85.222432,12.805653],[-85.226897,12.778462],[-85.20507,12.714586],[-85.179274,12.660205],[-85.186219,12.625677],[-85.215983,12.639488],[-85.229377,12.627403],[-85.26063,12.661931],[-85.295851,12.652436],[-85.288906,12.68049],[-85.370758,12.711565],[-85.407467,12.743503],[-85.425822,12.721491],[-85.463524,12.706386],[-85.527517,12.709407],[-85.552817,12.674447],[-85.627724,12.660636],[-85.640126,12.650709],[-85.682292,12.658478],[-85.855918,12.623087],[-85.871792,12.614887],[-85.889651,12.578633],[-85.93777,12.552737],[-85.971999,12.522093]]]}},{"type":"Feature","properties":{"name":"Nueva Segovia","country_code":"ni","country_es":"Nicaragua"},"geometry":{"type":"Polygon","coordinates":[[[-86.059804,13.493188],[-86.089568,13.528579],[-86.112387,13.567422],[-86.164475,13.614466],[-86.205649,13.599792],[-86.22698,13.549295],[-86.276588,13.574328],[-86.303872,13.58037],[-86.377786,13.574759],[-86.433347,13.592455],[-86.505277,13.593318],[-86.538018,13.586413],[-86.563318,13.56958],[-86.615405,13.600655],[-86.648146,13.647268],[-86.740416,13.660216],[-86.764227,13.637341],[-86.774149,13.654605],[-86.766212,13.74524],[-86.727022,13.768547],[-86.662532,13.764662],[-86.581176,13.779768],[-86.541491,13.782358],[-86.490891,13.759483],[-86.448229,13.772863],[-86.410031,13.748693],[-86.35844,13.752146],[-86.313297,13.776315],[-86.299903,13.821202],[-86.284029,13.845803],[-86.218547,13.914427],[-86.184318,13.96665],[-86.150089,13.984345],[-86.121813,14.027073],[-86.097009,14.044337],[-86.020118,14.055127],[-86.031527,14.022326],[-86.028551,13.995998],[-85.957613,13.946365],[-85.935785,13.918311],[-85.915446,13.907521],[-85.883202,13.913563],[-85.861374,13.9045],[-85.824169,13.847529],[-85.801846,13.840192],[-85.758191,13.839329],[-85.743309,13.824223],[-85.76712,13.80998],[-85.782995,13.781926],[-85.791428,13.709418],[-85.820696,13.661079],[-85.833098,13.61274],[-85.831114,13.55318],[-85.882705,13.515199],[-85.899572,13.491893],[-85.919911,13.484987],[-85.949179,13.503977],[-86.018133,13.500525],[-86.038969,13.509157],[-86.059804,13.493188]]]}},{"type":"Feature","properties":{"name":"Boaco","country_code":"ni","country_es":"Nicaragua"},"geometry":{"type":"Polygon","coordinates":[[[-85.656496,12.046473],[-85.731403,12.041294],[-85.784979,12.115097],[-85.842027,12.156962],[-85.851453,12.198827],[-85.830122,12.260114],[-85.917431,12.341254],[-85.920407,12.390025],[-85.969518,12.456491],[-85.978448,12.50483],[-85.971999,12.522093],[-85.93777,12.552737],[-85.889651,12.578633],[-85.871792,12.614887],[-85.855918,12.623087],[-85.682292,12.658478],[-85.640126,12.650709],[-85.627724,12.660636],[-85.552817,12.674447],[-85.527517,12.709407],[-85.463524,12.706386],[-85.425822,12.721491],[-85.407467,12.743503],[-85.370758,12.711565],[-85.288906,12.68049],[-85.295851,12.652436],[-85.26063,12.661931],[-85.229377,12.627403],[-85.215983,12.639488],[-85.186219,12.625677],[-85.179274,12.660205],[-85.162407,12.655025],[-85.165384,12.693438],[-85.131155,12.721491],[-85.117761,12.775873],[-85.080059,12.793568],[-85.03194,12.762062],[-84.998207,12.730555],[-84.985309,12.70207],[-84.985309,12.660636],[-84.968443,12.649415],[-85.025491,12.554032],[-85.027475,12.505693],[-85.035909,12.48325],[-85.078075,12.440953],[-85.107343,12.42671],[-85.163896,12.416784],[-85.234338,12.371034],[-85.275016,12.357655],[-85.401018,12.339096],[-85.508666,12.34557],[-85.560258,12.323127],[-85.58655,12.304568],[-85.602424,12.278241],[-85.602424,12.221702],[-85.640126,12.147035],[-85.656496,12.046473]]]}},{"type":"Feature","properties":{"name":"Chontales","country_code":"ni","country_es":"Nicaragua"},"geometry":{"type":"Polygon","coordinates":[[[-84.607798,11.862613],[-84.668815,11.869518],[-84.794817,11.868223],[-84.808211,11.860886],[-84.874189,11.801326],[-84.899489,11.784925],[-84.942151,11.77543],[-84.985805,11.708532],[-85.040869,11.690405],[-85.083036,11.662352],[-85.10139,11.631708],[-85.522556,11.680479],[-85.656496,12.046473],[-85.640126,12.147035],[-85.602424,12.221702],[-85.602424,12.278241],[-85.58655,12.304568],[-85.560258,12.323127],[-85.508666,12.34557],[-85.401018,12.339096],[-85.275016,12.357655],[-85.234338,12.371034],[-85.163896,12.416784],[-85.107343,12.42671],[-85.078075,12.440953],[-85.035909,12.48325],[-85.027475,12.505693],[-85.025491,12.554032],[-84.968443,12.649415],[-84.944631,12.615319],[-84.915363,12.589423],[-84.888079,12.531589],[-84.845417,12.470733],[-84.854842,12.439227],[-84.851866,12.390025],[-84.783904,12.280399],[-84.785888,12.209617],[-84.772494,12.149625],[-84.708997,11.992955],[-84.702548,11.982597],[-84.574561,11.922605],[-84.621688,11.89973],[-84.607798,11.862613]]]}}]}