{"type":"FeatureCollection","features":[{"type":"Feature","id":"PA.CH","properties":{"name":"Chiriquí","country_code":"pa","country_es":"Panamá","hc_key":"pa-ch"},"geometry":{"type":"MultiPolygon","coordinates":[[[[29.9,701.2],[27.2,700.9],[30.8,707.7],[34.9,708.9],[35.3,703.3],[29.9,701.2]]],[[[53.5,724.0],[55.1,721.6],[48.6,723.0],[47.4,722.2],[48.7,716.4],[43.6,720.3],[37.3,721.7],[35.9,724.6],[37.6,726.3],[43.7,728.0],[53.5,724.0]]],[[[35.7,734.3],[31.0,733.0],[36.1,729.3],[32.4,728.3],[26.0,725.0],[20.7,725.3],[15.9,730.6],[14.7,733.1],[20.1,732.5],[29.7,739.2],[33.6,738.1],[35.7,734.3]]],[[[156.0,683.7],[151.0,694.3],[149.7,688.1],[147.7,690.0],[147.6,696.9],[151.0,698.2],[153.5,696.9],[147.2,708.4],[141.4,716.3],[139.7,719.8],[138.2,715.7],[140.9,713.5],[135.7,707.1],[131.2,709.7],[115.2,716.5],[104.9,718.7],[103.0,719.9],[106.8,727.6],[102.1,725.4],[98.1,720.1],[91.7,725.0],[89.0,723.1],[83.0,723.5],[77.0,725.4],[72.8,727.8],[72.5,724.4],[67.8,714.3],[65.2,718.9],[67.7,724.0],[62.0,722.0],[57.9,722.1],[53.7,726.5],[56.4,727.9],[54.3,733.6],[55.2,739.3],[53.9,741.0],[55.8,746.2],[60.3,748.2],[52.7,747.5],[49.5,740.4],[43.1,742.0],[41.8,744.4],[42.6,748.3],[36.4,746.0],[29.9,747.0],[31.0,741.9],[28.1,741.5],[20.4,738.2],[14.4,741.3],[14.0,743.4],[17.3,744.7],[14.9,747.5],[14.8,750.9],[13.0,749.5],[11.8,744.8],[8.4,743.3],[10.9,737.0],[-0.1,736.2],[-7.7,738.3],[-20.5,743.5],[-27.2,744.9],[-34.5,745.0],[-41.8,744.1],[-54.9,740.1],[-60.5,737.0],[-64.8,732.5],[-67.6,726.0],[-68.1,718.4],[-66.9,710.6],[-62.6,698.1],[-67.8,689.9],[-71.6,692.0],[-69.4,704.4],[-79.0,725.7],[-79.8,731.6],[-84.3,735.2],[-90.4,735.5],[-93.1,739.2],[-99.9,744.1],[-99.7,746.4],[-89.6,752.3],[-81.4,760.0],[-66.0,766.6],[-61.9,771.5],[-60.2,777.0],[-59.6,783.5],[-60.6,796.4],[-62.0,802.0],[-67.3,811.2],[-73.0,817.6],[-75.5,822.7],[-75.3,825.5],[-68.3,830.4],[-66.5,834.9],[-68.8,836.7],[-64.9,840.6],[-45.8,848.2],[-40.3,851.5],[-37.7,855.6],[-32.7,850.7],[-20.2,852.2],[-9.7,851.6],[-4.8,848.8],[-2.8,844.7],[4.1,844.4],[12.6,841.6],[27.9,834.5],[42.8,828.6],[53.5,827.0],[57.1,827.6],[66.4,825.8],[68.9,814.8],[67.1,799.2],[65.7,793.8],[68.1,787.7],[62.1,773.9],[61.2,769.4],[64.1,767.7],[69.9,767.7],[80.7,771.1],[84.5,767.2],[90.3,758.9],[91.0,753.1],[94.8,747.4],[103.6,745.1],[120.7,744.8],[125.5,743.3],[128.6,737.5],[133.9,733.2],[143.6,732.8],[148.6,738.8],[151.4,739.2],[153.1,735.5],[157.6,736.4],[161.7,739.2],[166.2,748.5],[169.4,753.0],[177.6,755.5],[182.3,754.3],[184.4,736.1],[183.9,730.6],[172.8,716.7],[168.2,712.3],[166.7,709.1],[161.9,690.7],[159.9,684.8],[156.0,683.7]]]]}},{"type":"Feature","id":"PA.SB","properties":{"name":"Panama","country_code":"pa","country_es":"Panamá","hc_key":"pa-sb"},"geometry":{"type":"MultiPolygon","coordinates":[[[[635.0,732.0],[628.0,730.6],[629.0,726.3],[627.0,722.7],[624.6,722.4],[621.4,729.0],[623.1,731.2],[624.2,739.9],[628.6,742.5],[631.9,734.5],[635.0,732.0]]],[[[682.3,753.1],[679.3,752.5],[677.6,754.9],[678.9,757.0],[682.3,753.1]]],[[[627.7,761.2],[629.6,759.0],[630.9,761.4],[632.6,757.5],[630.0,753.5],[623.1,758.7],[625.3,763.1],[627.7,761.2]]],[[[672.3,767.8],[673.9,760.3],[677.4,757.5],[675.1,752.1],[677.6,747.3],[673.3,738.6],[670.1,739.6],[666.2,738.9],[665.3,741.0],[661.8,736.1],[661.4,732.9],[663.2,730.8],[664.9,724.4],[660.4,727.4],[660.6,730.1],[658.2,736.1],[652.7,740.3],[655.5,747.9],[652.7,752.3],[654.2,754.8],[653.7,761.1],[651.7,766.0],[652.4,768.6],[656.4,767.6],[663.9,770.8],[666.3,767.5],[667.3,771.6],[672.3,767.8]]],[[[649.7,769.4],[644.0,770.5],[651.7,774.1],[648.4,770.7],[649.7,769.4]]],[[[543.2,832.5],[547.2,829.2],[546.0,826.8],[542.1,828.5],[543.2,832.5]]],[[[437.5,859.2],[445.8,865.6],[453.6,862.7],[458.7,862.3],[465.5,864.5],[470.9,868.0],[472.9,875.8],[469.7,884.0],[477.4,901.0],[480.1,903.9],[483.2,904.5],[488.9,901.8],[494.1,900.7],[498.0,897.9],[503.6,889.8],[507.7,888.8],[517.1,889.0],[523.6,892.3],[528.7,898.7],[529.9,903.8],[535.5,907.0],[541.2,909.0],[542.8,921.3],[546.0,930.4],[545.8,936.4],[550.6,952.7],[557.4,955.5],[565.6,957.3],[573.1,954.9],[578.4,948.7],[574.2,945.3],[573.8,941.9],[585.1,943.2],[588.1,945.0],[593.3,945.5],[600.3,942.1],[598.5,938.2],[602.0,936.0],[602.9,933.5],[601.2,929.9],[597.7,928.2],[595.4,924.9],[596.7,920.4],[602.7,921.7],[615.3,925.7],[623.0,926.0],[629.5,923.8],[633.5,920.1],[644.6,920.2],[647.0,922.2],[645.6,925.5],[651.7,929.5],[657.8,929.5],[658.2,932.6],[666.7,932.6],[670.3,935.4],[684.2,935.3],[687.5,937.5],[691.0,937.2],[696.6,932.7],[699.0,937.7],[702.0,937.6],[715.1,928.5],[721.2,928.1],[730.8,930.4],[733.3,933.5],[736.2,933.8],[738.5,931.7],[741.1,926.3],[745.0,928.6],[752.4,922.4],[755.4,914.3],[768.2,913.2],[776.2,916.9],[778.2,915.3],[780.8,907.2],[783.3,904.6],[798.6,905.0],[800.1,907.4],[802.9,905.3],[803.8,901.4],[801.1,896.3],[802.6,894.4],[815.4,891.4],[818.7,889.4],[822.9,883.0],[818.1,875.9],[816.1,869.7],[816.3,859.1],[813.4,856.1],[805.6,853.5],[800.2,846.8],[796.7,845.2],[790.1,845.3],[781.0,842.0],[777.5,835.2],[774.1,833.5],[768.7,838.3],[758.6,840.6],[750.2,837.7],[747.9,835.8],[752.1,816.3],[751.6,811.3],[748.6,802.3],[746.8,787.8],[748.7,785.2],[749.2,778.2],[751.6,772.5],[752.2,768.4],[755.2,757.7],[755.9,749.5],[748.5,756.5],[749.3,762.0],[747.2,767.7],[744.6,762.7],[741.7,767.0],[740.8,771.7],[742.1,777.9],[740.8,781.1],[733.3,790.6],[739.9,789.7],[742.1,790.7],[738.0,794.9],[738.3,801.4],[726.8,804.5],[728.2,808.2],[719.9,807.0],[718.3,807.9],[715.5,814.6],[718.1,816.7],[719.0,820.1],[717.9,827.3],[716.6,827.3],[716.9,817.9],[714.2,818.4],[711.1,815.0],[705.4,822.3],[700.3,822.2],[696.7,824.4],[693.0,832.3],[690.1,834.8],[691.5,837.4],[688.8,838.2],[683.7,843.6],[685.5,838.1],[684.4,836.3],[678.6,834.3],[673.1,839.3],[670.1,848.8],[645.9,861.3],[636.2,863.4],[631.5,866.7],[631.9,880.4],[627.0,884.2],[633.9,886.1],[637.1,891.8],[639.9,889.3],[650.0,894.1],[645.8,894.4],[641.4,890.4],[637.1,893.0],[630.6,885.8],[625.8,885.0],[624.6,882.8],[630.2,879.2],[630.7,875.3],[628.0,869.9],[625.5,867.7],[614.4,870.7],[611.3,869.7],[596.5,872.3],[586.0,871.2],[575.6,872.2],[571.5,870.0],[569.9,871.3],[558.1,868.4],[556.5,865.6],[551.3,862.4],[550.7,858.0],[548.8,857.4],[552.7,849.8],[547.3,854.4],[542.6,861.2],[543.9,852.8],[543.1,848.8],[540.4,846.9],[536.2,848.4],[527.8,846.9],[525.2,845.5],[526.2,842.2],[517.4,844.6],[518.6,840.8],[512.5,839.8],[508.5,834.5],[507.7,830.9],[508.5,819.9],[510.8,816.2],[507.8,809.7],[501.3,806.3],[501.0,804.0],[494.8,801.7],[497.1,799.4],[503.4,798.0],[509.4,800.4],[518.6,805.2],[518.0,802.3],[504.4,790.8],[494.8,787.5],[487.9,785.8],[485.9,779.9],[482.1,778.8],[475.3,774.1],[473.5,770.6],[468.3,765.7],[455.3,757.2],[447.8,766.0],[445.9,770.7],[445.2,781.0],[443.5,785.6],[443.8,793.1],[442.1,802.5],[437.5,823.3],[432.7,837.3],[432.5,841.7],[434.2,848.0],[438.3,854.2],[437.5,859.2]]]]}},{"type":"Feature","id":"PA.VR","properties":{"name":"Veraguas","country_code":"pa","country_es":"Panamá","hc_key":"pa-vr"},"geometry":{"type":"MultiPolygon","coordinates":[[[[128.9,553.2],[136.4,552.4],[134.1,550.6],[130.0,543.5],[130.0,541.1],[126.7,552.7],[128.9,553.2]]],[[[269.9,601.3],[268.4,599.6],[262.9,597.6],[259.1,599.8],[254.3,599.7],[251.7,596.5],[246.6,593.8],[242.9,590.2],[237.9,591.3],[231.6,589.6],[237.0,595.3],[245.9,597.2],[250.6,602.7],[256.4,605.1],[262.0,606.4],[272.1,605.3],[269.9,601.3]]],[[[141.8,618.5],[147.9,601.7],[147.8,599.7],[153.4,597.6],[154.3,593.6],[147.3,590.5],[145.3,583.0],[149.8,577.7],[152.9,571.6],[163.2,572.0],[169.4,561.1],[162.0,558.7],[158.1,558.7],[151.6,562.4],[140.2,563.8],[133.8,570.4],[130.3,572.5],[122.6,579.0],[118.4,587.9],[116.5,590.1],[115.1,595.0],[119.7,595.1],[123.7,600.5],[124.9,605.9],[127.4,608.5],[130.8,609.2],[137.8,614.0],[141.8,618.5]]],[[[336.1,708.2],[326.0,707.7],[318.8,700.0],[305.4,694.8],[308.3,686.7],[308.0,683.8],[304.6,678.1],[295.4,669.3],[290.7,668.1],[288.8,665.5],[288.1,644.6],[288.8,640.4],[293.1,641.5],[297.2,638.1],[300.5,627.4],[314.7,606.2],[320.2,603.0],[325.1,601.5],[329.9,596.6],[329.5,591.5],[330.7,583.6],[333.7,574.6],[338.4,568.2],[339.6,563.9],[339.4,558.4],[347.6,553.6],[350.7,548.9],[351.2,542.4],[331.0,538.7],[316.2,538.2],[311.1,539.2],[309.2,537.8],[306.1,539.2],[303.5,536.8],[298.5,542.9],[291.0,546.2],[293.6,550.2],[293.5,555.7],[297.3,559.5],[298.1,565.4],[297.4,568.4],[292.6,571.3],[294.7,580.4],[293.8,582.8],[284.3,593.1],[286.5,594.4],[288.1,601.6],[282.0,607.7],[283.4,610.3],[274.5,619.1],[270.6,621.2],[271.7,624.6],[277.2,625.6],[270.0,631.4],[273.4,636.9],[267.0,638.3],[264.1,640.3],[262.5,645.8],[267.1,649.2],[273.2,649.9],[274.6,653.4],[269.3,651.0],[268.0,656.0],[268.4,667.4],[264.4,660.0],[261.6,657.5],[259.5,661.1],[259.5,657.7],[262.1,654.7],[253.7,654.7],[249.7,656.8],[242.8,658.6],[241.4,664.2],[238.2,661.5],[241.9,657.3],[245.6,655.3],[244.5,651.3],[247.9,644.8],[246.1,640.0],[238.0,633.3],[238.0,638.4],[232.9,638.4],[238.0,632.0],[232.8,632.0],[235.5,628.2],[241.8,630.6],[242.6,628.5],[242.2,617.1],[237.9,611.6],[229.0,615.9],[226.7,618.5],[220.2,619.3],[204.9,623.6],[199.9,623.2],[197.9,627.2],[195.0,629.5],[190.7,628.5],[185.3,628.9],[181.2,630.7],[180.9,633.5],[188.0,637.7],[180.8,639.8],[178.5,636.0],[172.1,639.8],[173.4,642.7],[169.8,648.0],[170.9,653.0],[173.6,657.5],[170.9,658.7],[167.3,657.5],[167.7,661.6],[163.4,663.8],[165.3,671.5],[168.5,670.3],[164.7,675.3],[166.0,681.6],[162.4,680.8],[163.5,674.5],[160.0,675.8],[159.2,679.2],[156.0,683.7],[159.9,684.8],[161.9,690.7],[166.7,709.1],[168.2,712.3],[172.8,716.7],[183.9,730.6],[184.4,736.1],[182.3,754.3],[181.5,763.5],[182.3,769.3],[186.6,779.6],[188.3,786.9],[188.7,794.5],[193.3,792.1],[199.0,790.7],[203.0,787.4],[211.7,786.7],[218.1,787.2],[229.7,778.6],[244.8,774.4],[249.9,775.6],[247.0,778.4],[241.0,788.5],[239.2,799.2],[239.8,810.4],[237.7,824.1],[239.0,830.4],[262.6,833.5],[265.7,833.1],[268.9,836.0],[283.3,840.7],[300.6,847.6],[304.1,847.5],[304.5,841.7],[306.2,837.8],[312.8,832.2],[322.6,827.9],[326.5,823.5],[328.8,818.8],[326.2,811.5],[329.5,803.2],[326.7,797.5],[324.5,792.2],[319.4,786.1],[313.6,785.2],[311.4,783.2],[315.4,779.7],[319.1,774.6],[323.4,767.0],[330.5,748.2],[335.0,740.9],[334.3,735.0],[331.6,725.7],[326.7,717.1],[327.5,713.9],[336.1,708.2]]]]}},{"type":"Feature","id":"PA.BC","properties":{"name":"Bocas del Toro","country_code":"pa","country_es":"Panamá","hc_key":"pa-bc"},"geometry":{"type":"MultiPolygon","coordinates":[[[[91.4,895.0],[90.0,894.2],[85.8,896.6],[86.3,901.5],[89.7,900.9],[90.8,898.0],[93.4,896.9],[91.4,895.0]]],[[[61.6,933.7],[66.4,934.3],[72.6,929.4],[79.5,925.6],[81.4,923.0],[77.9,923.5],[74.1,922.1],[71.2,919.3],[69.6,915.1],[66.7,917.5],[67.5,922.8],[65.0,926.8],[67.5,925.6],[65.9,929.5],[56.3,933.2],[58.3,935.6],[61.6,933.7]]],[[[50.8,932.3],[50.0,930.9],[47.5,935.1],[43.6,939.2],[34.9,946.1],[39.8,949.8],[46.3,951.1],[51.4,943.6],[52.6,938.9],[50.0,935.8],[50.8,932.3]]],[[[27.9,834.5],[12.6,841.6],[4.1,844.4],[-2.8,844.7],[-4.8,848.8],[-9.7,851.6],[-20.2,852.2],[-32.7,850.7],[-37.7,855.6],[-43.0,865.6],[-45.5,867.2],[-53.8,870.1],[-62.2,876.4],[-67.4,878.9],[-69.4,882.9],[-72.4,883.9],[-77.9,881.6],[-78.3,951.5],[-76.2,957.7],[-72.8,958.8],[-62.9,960.1],[-59.9,963.1],[-62.7,965.1],[-63.9,970.2],[-66.1,974.2],[-63.7,978.8],[-60.2,981.7],[-56.9,982.0],[-46.2,977.7],[-38.6,971.2],[-35.4,971.2],[-29.3,962.4],[-24.2,960.5],[-18.4,960.3],[-17.2,962.6],[-16.4,969.7],[-15.1,971.7],[-8.0,969.8],[-10.0,976.8],[-7.8,975.4],[9.8,961.4],[20.6,950.5],[27.4,946.7],[32.3,949.9],[31.0,944.3],[25.9,935.6],[26.0,931.0],[31.2,926.4],[28.5,922.5],[23.9,922.9],[22.7,918.4],[26.5,917.0],[30.6,908.2],[37.1,904.2],[43.1,907.2],[41.0,910.6],[43.4,909.9],[46.0,904.1],[48.1,903.6],[51.1,909.3],[52.6,905.6],[54.7,906.1],[55.2,910.0],[58.6,910.5],[61.1,905.4],[63.6,906.7],[63.4,898.8],[62.3,896.6],[56.7,900.0],[49.1,901.6],[46.5,896.9],[48.4,890.2],[44.6,891.4],[45.6,888.7],[50.0,886.4],[51.0,884.5],[49.6,872.4],[50.2,870.6],[54.6,868.5],[59.0,868.1],[62.2,869.8],[68.8,867.6],[76.8,856.8],[82.4,856.8],[93.6,859.7],[91.9,854.6],[88.4,852.6],[83.6,851.5],[70.5,851.3],[67.0,849.6],[64.6,845.8],[63.5,841.6],[60.4,843.0],[58.7,849.6],[56.3,851.0],[56.0,854.5],[58.1,855.9],[57.7,861.4],[53.3,864.2],[46.7,865.6],[43.3,869.5],[35.7,871.6],[36.4,877.1],[39.2,879.2],[43.4,884.7],[36.9,888.2],[37.9,891.0],[35.5,893.5],[32.7,890.7],[30.3,885.9],[29.9,881.3],[22.6,874.8],[16.4,872.4],[14.0,870.0],[16.0,867.9],[26.7,864.0],[30.8,860.5],[33.2,856.0],[33.9,852.2],[32.5,849.4],[27.9,834.5]]]]}},{"type":"Feature","id":"PA.NB","properties":{"name":"Ngöbe Buglé","country_code":"pa","country_es":"Panamá","hc_key":"pa-nb"},"geometry":{"type":"MultiPolygon","coordinates":[[[[174.9,888.7],[179.2,887.5],[180.6,885.0],[173.7,885.8],[172.7,888.5],[174.9,888.7]]],[[[182.3,754.3],[177.6,755.5],[169.4,753.0],[166.2,748.5],[161.7,739.2],[157.6,736.4],[153.1,735.5],[151.4,739.2],[148.6,738.8],[143.6,732.8],[133.9,733.2],[128.6,737.5],[125.5,743.3],[120.7,744.8],[103.6,745.1],[94.8,747.4],[91.0,753.1],[90.3,758.9],[84.5,767.2],[80.7,771.1],[69.9,767.7],[64.1,767.7],[61.2,769.4],[62.1,773.9],[68.1,787.7],[65.7,793.8],[67.1,799.2],[68.9,814.8],[66.4,825.8],[57.1,827.6],[53.5,827.0],[42.8,828.6],[27.9,834.5],[32.5,849.4],[33.9,852.2],[33.2,856.0],[30.8,860.5],[26.7,864.0],[16.0,867.9],[14.0,870.0],[16.4,872.4],[22.6,874.8],[29.9,881.3],[30.3,885.9],[32.7,890.7],[35.5,893.5],[37.9,891.0],[36.9,888.2],[43.4,884.7],[39.2,879.2],[36.4,877.1],[35.7,871.6],[43.3,869.5],[46.7,865.6],[53.3,864.2],[57.7,861.4],[58.1,855.9],[56.0,854.5],[56.3,851.0],[58.7,849.6],[60.4,843.0],[63.5,841.6],[64.6,845.8],[67.0,849.6],[70.5,851.3],[83.6,851.5],[88.4,852.6],[91.9,854.6],[93.6,859.7],[102.4,856.8],[107.8,859.1],[108.9,863.2],[112.6,864.1],[119.2,860.0],[122.0,861.7],[132.8,856.7],[136.1,858.3],[137.0,861.5],[136.4,868.9],[124.0,875.9],[117.6,885.6],[107.2,893.4],[106.5,895.1],[118.4,893.4],[120.3,895.6],[111.5,900.6],[112.8,902.6],[116.6,902.6],[119.8,900.3],[124.1,895.0],[129.1,890.9],[127.3,888.9],[124.1,889.8],[127.9,882.4],[138.7,881.1],[143.3,876.1],[146.2,875.2],[148.9,869.1],[152.3,866.3],[163.3,850.5],[170.7,842.6],[174.3,840.2],[179.5,834.5],[186.1,832.3],[191.6,833.3],[201.2,831.4],[208.5,832.1],[212.8,829.3],[222.7,828.6],[229.7,830.0],[239.0,830.4],[237.7,824.1],[239.8,810.4],[239.2,799.2],[241.0,788.5],[247.0,778.4],[249.9,775.6],[244.8,774.4],[229.7,778.6],[218.1,787.2],[211.7,786.7],[203.0,787.4],[199.0,790.7],[193.3,792.1],[188.7,794.5],[188.3,786.9],[186.6,779.6],[182.3,769.3],[181.5,763.5],[182.3,754.3]]]]}},{"type":"Feature","id":"PA.EM","properties":{"name":"Emberá","country_code":"pa","country_es":"Panamá","hc_key":"pa-em"},"geometry":{"type":"MultiPolygon","coordinates":[[[[811.2,681.9],[814.8,679.4],[816.5,669.2],[825.3,675.4],[828.8,671.8],[834.6,654.1],[835.4,648.2],[839.0,646.5],[841.5,640.5],[840.1,636.3],[842.3,620.1],[841.4,614.0],[833.8,608.7],[828.6,613.8],[825.1,611.8],[823.2,608.6],[818.7,610.7],[817.1,618.7],[806.5,624.7],[798.9,622.4],[795.7,624.7],[786.8,634.5],[782.2,642.1],[779.4,650.8],[775.8,658.3],[772.6,659.8],[770.8,664.4],[771.0,676.8],[777.2,677.9],[784.3,683.5],[790.1,681.4],[794.5,684.5],[792.4,692.2],[789.7,693.6],[790.1,697.1],[797.8,701.6],[800.8,699.5],[809.9,687.4],[811.2,681.9]]],[[[887.6,827.7],[890.2,823.4],[899.9,815.6],[902.9,811.5],[910.5,803.4],[912.4,797.2],[914.7,794.2],[924.0,790.5],[929.0,784.6],[927.0,782.4],[925.5,776.9],[925.5,772.7],[927.2,771.6],[932.7,772.2],[937.7,769.6],[943.5,758.0],[945.1,745.3],[946.8,738.7],[948.9,735.5],[956.0,733.6],[961.5,723.3],[966.3,716.3],[945.3,710.5],[937.6,708.7],[932.6,703.8],[926.4,702.2],[920.2,702.2],[916.7,700.1],[914.2,700.7],[908.9,707.0],[905.1,708.1],[903.3,711.0],[904.0,714.0],[900.6,721.8],[893.5,727.5],[880.9,732.6],[880.3,738.0],[876.3,739.5],[873.5,744.8],[869.5,749.2],[868.2,754.1],[865.0,758.9],[866.5,765.2],[865.4,769.0],[860.7,773.8],[860.7,776.9],[856.9,778.2],[854.1,781.9],[854.8,787.5],[849.9,792.6],[848.0,799.6],[850.1,803.3],[853.7,805.4],[863.8,820.3],[869.7,821.7],[873.5,825.8],[877.5,827.9],[882.0,828.5],[887.6,827.7]]]]}},{"type":"Feature","id":"PA.CL","properties":{"name":"Colón","country_code":"pa","country_es":"Panamá","hc_key":"pa-cl"},"geometry":{"type":"Polygon","coordinates":[[[304.1,847.5],[311.5,848.5],[320.7,860.1],[329.1,868.2],[342.7,875.2],[345.6,878.3],[356.3,883.6],[369.6,889.2],[387.7,895.0],[409.0,896.6],[419.6,901.8],[426.1,902.5],[432.9,904.3],[444.3,909.7],[450.8,917.2],[462.7,927.9],[466.7,935.8],[471.3,937.7],[473.2,935.9],[473.2,927.0],[475.8,924.9],[479.5,925.7],[482.2,934.6],[485.8,932.1],[484.6,938.4],[487.1,938.4],[484.8,941.6],[486.5,943.4],[492.1,942.8],[496.2,941.0],[500.9,933.3],[499.1,942.7],[503.6,948.5],[512.2,952.4],[515.3,957.4],[519.7,960.4],[522.1,969.6],[526.8,972.2],[521.2,973.1],[524.5,976.6],[530.7,981.2],[537.0,981.8],[545.3,985.1],[548.6,984.2],[550.6,978.8],[548.6,977.7],[551.2,974.0],[555.0,976.6],[561.3,974.0],[562.7,979.0],[564.9,976.7],[567.6,977.8],[574.5,976.1],[584.8,975.0],[602.5,969.7],[611.0,968.6],[617.8,971.5],[625.2,970.9],[632.9,972.8],[632.8,953.4],[627.8,951.3],[622.3,945.6],[620.5,938.7],[617.8,936.6],[611.2,934.0],[602.7,928.0],[601.2,929.9],[602.9,933.5],[602.0,936.0],[598.5,938.2],[600.3,942.1],[593.3,945.5],[588.1,945.0],[585.1,943.2],[573.8,941.9],[574.2,945.3],[578.4,948.7],[573.1,954.9],[565.6,957.3],[557.4,955.5],[550.6,952.7],[545.8,936.4],[546.0,930.4],[542.8,921.3],[541.2,909.0],[535.5,907.0],[529.9,903.8],[528.7,898.7],[523.6,892.3],[517.1,889.0],[507.7,888.8],[503.6,889.8],[498.0,897.9],[494.1,900.7],[488.9,901.8],[483.2,904.5],[480.1,903.9],[477.4,901.0],[469.7,884.0],[472.9,875.8],[470.9,868.0],[465.5,864.5],[458.7,862.3],[453.6,862.7],[445.8,865.6],[437.5,859.2],[432.6,862.3],[431.5,864.2],[430.0,872.6],[427.5,877.4],[425.6,873.7],[424.6,868.3],[422.0,864.6],[417.5,861.9],[402.9,848.0],[397.4,844.9],[387.1,847.3],[384.7,848.8],[367.9,855.1],[365.1,853.3],[362.8,844.8],[364.4,841.4],[364.8,835.6],[363.0,830.0],[354.9,826.1],[346.8,826.9],[342.9,825.6],[338.1,820.3],[334.9,812.0],[334.8,802.4],[331.0,797.3],[326.7,797.5],[329.5,803.2],[326.2,811.5],[328.8,818.8],[326.5,823.5],[322.6,827.9],[312.8,832.2],[306.2,837.8],[304.5,841.7],[304.1,847.5]]]}},{"type":"Feature","id":"PA.HE","properties":{"name":"Herrera","country_code":"pa","country_es":"Panamá","hc_key":"pa-he"},"geometry":{"type":"Polygon","coordinates":[[[374.6,700.5],[373.5,698.9],[376.5,697.5],[378.7,690.3],[393.6,683.1],[390.3,675.6],[386.3,671.4],[378.1,671.1],[372.2,669.4],[369.8,667.2],[364.2,657.0],[356.9,650.6],[356.7,643.4],[360.5,635.7],[360.8,632.2],[358.1,626.4],[354.2,623.0],[349.5,621.3],[340.1,606.5],[329.9,596.6],[325.1,601.5],[320.2,603.0],[314.7,606.2],[300.5,627.4],[297.2,638.1],[293.1,641.5],[288.8,640.4],[288.1,644.6],[288.8,665.5],[290.7,668.1],[295.4,669.3],[304.6,678.1],[308.0,683.8],[308.3,686.7],[305.4,694.8],[318.8,700.0],[326.0,707.7],[336.1,708.2],[340.6,706.6],[350.4,709.1],[356.4,708.2],[359.8,704.5],[362.6,703.4],[365.7,705.2],[374.6,700.5]]]}},{"type":"Feature","id":"PA.LS","properties":{"name":"Los Santos","country_code":"pa","country_es":"Panamá","hc_key":"pa-ls"},"geometry":{"type":"Polygon","coordinates":[[[329.9,596.6],[340.1,606.5],[349.5,621.3],[354.2,623.0],[358.1,626.4],[360.8,632.2],[360.5,635.7],[356.7,643.4],[356.9,650.6],[364.2,657.0],[369.8,667.2],[372.2,669.4],[378.1,671.1],[386.3,671.4],[390.3,675.6],[393.6,683.1],[398.5,681.6],[402.4,674.9],[407.5,662.0],[425.1,648.0],[436.3,637.8],[453.2,616.4],[461.8,600.7],[464.0,595.3],[463.8,591.7],[459.5,583.1],[450.8,582.0],[437.8,577.1],[426.2,577.1],[423.9,575.8],[416.7,578.0],[415.0,579.6],[406.1,577.1],[406.1,575.9],[413.7,578.3],[415.0,577.1],[401.7,572.8],[396.8,569.2],[396.0,564.4],[399.2,559.1],[398.6,557.4],[392.7,556.4],[389.1,551.6],[384.4,549.2],[383.5,545.3],[380.6,544.1],[375.1,545.4],[351.2,542.4],[350.7,548.9],[347.6,553.6],[339.4,558.4],[339.6,563.9],[338.4,568.2],[333.7,574.6],[330.7,583.6],[329.5,591.5],[329.9,596.6]]]}},{"type":"Feature","id":"PA.DR","properties":{"name":"Darién","country_code":"pa","country_es":"Panamá","hc_key":"pa-dr"},"geometry":{"type":"Polygon","coordinates":[[[966.3,716.3],[973.4,703.6],[979.1,682.1],[984.7,677.1],[985.1,673.4],[978.3,673.5],[966.5,670.2],[960.9,667.2],[957.0,663.2],[952.4,652.6],[947.0,645.7],[946.4,643.4],[948.9,638.0],[952.7,634.5],[953.9,631.1],[948.5,626.1],[922.7,609.9],[914.4,601.4],[909.7,597.7],[905.6,597.2],[903.6,599.3],[901.3,608.6],[894.7,617.9],[892.1,619.8],[892.9,621.9],[881.9,631.7],[879.9,632.7],[875.5,630.3],[874.4,623.5],[875.3,615.6],[877.0,609.9],[881.2,601.8],[881.8,597.9],[880.2,593.1],[873.9,587.5],[869.9,586.9],[865.4,587.8],[851.7,543.1],[847.5,544.3],[842.1,549.0],[834.1,558.9],[829.7,562.6],[829.1,564.6],[830.5,570.4],[823.0,578.2],[820.2,576.7],[815.7,581.8],[810.6,585.5],[808.6,589.9],[805.6,591.5],[803.4,597.0],[801.5,594.2],[800.0,605.8],[794.8,604.2],[795.8,609.6],[794.4,612.6],[788.2,619.5],[781.9,622.0],[781.5,625.6],[778.1,627.2],[780.8,633.3],[779.3,638.8],[773.7,647.2],[771.1,655.2],[759.0,668.9],[755.1,680.5],[755.1,686.7],[751.7,692.6],[752.2,698.4],[756.5,703.1],[758.7,697.1],[761.3,696.0],[766.5,698.2],[771.7,695.5],[778.8,699.2],[785.1,706.0],[787.8,712.8],[786.4,718.9],[782.7,722.3],[775.1,731.2],[780.1,730.7],[784.0,732.4],[781.4,736.3],[784.0,738.8],[790.6,734.6],[794.7,735.1],[797.7,739.5],[797.7,746.5],[801.6,750.3],[802.7,757.3],[807.7,758.6],[809.1,750.3],[811.0,748.8],[822.0,744.1],[826.9,732.5],[831.0,728.4],[838.6,728.6],[843.0,724.2],[847.1,725.1],[841.7,727.2],[838.4,731.5],[847.6,729.8],[852.5,728.0],[855.7,724.5],[861.1,720.8],[861.9,716.1],[864.9,713.9],[866.9,715.0],[870.6,711.4],[872.5,706.1],[878.4,706.3],[880.1,708.9],[874.9,708.8],[868.1,717.0],[864.9,716.4],[855.4,728.3],[850.8,731.1],[834.4,734.0],[830.4,735.6],[825.0,741.8],[824.2,746.0],[820.2,754.0],[819.0,759.0],[821.8,761.7],[817.5,764.8],[814.0,769.4],[813.1,772.4],[815.0,779.3],[810.2,782.0],[808.5,787.3],[807.2,786.6],[808.3,780.2],[811.7,778.4],[812.0,770.1],[814.8,762.2],[812.9,760.4],[809.3,766.3],[805.3,770.6],[802.4,770.6],[798.3,766.1],[796.5,759.4],[793.8,757.2],[787.0,755.3],[784.8,757.3],[786.1,761.6],[791.5,764.2],[794.0,762.9],[794.2,768.9],[793.2,774.6],[790.1,784.6],[787.5,781.9],[791.4,776.9],[788.8,768.8],[790.2,765.4],[787.6,764.2],[783.9,767.9],[787.0,774.1],[784.7,774.5],[780.0,766.7],[777.0,766.3],[773.7,774.3],[769.6,766.8],[763.7,762.7],[762.0,765.8],[760.0,776.8],[756.0,785.6],[755.3,781.0],[758.7,771.8],[760.6,763.0],[764.0,760.2],[764.8,757.1],[759.8,746.3],[755.9,749.5],[755.2,757.7],[752.2,768.4],[751.6,772.5],[749.2,778.2],[748.7,785.2],[746.8,787.8],[748.6,802.3],[751.6,811.3],[752.1,816.3],[747.9,835.8],[750.2,837.7],[758.6,840.6],[768.7,838.3],[774.1,833.5],[777.5,835.2],[781.0,842.0],[790.1,845.3],[796.7,845.2],[800.2,846.8],[805.6,853.5],[813.4,856.1],[816.3,859.1],[816.1,869.7],[818.1,875.9],[822.9,883.0],[827.9,883.1],[847.0,869.1],[857.2,858.8],[861.5,851.3],[876.6,842.0],[886.0,832.9],[887.6,827.7],[882.0,828.5],[877.5,827.9],[873.5,825.8],[869.7,821.7],[863.8,820.3],[853.7,805.4],[850.1,803.3],[848.0,799.6],[849.9,792.6],[854.8,787.5],[854.1,781.9],[856.9,778.2],[860.7,776.9],[860.7,773.8],[865.4,769.0],[866.5,765.2],[865.0,758.9],[868.2,754.1],[869.5,749.2],[873.5,744.8],[876.3,739.5],[880.3,738.0],[880.9,732.6],[893.5,727.5],[900.6,721.8],[904.0,714.0],[903.3,711.0],[905.1,708.1],[908.9,707.0],[914.2,700.7],[916.7,700.1],[920.2,702.2],[926.4,702.2],[932.6,703.8],[937.6,708.7],[945.3,710.5],[966.3,716.3]],[[811.2,681.9],[809.9,687.4],[800.8,699.5],[797.8,701.6],[790.1,697.1],[789.7,693.6],[792.4,692.2],[794.5,684.5],[790.1,681.4],[784.3,683.5],[777.2,677.9],[771.0,676.8],[770.8,664.4],[772.6,659.8],[775.8,658.3],[779.4,650.8],[782.2,642.1],[786.8,634.5],[795.7,624.7],[798.9,622.4],[806.5,624.7],[817.1,618.7],[818.7,610.7],[823.2,608.6],[825.1,611.8],[828.6,613.8],[833.8,608.7],[841.4,614.0],[842.3,620.1],[840.1,636.3],[841.5,640.5],[839.0,646.5],[835.4,648.2],[834.6,654.1],[828.8,671.8],[825.3,675.4],[816.5,669.2],[814.8,679.4],[811.2,681.9]]]}},{"type":"Feature","id":"PA.1119","properties":{"name":"Kuna Yala","country_code":"pa","country_es":"Panamá","hc_key":"pa-1119"},"geometry":{"type":"Polygon","coordinates":[[[887.6,827.7],[886.0,832.9],[876.6,842.0],[861.5,851.3],[857.2,858.8],[847.0,869.1],[827.9,883.1],[822.9,883.0],[818.7,889.4],[815.4,891.4],[802.6,894.4],[801.1,896.3],[803.8,901.4],[802.9,905.3],[800.1,907.4],[798.6,905.0],[783.3,904.6],[780.8,907.2],[778.2,915.3],[776.2,916.9],[768.2,913.2],[755.4,914.3],[752.4,922.4],[745.0,928.6],[741.1,926.3],[738.5,931.7],[736.2,933.8],[733.3,933.5],[730.8,930.4],[721.2,928.1],[715.1,928.5],[702.0,937.6],[699.0,937.7],[696.6,932.7],[691.0,937.2],[687.5,937.5],[684.2,935.3],[670.3,935.4],[666.7,932.6],[658.2,932.6],[657.8,929.5],[651.7,929.5],[645.6,925.5],[647.0,922.2],[644.6,920.2],[633.5,920.1],[629.5,923.8],[623.0,926.0],[615.3,925.7],[602.7,921.7],[596.7,920.4],[595.4,924.9],[597.7,928.2],[601.2,929.9],[602.7,928.0],[611.2,934.0],[617.8,936.6],[620.5,938.7],[622.3,945.6],[627.8,951.3],[632.8,953.4],[632.9,972.8],[651.9,974.9],[654.4,971.4],[651.2,969.6],[636.5,967.2],[634.5,963.9],[635.9,953.5],[644.0,952.3],[650.8,953.4],[655.3,953.0],[660.5,951.1],[664.4,947.1],[673.7,947.3],[674.7,949.1],[680.1,948.7],[685.3,949.7],[686.8,951.5],[692.1,951.2],[696.5,953.2],[698.4,950.7],[709.9,947.9],[714.0,948.4],[719.4,946.1],[727.2,950.1],[736.1,946.1],[742.2,946.1],[745.2,944.0],[750.0,944.0],[754.0,940.3],[760.9,936.9],[768.3,935.1],[774.8,931.0],[783.6,928.0],[792.3,923.1],[798.0,923.1],[804.4,920.8],[809.6,916.4],[820.3,914.5],[826.1,911.4],[826.8,909.0],[830.7,904.8],[836.4,903.0],[842.5,896.0],[850.9,883.9],[857.3,879.7],[853.4,888.8],[853.2,891.7],[856.4,890.1],[860.3,883.8],[865.3,880.5],[866.0,876.3],[873.0,870.5],[877.9,863.0],[876.1,859.7],[879.7,855.6],[884.2,847.9],[886.7,849.0],[886.9,846.4],[890.5,844.3],[898.4,836.1],[902.0,834.5],[898.7,838.4],[899.2,841.1],[903.9,835.8],[909.4,831.6],[908.7,828.3],[912.1,825.5],[913.2,828.7],[916.6,825.2],[914.9,817.2],[923.0,811.2],[927.4,809.0],[933.5,808.0],[939.2,808.5],[942.6,810.7],[946.5,808.2],[944.3,804.3],[938.4,803.3],[935.4,801.4],[936.3,794.8],[934.1,790.1],[929.0,784.6],[924.0,790.5],[914.7,794.2],[912.4,797.2],[910.5,803.4],[902.9,811.5],[899.9,815.6],[890.2,823.4],[887.6,827.7]]]}},{"type":"Feature","id":"PA.CC","properties":{"name":"Coclé","country_code":"pa","country_es":"Panamá","hc_key":"pa-cc"},"geometry":{"type":"Polygon","coordinates":[[[374.6,700.5],[365.7,705.2],[362.6,703.4],[359.8,704.5],[356.4,708.2],[350.4,709.1],[340.6,706.6],[336.1,708.2],[327.5,713.9],[326.7,717.1],[331.6,725.7],[334.3,735.0],[335.0,740.9],[330.5,748.2],[323.4,767.0],[319.1,774.6],[315.4,779.7],[311.4,783.2],[313.6,785.2],[319.4,786.1],[324.5,792.2],[326.7,797.5],[331.0,797.3],[334.8,802.4],[334.9,812.0],[338.1,820.3],[342.9,825.6],[346.8,826.9],[354.9,826.1],[363.0,830.0],[364.8,835.6],[364.4,841.4],[362.8,844.8],[365.1,853.3],[367.9,855.1],[384.7,848.8],[387.1,847.3],[397.4,844.9],[402.9,848.0],[417.5,861.9],[422.0,864.6],[424.6,868.3],[425.6,873.7],[427.5,877.4],[430.0,872.6],[431.5,864.2],[432.6,862.3],[437.5,859.2],[438.3,854.2],[434.2,848.0],[432.5,841.7],[432.7,837.3],[437.5,823.3],[442.1,802.5],[443.8,793.1],[443.5,785.6],[445.2,781.0],[445.9,770.7],[447.8,766.0],[455.3,757.2],[447.9,752.4],[426.8,741.5],[421.4,739.3],[412.6,738.1],[407.5,739.3],[401.2,736.9],[396.2,738.1],[391.7,741.2],[391.2,738.1],[387.8,736.0],[376.1,724.4],[374.7,721.1],[375.3,703.3],[374.6,700.5]]]}}]}