{"type":"FeatureCollection","features":[{"type":"Feature","id":"PE.IC","properties":{"name":"Ica","country_code":"pe","country_es":"Perú","hc_key":"pe-ic"},"geometry":{"type":"Polygon","coordinates":[[[269.4,76.1],[262.9,80.8],[264.2,83.6],[258.7,87.2],[260.0,89.8],[253.1,93.4],[247.7,102.1],[242.3,108.8],[225.7,118.2],[220.5,122.7],[220.3,126.8],[217.6,133.8],[208.2,141.7],[210.3,143.0],[207.9,147.8],[202.1,152.3],[200.9,149.2],[199.7,156.3],[200.5,164.3],[193.8,166.5],[195.6,172.7],[199.4,173.2],[201.4,169.2],[206.0,188.2],[203.7,199.0],[202.1,201.1],[208.3,209.1],[216.6,215.9],[219.6,220.1],[224.3,218.2],[233.7,219.1],[237.6,221.1],[237.3,217.6],[233.0,213.6],[233.6,207.3],[230.7,204.8],[228.0,197.1],[235.4,196.0],[246.3,192.5],[242.6,185.6],[244.5,180.3],[241.8,175.8],[244.1,167.0],[254.0,163.2],[262.0,156.5],[266.9,155.6],[270.2,152.5],[270.5,145.6],[266.4,137.4],[271.2,131.4],[270.9,125.1],[274.6,125.0],[279.7,128.1],[282.7,121.8],[287.0,117.8],[288.1,112.4],[291.5,106.8],[289.5,96.6],[276.0,87.8],[269.4,76.1]]]}},{"type":"Feature","id":"PE.CS","properties":{"name":"Cusco","country_code":"pe","country_es":"Perú","hc_key":"pe-cs"},"geometry":{"type":"Polygon","coordinates":[[[439.1,318.2],[437.7,311.5],[430.0,297.4],[426.8,283.5],[429.3,276.3],[438.9,270.6],[441.5,262.2],[449.5,257.9],[454.9,244.3],[453.5,237.8],[456.8,231.3],[470.8,225.7],[477.3,225.7],[487.2,221.1],[496.0,218.5],[504.1,213.1],[524.7,209.4],[533.8,210.7],[530.7,214.2],[532.1,216.2],[543.6,215.0],[541.7,206.3],[542.0,199.8],[539.5,195.2],[530.4,184.7],[523.6,170.2],[515.7,168.1],[513.6,157.1],[515.9,152.1],[514.4,144.3],[510.8,133.6],[505.6,131.7],[504.5,123.6],[497.0,117.7],[500.6,113.3],[504.0,112.5],[504.6,102.6],[502.8,99.4],[502.8,92.9],[504.7,86.3],[503.9,80.2],[501.5,79.0],[493.0,86.6],[493.5,91.9],[490.0,94.8],[486.8,92.5],[474.2,98.2],[474.0,95.1],[465.1,92.9],[454.0,97.2],[454.4,103.4],[457.2,107.7],[453.3,109.1],[448.2,117.6],[445.2,119.6],[444.8,112.3],[442.3,107.2],[436.5,112.0],[427.0,109.5],[422.0,111.3],[418.5,115.9],[418.5,119.7],[417.6,126.0],[419.1,129.0],[425.0,133.1],[430.7,134.7],[440.5,146.4],[442.3,152.6],[442.4,162.9],[437.8,172.0],[431.7,177.4],[425.8,178.7],[422.7,183.3],[412.6,185.5],[401.2,193.2],[392.0,195.5],[384.2,192.0],[377.1,194.3],[372.4,198.1],[366.2,206.9],[357.4,213.9],[358.3,215.6],[351.1,238.5],[346.2,241.5],[340.7,248.8],[340.5,252.6],[334.8,262.3],[342.8,262.6],[352.5,265.8],[355.1,270.5],[355.8,277.9],[361.5,286.2],[361.9,294.7],[351.3,299.0],[359.3,306.0],[365.9,318.3],[383.5,319.9],[387.6,321.1],[391.8,325.4],[395.0,318.9],[401.6,315.2],[408.1,316.0],[413.3,312.1],[417.8,311.8],[425.7,317.2],[432.9,319.3],[438.1,318.6],[439.1,318.2],[439.1,318.2]]]}},{"type":"Feature","id":"PE.UC","properties":{"name":"Ucayali","country_code":"pe","country_es":"Perú","hc_key":"pe-uc"},"geometry":{"type":"Polygon","coordinates":[[[439.1,318.2],[432.9,319.3],[425.7,317.2],[417.8,311.8],[413.3,312.1],[408.1,316.0],[401.6,315.2],[395.0,318.9],[391.8,325.4],[387.6,321.1],[383.5,319.9],[365.9,318.3],[361.2,327.2],[362.5,337.6],[358.5,345.4],[354.5,349.7],[347.2,351.9],[339.7,341.2],[310.6,334.9],[305.4,338.4],[303.5,346.8],[309.1,350.8],[316.2,357.8],[323.1,361.2],[321.1,365.0],[315.8,367.5],[311.8,378.3],[312.4,388.7],[307.9,399.6],[307.7,405.9],[302.1,417.6],[292.5,431.5],[291.5,435.5],[293.8,443.0],[293.9,451.9],[296.9,457.9],[297.7,465.7],[303.4,470.2],[303.2,475.1],[300.8,477.6],[294.1,478.4],[286.8,476.1],[272.9,465.6],[265.9,456.0],[257.7,442.5],[249.5,439.3],[242.4,433.4],[237.1,432.2],[229.6,441.6],[228.3,450.7],[223.2,456.8],[222.4,467.1],[218.0,477.0],[223.9,479.8],[237.5,492.0],[240.7,492.2],[250.0,486.7],[250.3,489.7],[245.3,497.9],[246.1,501.2],[251.7,503.2],[254.0,508.2],[264.4,508.2],[280.1,514.9],[293.4,517.1],[299.8,520.3],[301.6,523.7],[301.1,540.1],[298.5,551.5],[299.6,554.6],[303.7,554.7],[309.3,551.2],[320.7,549.3],[330.3,545.7],[335.2,542.6],[333.1,541.8],[343.7,531.3],[351.1,527.2],[351.0,522.6],[346.2,522.2],[347.1,517.5],[353.6,513.9],[357.5,506.6],[357.2,503.3],[361.8,492.7],[371.8,486.3],[372.1,479.3],[376.8,474.3],[382.4,472.0],[388.5,461.7],[393.9,456.2],[394.9,450.3],[389.6,441.8],[387.1,441.0],[379.7,431.3],[403.3,431.0],[425.7,426.6],[432.9,423.0],[435.5,415.5],[435.2,409.9],[439.3,407.3],[441.3,402.4],[439.1,395.5],[486.3,394.8],[497.8,398.6],[499.9,402.4],[508.5,405.7],[516.9,414.9],[528.4,422.6],[534.0,427.7],[537.7,428.2],[534.5,421.6],[531.7,420.3],[536.3,410.6],[531.2,405.7],[530.5,397.2],[519.8,388.7],[516.7,372.6],[509.1,363.3],[496.5,354.1],[488.0,350.8],[461.8,337.8],[451.7,337.1],[443.0,340.6],[441.4,338.3],[444.7,331.6],[440.3,324.0],[439.1,318.2]]]}},{"type":"Feature","id":"PE.MD","properties":{"name":"Madre de Dios","country_code":"pe","country_es":"Perú","hc_key":"pe-md"},"geometry":{"type":"Polygon","coordinates":[[[440.3,324.0],[444.7,331.6],[441.4,338.3],[443.0,340.6],[451.7,337.1],[461.8,337.8],[488.0,350.8],[496.5,354.1],[509.1,363.3],[516.7,372.6],[519.8,388.7],[530.5,397.2],[529.3,334.7],[535.6,338.8],[541.2,332.9],[549.8,331.1],[555.2,332.4],[569.5,339.3],[578.2,338.7],[583.3,336.3],[591.7,336.9],[641.7,243.5],[635.2,236.7],[638.0,233.9],[636.1,230.8],[631.3,229.6],[623.8,222.3],[623.9,212.5],[586.7,195.1],[584.2,195.2],[545.6,215.5],[543.6,215.0],[532.1,216.2],[530.7,214.2],[533.8,210.7],[524.7,209.4],[504.1,213.1],[496.0,218.5],[487.2,221.1],[477.3,225.7],[470.8,225.7],[456.8,231.3],[453.5,237.8],[454.9,244.3],[449.5,257.9],[441.5,262.2],[438.9,270.6],[429.3,276.3],[426.8,283.5],[430.0,297.4],[437.7,311.5],[439.1,318.2],[439.1,318.2],[440.3,324.0]]]}},{"type":"Feature","id":"PE.SM","properties":{"name":"San Martín","country_code":"pe","country_es":"Perú","hc_key":"pe-sm"},"geometry":{"type":"Polygon","coordinates":[[[113.7,574.3],[111.8,576.3],[113.9,594.7],[117.9,599.0],[124.1,596.5],[131.1,596.5],[137.2,599.1],[139.2,604.4],[146.3,611.0],[147.7,614.8],[142.4,625.9],[136.3,628.9],[126.3,631.5],[122.3,635.3],[115.1,649.3],[115.6,664.9],[119.5,669.3],[124.9,664.9],[135.7,660.3],[143.0,653.5],[147.0,651.9],[159.3,651.3],[167.2,646.9],[173.1,634.4],[176.7,631.3],[185.2,631.4],[193.8,637.5],[197.8,637.7],[207.1,628.2],[211.5,626.1],[225.6,626.7],[236.1,624.4],[241.5,621.9],[245.6,617.8],[248.0,612.0],[246.2,595.1],[244.5,586.0],[238.4,577.6],[235.2,578.5],[230.1,584.9],[221.9,588.7],[215.8,586.8],[211.0,577.7],[210.0,573.5],[211.5,567.7],[210.7,554.7],[213.1,544.5],[227.3,514.3],[229.3,508.3],[228.3,502.2],[222.7,495.4],[219.2,481.6],[214.9,478.2],[211.8,472.9],[206.3,474.0],[204.5,481.2],[197.3,492.7],[195.5,490.9],[195.1,482.6],[189.6,479.7],[171.1,483.3],[166.2,482.3],[164.8,484.9],[162.9,500.5],[156.1,506.9],[144.0,510.8],[136.5,511.0],[133.9,515.2],[134.1,520.9],[129.9,528.9],[131.1,540.2],[122.6,550.2],[120.5,557.3],[121.0,563.9],[117.3,566.7],[113.7,574.3]]]}},{"type":"Feature","id":"PE.AM","properties":{"name":"Amazonas","country_code":"pe","country_es":"Perú","hc_key":"pe-am"},"geometry":{"type":"Polygon","coordinates":[[[119.5,669.3],[115.6,664.9],[115.1,649.3],[122.3,635.3],[126.3,631.5],[136.3,628.9],[142.4,625.9],[147.7,614.8],[146.3,611.0],[139.2,604.4],[137.2,599.1],[131.1,596.5],[124.1,596.5],[117.9,599.0],[113.9,594.7],[111.8,576.3],[113.7,574.3],[106.0,574.7],[99.1,573.1],[97.3,577.5],[97.0,589.2],[91.4,600.9],[88.1,605.7],[77.8,612.1],[71.8,623.9],[61.7,629.2],[52.6,642.5],[55.6,652.1],[62.3,662.1],[62.3,669.9],[59.7,683.1],[63.4,691.9],[63.5,698.0],[61.0,702.2],[59.2,709.9],[56.1,716.2],[60.3,725.1],[57.6,731.5],[63.8,744.9],[64.4,751.1],[68.5,753.8],[70.0,760.9],[73.4,764.3],[72.7,769.2],[76.4,781.0],[76.4,785.8],[81.9,786.3],[84.5,780.0],[88.2,781.8],[86.2,788.5],[95.3,798.7],[101.3,806.7],[109.1,811.9],[112.2,793.0],[117.5,781.6],[120.2,763.5],[124.0,756.8],[125.6,749.7],[124.1,745.1],[123.0,725.1],[117.9,714.9],[113.4,709.5],[111.3,700.8],[115.3,678.5],[119.5,669.3]]]}},{"type":"Feature","id":"PE.LO","properties":{"name":"Loreto","country_code":"pe","country_es":"Perú","hc_key":"pe-lo"},"geometry":{"type":"Polygon","coordinates":[[[219.2,481.6],[222.7,495.4],[228.3,502.2],[229.3,508.3],[227.3,514.3],[213.1,544.5],[210.7,554.7],[211.5,567.7],[210.0,573.5],[211.0,577.7],[215.8,586.8],[221.9,588.7],[230.1,584.9],[235.2,578.5],[238.4,577.6],[244.5,586.0],[246.2,595.1],[248.0,612.0],[245.6,617.8],[241.5,621.9],[236.1,624.4],[225.6,626.7],[211.5,626.1],[207.1,628.2],[197.8,637.7],[193.8,637.5],[185.2,631.4],[176.7,631.3],[173.1,634.4],[167.2,646.9],[159.3,651.3],[147.0,651.9],[143.0,653.5],[135.7,660.3],[124.9,664.9],[119.5,669.3],[115.3,678.5],[111.3,700.8],[113.4,709.5],[117.9,714.9],[123.0,725.1],[124.1,745.1],[125.6,749.7],[124.0,756.8],[120.2,763.5],[117.5,781.6],[112.2,793.0],[109.1,811.9],[175.9,835.2],[179.4,837.3],[211.1,861.4],[242.6,898.4],[251.3,932.5],[255.1,929.5],[262.3,929.8],[258.2,942.9],[260.7,950.2],[259.7,956.0],[250.1,963.2],[247.1,972.4],[239.1,976.3],[238.0,980.4],[248.8,977.5],[257.0,978.9],[262.7,985.1],[267.4,984.4],[272.8,979.1],[283.4,973.9],[286.3,977.0],[290.4,970.6],[288.3,968.6],[297.1,967.0],[310.7,953.2],[313.6,947.1],[312.8,943.5],[317.3,940.7],[314.8,936.3],[321.0,928.8],[328.1,926.8],[331.4,927.9],[334.2,922.6],[340.0,921.3],[342.3,916.7],[347.0,914.8],[349.8,917.2],[356.8,912.9],[361.2,906.0],[360.0,904.3],[365.1,899.7],[365.8,894.2],[363.1,888.2],[374.4,881.2],[379.9,884.1],[383.5,880.7],[384.6,871.3],[388.0,864.6],[382.8,856.3],[385.1,851.6],[389.6,848.5],[391.2,851.2],[396.3,847.8],[397.9,844.1],[406.2,846.5],[411.3,844.0],[415.7,849.1],[420.5,846.2],[427.7,844.9],[430.4,842.4],[444.4,844.8],[448.7,849.2],[456.0,849.3],[463.5,857.5],[469.6,860.6],[481.5,855.5],[483.9,850.0],[486.4,853.6],[488.4,846.4],[494.7,848.9],[500.4,848.4],[505.0,853.1],[512.3,853.3],[514.0,856.9],[521.0,855.0],[526.2,850.3],[531.0,849.1],[534.5,841.8],[538.6,844.5],[545.8,839.3],[551.8,839.6],[551.6,835.2],[555.4,836.7],[559.0,831.4],[564.6,828.9],[567.4,830.9],[570.0,826.0],[528.9,763.0],[540.2,758.0],[546.5,757.8],[550.1,760.7],[554.1,760.0],[559.7,754.3],[561.3,748.1],[568.9,743.4],[574.7,734.1],[571.0,729.7],[566.7,734.0],[563.1,733.8],[560.2,729.5],[554.2,734.5],[554.0,739.8],[546.9,742.0],[537.6,738.5],[534.9,743.0],[530.1,739.9],[522.9,739.5],[522.3,736.0],[514.8,727.3],[502.8,728.7],[500.2,725.9],[495.8,727.7],[491.3,723.1],[482.8,723.8],[481.7,721.6],[473.3,720.4],[466.9,721.9],[460.0,720.1],[454.6,716.0],[449.2,714.7],[445.9,710.3],[438.5,705.7],[429.8,703.0],[429.4,699.8],[416.1,690.2],[414.5,687.8],[409.0,688.3],[398.8,683.8],[400.1,675.6],[395.5,664.1],[396.2,658.6],[393.7,649.8],[385.5,639.8],[379.8,628.1],[383.2,620.7],[385.8,606.9],[381.8,600.4],[371.6,598.2],[353.0,584.9],[348.2,579.4],[345.4,567.7],[351.2,555.8],[340.1,551.8],[335.3,552.8],[337.5,547.3],[335.2,542.6],[330.3,545.7],[320.7,549.3],[309.3,551.2],[303.7,554.7],[299.6,554.6],[298.5,551.5],[301.1,540.1],[301.6,523.7],[299.8,520.3],[293.4,517.1],[280.1,514.9],[264.4,508.2],[254.0,508.2],[251.7,503.2],[246.1,501.2],[245.3,497.9],[250.3,489.7],[250.0,486.7],[240.7,492.2],[237.5,492.0],[223.9,479.8],[218.0,477.0],[219.2,481.6]]]}},{"type":"Feature","id":"PE.AY","properties":{"name":"Ayacucho","country_code":"pe","country_es":"Perú","hc_key":"pe-ay"},"geometry":{"type":"Polygon","coordinates":[[[289.5,96.6],[291.5,106.8],[288.1,112.4],[287.0,117.8],[282.7,121.8],[279.7,128.1],[274.6,125.0],[270.9,125.1],[271.2,131.4],[266.4,137.4],[270.5,145.6],[270.2,152.5],[274.6,155.6],[288.2,157.4],[289.4,159.7],[289.6,169.7],[286.2,178.4],[286.1,184.8],[278.4,193.7],[280.1,199.2],[285.8,201.4],[289.0,198.4],[294.8,196.9],[297.0,199.8],[292.5,202.8],[298.7,208.7],[306.6,208.7],[309.0,211.2],[308.3,217.4],[311.6,218.9],[315.9,217.2],[312.8,229.4],[315.0,233.9],[312.4,243.6],[307.5,251.2],[303.5,251.7],[300.4,255.7],[303.3,263.9],[310.1,270.1],[312.5,266.0],[322.4,260.2],[328.1,263.2],[334.8,262.3],[340.5,252.6],[340.7,248.8],[346.2,241.5],[351.1,238.5],[358.3,215.6],[357.4,213.9],[366.2,206.9],[372.4,198.1],[377.1,194.3],[375.3,191.0],[363.0,193.3],[358.1,197.2],[343.3,206.7],[340.7,197.2],[343.6,182.3],[347.3,179.8],[349.8,175.3],[346.6,172.7],[353.0,160.3],[355.0,151.8],[358.2,146.9],[358.8,139.4],[358.0,130.7],[360.2,126.5],[358.9,120.2],[355.9,119.4],[358.9,111.8],[363.9,112.8],[368.0,118.5],[373.1,117.7],[385.8,121.0],[387.1,122.9],[397.6,116.6],[398.2,112.8],[388.9,111.2],[386.7,106.2],[388.3,103.1],[386.6,93.2],[378.6,83.4],[372.3,84.2],[372.1,77.7],[362.1,79.6],[355.4,76.7],[336.1,74.3],[332.1,68.0],[325.9,66.4],[325.0,74.6],[317.9,72.4],[314.0,73.9],[311.3,78.9],[308.0,80.4],[304.3,90.2],[290.3,94.3],[289.5,96.6]]]}},{"type":"Feature","id":"PE.LP","properties":{"name":"Lima Province","country_code":"pe","country_es":"Perú","hc_key":"pe-lp"},"geometry":{"type":"Polygon","coordinates":[[[170.1,249.0],[170.6,256.5],[166.9,261.1],[156.2,266.9],[155.3,272.2],[151.7,274.2],[151.8,277.9],[150.2,279.0],[146.9,292.6],[146.8,297.8],[150.0,299.4],[153.6,305.2],[156.0,302.9],[155.7,298.8],[160.3,294.6],[166.7,294.7],[161.0,289.0],[161.9,282.6],[166.7,282.8],[171.5,287.3],[176.0,282.0],[172.8,277.5],[176.2,275.2],[173.9,273.1],[179.1,264.8],[177.0,257.0],[172.9,254.6],[170.1,249.0]]]}},{"type":"Feature","id":"PE.HV","properties":{"name":"Huancavelica","country_code":"pe","country_es":"Perú","hc_key":"pe-hv"},"geometry":{"type":"Polygon","coordinates":[[[310.1,270.1],[303.3,263.9],[300.4,255.7],[303.5,251.7],[307.5,251.2],[312.4,243.6],[315.0,233.9],[312.8,229.4],[315.9,217.2],[311.6,218.9],[308.3,217.4],[309.0,211.2],[306.6,208.7],[298.7,208.7],[292.5,202.8],[297.0,199.8],[294.8,196.9],[289.0,198.4],[285.8,201.4],[280.1,199.2],[278.4,193.7],[286.1,184.8],[286.2,178.4],[289.6,169.7],[289.4,159.7],[288.2,157.4],[274.6,155.6],[270.2,152.5],[266.9,155.6],[262.0,156.5],[254.0,163.2],[244.1,167.0],[241.8,175.8],[244.5,180.3],[242.6,185.6],[246.3,192.5],[235.4,196.0],[228.0,197.1],[230.7,204.8],[233.6,207.3],[233.0,213.6],[237.3,217.6],[237.6,221.1],[240.0,228.6],[244.5,232.1],[247.3,238.5],[252.2,246.4],[262.2,255.3],[267.3,256.9],[264.9,261.7],[267.5,262.5],[270.9,267.8],[267.7,276.4],[271.0,280.3],[276.3,276.4],[287.1,276.6],[293.2,279.9],[302.8,276.6],[310.1,270.1]]]}},{"type":"Feature","id":"PE.JU","properties":{"name":"Junín","country_code":"pe","country_es":"Perú","hc_key":"pe-ju"},"geometry":{"type":"Polygon","coordinates":[[[303.5,346.8],[305.4,338.4],[310.6,334.9],[339.7,341.2],[347.2,351.9],[354.5,349.7],[358.5,345.4],[362.5,337.6],[361.2,327.2],[365.9,318.3],[359.3,306.0],[351.3,299.0],[361.9,294.7],[361.5,286.2],[355.8,277.9],[355.1,270.5],[352.5,265.8],[342.8,262.6],[334.8,262.3],[328.1,263.2],[322.4,260.2],[312.5,266.0],[310.1,270.1],[302.8,276.6],[293.2,279.9],[287.1,276.6],[276.3,276.4],[271.0,280.3],[267.7,276.4],[270.9,267.8],[267.5,262.5],[264.9,261.7],[267.3,256.9],[262.2,255.3],[252.2,246.4],[247.3,238.5],[241.5,242.4],[243.3,254.5],[236.9,268.5],[237.9,270.6],[234.5,274.4],[222.9,279.8],[215.7,278.2],[212.2,284.8],[208.6,287.5],[204.3,294.6],[203.6,303.0],[199.2,303.6],[194.5,308.4],[191.6,316.8],[188.8,319.6],[188.0,332.3],[200.2,333.2],[200.5,343.7],[209.2,343.7],[214.4,346.9],[216.9,344.6],[230.8,344.9],[248.8,350.2],[254.5,350.3],[267.6,353.8],[273.4,356.8],[280.1,353.6],[287.6,348.3],[293.2,346.7],[303.5,346.8]]]}},{"type":"Feature","id":"PE.LR","properties":{"name":"Lima","country_code":"pe","country_es":"Perú","hc_key":"pe-lr"},"geometry":{"type":"Polygon","coordinates":[[[188.0,332.3],[188.8,319.6],[191.6,316.8],[194.5,308.4],[199.2,303.6],[203.6,303.0],[204.3,294.6],[208.6,287.5],[212.2,284.8],[215.7,278.2],[222.9,279.8],[234.5,274.4],[237.9,270.6],[236.9,268.5],[243.3,254.5],[241.5,242.4],[247.3,238.5],[244.5,232.1],[240.0,228.6],[237.6,221.1],[233.7,219.1],[224.3,218.2],[219.6,220.1],[216.6,215.9],[208.3,209.1],[202.1,201.1],[188.5,217.9],[186.6,227.7],[180.0,234.7],[177.0,242.5],[170.1,249.0],[172.9,254.6],[177.0,257.0],[179.1,264.8],[173.9,273.1],[176.2,275.2],[172.8,277.5],[176.0,282.0],[171.5,287.3],[166.7,282.8],[161.9,282.6],[161.0,289.0],[166.7,294.7],[160.3,294.6],[155.7,298.8],[156.0,302.9],[153.6,305.2],[150.0,299.4],[146.8,297.8],[141.7,304.0],[139.6,308.8],[120.5,320.6],[120.9,325.2],[123.5,328.1],[119.6,337.0],[119.0,342.1],[114.2,348.7],[113.5,351.9],[106.1,361.2],[111.2,366.2],[112.1,374.7],[117.1,375.3],[118.8,372.8],[114.5,365.6],[119.0,365.2],[123.3,361.8],[123.8,352.9],[128.4,352.7],[134.2,355.3],[136.2,359.1],[146.5,366.4],[149.3,374.3],[162.0,380.1],[163.8,376.6],[167.4,376.2],[169.0,372.4],[172.7,370.9],[178.6,357.0],[179.2,353.3],[183.1,348.1],[183.2,339.7],[188.0,332.3]]]}},{"type":"Feature","id":"PE.LB","properties":{"name":"Lambayeque","country_code":"pe","country_es":"Perú","hc_key":"pe-lb"},"geometry":{"type":"Polygon","coordinates":[[[-1.2,563.7],[-2.2,566.9],[-15.5,580.0],[-17.5,585.7],[-26.7,593.7],[-37.3,599.9],[-57.1,609.6],[-48.8,620.7],[-46.6,626.1],[-38.0,635.5],[-19.7,640.9],[-17.1,642.8],[-16.9,659.0],[-9.1,652.9],[-5.3,647.4],[-5.6,641.3],[-0.7,639.6],[0.9,636.7],[7.9,636.4],[12.5,633.1],[17.7,631.6],[20.9,633.5],[26.2,630.9],[22.2,624.8],[24.2,621.1],[21.9,616.0],[13.2,612.8],[11.9,609.7],[13.0,601.7],[17.5,599.1],[19.6,593.8],[29.7,590.1],[29.7,587.3],[20.6,579.5],[19.0,572.8],[10.1,575.2],[-1.2,563.7]]]}},{"type":"Feature","id":"PE.TU","properties":{"name":"Tumbes","country_code":"pe","country_es":"Perú","hc_key":"pe-tu"},"geometry":{"type":"Polygon","coordinates":[[[-83.7,745.2],[-79.7,751.8],[-72.3,757.7],[-71.4,761.6],[-66.6,767.4],[-57.2,773.0],[-52.7,779.6],[-42.7,782.0],[-41.1,786.3],[-36.6,784.3],[-37.0,780.8],[-34.2,774.6],[-33.9,764.1],[-30.5,757.6],[-38.8,750.1],[-44.9,751.4],[-49.3,750.4],[-51.1,746.5],[-61.6,737.8],[-69.3,740.4],[-75.8,740.2],[-83.7,745.2]]]}},{"type":"Feature","id":"PE.AP","properties":{"name":"Apurímac","country_code":"pe","country_es":"Perú","hc_key":"pe-ap"},"geometry":{"type":"Polygon","coordinates":[[[397.6,116.6],[387.1,122.9],[385.8,121.0],[373.1,117.7],[368.0,118.5],[363.9,112.8],[358.9,111.8],[355.9,119.4],[358.9,120.2],[360.2,126.5],[358.0,130.7],[358.8,139.4],[358.2,146.9],[355.0,151.8],[353.0,160.3],[346.6,172.7],[349.8,175.3],[347.3,179.8],[343.6,182.3],[340.7,197.2],[343.3,206.7],[358.1,197.2],[363.0,193.3],[375.3,191.0],[377.1,194.3],[384.2,192.0],[392.0,195.5],[401.2,193.2],[412.6,185.5],[422.7,183.3],[425.8,178.7],[431.7,177.4],[437.8,172.0],[442.4,162.9],[442.3,152.6],[440.5,146.4],[430.7,134.7],[425.0,133.1],[419.1,129.0],[417.6,126.0],[418.5,119.7],[413.6,118.5],[402.6,120.8],[397.6,116.6]]]}},{"type":"Feature","id":"PE.AR","properties":{"name":"Arequipa","country_code":"pe","country_es":"Perú","hc_key":"pe-ar"},"geometry":{"type":"Polygon","coordinates":[[[397.6,116.6],[402.6,120.8],[413.6,118.5],[418.5,119.7],[418.5,115.9],[422.0,111.3],[427.0,109.5],[436.5,112.0],[442.3,107.2],[444.8,112.3],[445.2,119.6],[448.2,117.6],[453.3,109.1],[457.2,107.7],[454.4,103.4],[454.0,97.2],[465.1,92.9],[474.0,95.1],[474.2,98.2],[486.8,92.5],[490.0,94.8],[493.5,91.9],[493.0,86.6],[501.5,79.0],[502.3,65.2],[508.1,58.4],[506.2,52.1],[511.4,44.8],[510.9,40.0],[509.0,23.8],[504.9,19.6],[503.4,11.7],[493.4,11.9],[488.8,9.4],[483.7,2.3],[483.7,-3.6],[476.6,-8.1],[475.3,-11.1],[477.5,-17.9],[481.8,-21.9],[475.7,-35.4],[472.5,-37.8],[463.9,-32.5],[454.6,-29.9],[446.7,-22.8],[437.6,-19.6],[432.7,-13.2],[427.3,-11.0],[423.5,-3.8],[416.4,0.5],[410.7,2.4],[404.8,2.4],[399.7,4.4],[393.7,8.9],[384.0,12.6],[376.5,17.9],[370.6,18.6],[369.4,21.9],[363.6,24.8],[347.7,29.2],[339.6,33.7],[328.8,41.7],[328.0,44.8],[305.5,54.6],[304.3,58.8],[282.4,68.4],[281.2,70.1],[269.4,76.1],[276.0,87.8],[289.5,96.6],[290.3,94.3],[304.3,90.2],[308.0,80.4],[311.3,78.9],[314.0,73.9],[317.9,72.4],[325.0,74.6],[325.9,66.4],[332.1,68.0],[336.1,74.3],[355.4,76.7],[362.1,79.6],[372.1,77.7],[372.3,84.2],[378.6,83.4],[386.6,93.2],[388.3,103.1],[386.7,106.2],[388.9,111.2],[398.2,112.8],[397.6,116.6]]]}},{"type":"Feature","id":"PE.PU","properties":{"name":"Puno","country_code":"pe","country_es":"Perú","hc_key":"pe-pu"},"geometry":{"type":"Polygon","coordinates":[[[623.9,212.5],[624.2,197.6],[622.4,181.8],[620.0,176.8],[615.5,175.0],[620.3,169.7],[621.8,156.7],[625.6,153.4],[628.1,145.5],[627.1,142.3],[619.8,140.5],[620.7,132.5],[610.4,125.5],[609.9,121.0],[605.4,120.2],[603.9,110.9],[598.5,108.9],[596.5,98.4],[602.1,90.1],[610.0,82.0],[606.4,80.4],[601.1,74.4],[596.7,65.4],[592.7,67.0],[590.9,70.9],[584.9,75.7],[581.2,76.2],[577.8,82.2],[577.3,79.8],[567.1,78.6],[571.8,76.7],[564.4,75.1],[563.5,72.9],[570.9,59.0],[571.8,53.8],[563.8,63.6],[564.1,60.4],[561.0,55.3],[558.1,55.5],[559.0,46.6],[565.5,45.0],[566.4,42.2],[571.0,42.6],[566.9,46.1],[570.9,50.0],[573.3,44.0],[576.6,44.1],[577.7,39.3],[592.0,36.3],[592.6,31.7],[587.3,26.3],[592.3,26.1],[599.6,21.0],[607.7,21.3],[612.9,23.8],[618.7,23.0],[616.5,20.0],[611.7,20.6],[614.3,17.7],[613.7,11.8],[610.5,7.0],[613.7,3.6],[615.2,-1.4],[613.5,-3.5],[604.5,-7.5],[602.5,-11.9],[591.6,-23.3],[590.3,-27.5],[585.6,-28.8],[579.0,-33.0],[576.4,-39.0],[572.0,-39.0],[556.6,-29.4],[547.9,-13.3],[548.6,-8.5],[556.7,-3.8],[542.1,10.1],[538.9,18.8],[540.2,23.8],[536.5,29.2],[534.8,35.8],[527.0,38.3],[520.1,35.7],[510.9,40.0],[511.4,44.8],[506.2,52.1],[508.1,58.4],[502.3,65.2],[501.5,79.0],[503.9,80.2],[504.7,86.3],[502.8,92.9],[502.8,99.4],[504.6,102.6],[504.0,112.5],[500.6,113.3],[497.0,117.7],[504.5,123.6],[505.6,131.7],[510.8,133.6],[514.4,144.3],[515.9,152.1],[513.6,157.1],[515.7,168.1],[523.6,170.2],[530.4,184.7],[539.5,195.2],[542.0,199.8],[541.7,206.3],[543.6,215.0],[545.6,215.5],[584.2,195.2],[586.7,195.1],[623.9,212.5]]]}},{"type":"Feature","id":"PE.MQ","properties":{"name":"Moquegua","country_code":"pe","country_es":"Perú","hc_key":"pe-mq"},"geometry":{"type":"Polygon","coordinates":[[[489.6,-66.4],[482.4,-61.0],[477.9,-59.8],[479.4,-56.6],[477.4,-42.8],[472.5,-37.8],[475.7,-35.4],[481.8,-21.9],[477.5,-17.9],[475.3,-11.1],[476.6,-8.1],[483.7,-3.6],[483.7,2.3],[488.8,9.4],[493.4,11.9],[503.4,11.7],[504.9,19.6],[509.0,23.8],[510.9,40.0],[520.1,35.7],[527.0,38.3],[534.8,35.8],[536.5,29.2],[540.2,23.8],[538.9,18.8],[542.1,10.1],[556.7,-3.8],[548.6,-8.5],[547.9,-13.3],[545.0,-17.3],[542.6,-16.7],[539.7,-11.1],[535.7,-9.8],[531.3,-13.5],[529.8,-18.8],[530.5,-24.0],[523.4,-32.3],[517.5,-34.9],[512.2,-42.2],[510.6,-47.1],[503.7,-56.7],[492.5,-62.2],[489.6,-66.4]]]}},{"type":"Feature","id":"PE.TA","properties":{"name":"Tacna","country_code":"pe","country_es":"Perú","hc_key":"pe-ta"},"geometry":{"type":"Polygon","coordinates":[[[547.9,-13.3],[556.6,-29.4],[572.0,-39.0],[576.4,-39.0],[580.2,-39.8],[584.3,-44.1],[584.8,-52.2],[574.6,-60.8],[566.9,-60.7],[564.5,-65.1],[568.3,-79.9],[563.3,-89.4],[557.1,-95.5],[547.7,-99.3],[532.9,-99.9],[523.7,-92.9],[516.9,-89.0],[509.0,-81.3],[505.4,-79.4],[504.2,-75.9],[494.5,-71.0],[489.6,-66.4],[492.5,-62.2],[503.7,-56.7],[510.6,-47.1],[512.2,-42.2],[517.5,-34.9],[523.4,-32.3],[530.5,-24.0],[529.8,-18.8],[531.3,-13.5],[535.7,-9.8],[539.7,-11.1],[542.6,-16.7],[545.0,-17.3],[547.9,-13.3]]]}},{"type":"Feature","id":"PE.AN","properties":{"name":"Ancash","country_code":"pe","country_es":"Perú","hc_key":"pe-an"},"geometry":{"type":"Polygon","coordinates":[[[106.1,361.2],[96.3,376.2],[93.4,384.8],[89.8,388.3],[89.1,394.2],[85.7,399.5],[86.0,408.8],[77.7,419.3],[77.7,422.8],[74.2,430.8],[74.9,434.2],[68.3,439.7],[70.0,444.4],[66.4,444.7],[66.8,441.2],[63.3,445.1],[65.8,449.4],[61.5,452.2],[61.0,457.7],[62.9,458.9],[64.0,465.9],[67.5,470.0],[84.1,475.9],[85.1,482.8],[89.5,489.4],[92.4,497.0],[101.4,504.7],[104.9,511.0],[110.1,510.4],[119.6,514.3],[122.1,505.9],[129.3,500.2],[137.2,489.3],[138.8,483.5],[140.7,474.6],[145.2,470.3],[145.2,467.3],[149.8,462.0],[153.5,460.7],[158.0,455.3],[170.7,448.0],[173.0,444.0],[166.1,436.8],[160.2,423.1],[159.4,418.1],[153.7,409.4],[158.0,400.1],[159.1,392.9],[163.6,389.6],[162.0,380.1],[149.3,374.3],[146.5,366.4],[136.2,359.1],[134.2,355.3],[128.4,352.7],[123.8,352.9],[123.3,361.8],[119.0,365.2],[114.5,365.6],[118.8,372.8],[117.1,375.3],[112.1,374.7],[111.2,366.2],[106.1,361.2]]]}},{"type":"Feature","id":"PE.CJ","properties":{"name":"Cajamarca","country_code":"pe","country_es":"Perú","hc_key":"pe-cj"},"geometry":{"type":"Polygon","coordinates":[[[19.0,572.8],[20.6,579.5],[29.7,587.3],[29.7,590.1],[19.6,593.8],[17.5,599.1],[13.0,601.7],[11.9,609.7],[13.2,612.8],[21.9,616.0],[24.2,621.1],[22.2,624.8],[26.2,630.9],[20.9,633.5],[17.7,631.6],[12.5,633.1],[18.2,638.0],[14.3,648.6],[15.9,662.1],[19.8,662.0],[19.5,671.3],[17.4,674.0],[16.4,682.4],[22.6,689.0],[25.1,693.6],[32.7,692.8],[35.1,691.0],[38.3,694.0],[40.0,699.1],[44.8,700.9],[43.1,706.6],[47.5,712.2],[56.1,716.2],[59.2,709.9],[61.0,702.2],[63.5,698.0],[63.4,691.9],[59.7,683.1],[62.3,669.9],[62.3,662.1],[55.6,652.1],[52.6,642.5],[61.7,629.2],[71.8,623.9],[77.8,612.1],[88.1,605.7],[91.4,600.9],[97.0,589.2],[97.3,577.5],[99.1,573.1],[102.4,564.5],[106.3,560.1],[108.1,551.6],[113.1,546.2],[106.7,545.9],[103.5,543.8],[102.6,534.8],[93.7,532.8],[90.4,534.1],[84.7,529.1],[81.5,528.4],[80.9,532.1],[74.9,535.8],[69.8,535.9],[64.2,539.8],[57.7,539.1],[53.2,540.9],[43.3,537.7],[40.0,532.0],[36.2,534.5],[36.1,540.5],[34.1,544.4],[28.1,549.7],[19.0,552.2],[16.9,554.1],[19.4,559.4],[18.4,563.8],[19.0,572.8]]]}},{"type":"Feature","id":"PE.HC","properties":{"name":"Huánuco","country_code":"pe","country_es":"Perú","hc_key":"pe-hc"},"geometry":{"type":"Polygon","coordinates":[[[162.0,380.1],[163.6,389.6],[159.1,392.9],[158.0,400.1],[153.7,409.4],[159.4,418.1],[160.2,423.1],[166.1,436.8],[173.0,444.0],[170.7,448.0],[158.0,455.3],[153.5,460.7],[149.8,462.0],[145.2,467.3],[145.2,470.3],[140.7,474.6],[138.8,483.5],[147.9,483.6],[155.6,485.6],[158.1,479.5],[164.5,479.4],[166.2,482.3],[171.1,483.3],[189.6,479.7],[195.1,482.6],[195.5,490.9],[197.3,492.7],[204.5,481.2],[206.3,474.0],[211.8,472.9],[214.9,478.2],[219.2,481.6],[218.0,477.0],[222.4,467.1],[223.2,456.8],[228.3,450.7],[229.6,441.6],[237.1,432.2],[242.4,433.4],[249.5,439.3],[257.7,442.5],[265.9,456.0],[272.9,465.6],[286.8,476.1],[294.1,478.4],[300.8,477.6],[303.2,475.1],[303.4,470.2],[297.7,465.7],[296.9,457.9],[293.9,451.9],[293.8,443.0],[291.5,435.5],[292.5,431.5],[302.1,417.6],[288.9,411.5],[276.0,409.3],[267.2,410.2],[256.0,404.9],[246.0,403.1],[238.9,403.4],[232.1,402.2],[228.2,399.4],[226.5,391.4],[229.9,377.6],[219.6,372.0],[214.4,374.8],[203.1,375.6],[198.3,380.3],[186.5,381.7],[181.9,380.0],[178.1,374.7],[172.7,370.9],[169.0,372.4],[167.4,376.2],[163.8,376.6],[162.0,380.1]]]}},{"type":"Feature","id":"PE.CL","properties":{"name":"Callao","country_code":"pe","country_es":"Perú","hc_key":"pe-cl"},"geometry":{"type":"Polygon","coordinates":[[[151.7,274.2],[148.2,274.7],[150.2,279.0],[151.8,277.9],[151.7,274.2]]]}},{"type":"Feature","id":"PE.LL","properties":{"name":"La Libertad","country_code":"pe","country_es":"Perú","hc_key":"pe-ll"},"geometry":{"type":"Polygon","coordinates":[[[19.0,572.8],[18.4,563.8],[19.4,559.4],[16.9,554.1],[19.0,552.2],[28.1,549.7],[34.1,544.4],[36.1,540.5],[36.2,534.5],[40.0,532.0],[43.3,537.7],[53.2,540.9],[57.7,539.1],[64.2,539.8],[69.8,535.9],[74.9,535.8],[80.9,532.1],[81.5,528.4],[84.7,529.1],[90.4,534.1],[93.7,532.8],[102.6,534.8],[103.5,543.8],[106.7,545.9],[113.1,546.2],[108.1,551.6],[106.3,560.1],[102.4,564.5],[99.1,573.1],[106.0,574.7],[113.7,574.3],[117.3,566.7],[121.0,563.9],[120.5,557.3],[122.6,550.2],[131.1,540.2],[129.9,528.9],[134.1,520.9],[133.9,515.2],[136.5,511.0],[144.0,510.8],[156.1,506.9],[162.9,500.5],[164.8,484.9],[166.2,482.3],[164.5,479.4],[158.1,479.5],[155.6,485.6],[147.9,483.6],[138.8,483.5],[137.2,489.3],[129.3,500.2],[122.1,505.9],[119.6,514.3],[110.1,510.4],[104.9,511.0],[101.4,504.7],[92.4,497.0],[89.5,489.4],[85.1,482.8],[84.1,475.9],[67.5,470.0],[64.0,465.9],[62.9,458.9],[61.0,457.7],[59.0,462.5],[54.2,468.8],[55.4,470.9],[54.4,478.6],[50.8,483.3],[43.7,488.8],[45.9,492.2],[40.9,501.6],[32.7,509.1],[32.6,510.6],[22.3,517.9],[12.4,531.0],[14.2,533.5],[5.4,545.9],[5.9,550.4],[3.5,557.5],[-1.2,563.7],[10.1,575.2],[19.0,572.8]]]}},{"type":"Feature","id":"PE.PA","properties":{"name":"Pasco","country_code":"pe","country_es":"Perú","hc_key":"pe-pa"},"geometry":{"type":"Polygon","coordinates":[[[172.7,370.9],[178.1,374.7],[181.9,380.0],[186.5,381.7],[198.3,380.3],[203.1,375.6],[214.4,374.8],[219.6,372.0],[229.9,377.6],[226.5,391.4],[228.2,399.4],[232.1,402.2],[238.9,403.4],[246.0,403.1],[256.0,404.9],[267.2,410.2],[276.0,409.3],[288.9,411.5],[302.1,417.6],[307.7,405.9],[307.9,399.6],[312.4,388.7],[311.8,378.3],[315.8,367.5],[321.1,365.0],[323.1,361.2],[316.2,357.8],[309.1,350.8],[303.5,346.8],[293.2,346.7],[287.6,348.3],[280.1,353.6],[273.4,356.8],[267.6,353.8],[254.5,350.3],[248.8,350.2],[230.8,344.9],[216.9,344.6],[214.4,346.9],[209.2,343.7],[200.5,343.7],[200.2,333.2],[188.0,332.3],[183.2,339.7],[183.1,348.1],[179.2,353.3],[178.6,357.0],[172.7,370.9]]]}},{"type":"Feature","id":"PE.PI","properties":{"name":"Piura","country_code":"pe","country_es":"Perú","hc_key":"pe-pi"},"geometry":{"type":"Polygon","coordinates":[[[25.1,693.6],[22.6,689.0],[16.4,682.4],[17.4,674.0],[19.5,671.3],[19.8,662.0],[15.9,662.1],[14.3,648.6],[18.2,638.0],[12.5,633.1],[7.9,636.4],[0.9,636.7],[-0.7,639.6],[-5.6,641.3],[-5.3,647.4],[-9.1,652.9],[-16.9,659.0],[-17.1,642.8],[-19.7,640.9],[-38.0,635.5],[-46.6,626.1],[-48.8,620.7],[-57.1,609.6],[-66.6,614.1],[-70.4,617.6],[-85.2,627.4],[-88.2,633.1],[-88.2,638.6],[-83.8,644.3],[-75.7,640.6],[-71.3,647.0],[-70.9,652.5],[-75.4,663.5],[-83.8,672.0],[-87.4,673.1],[-91.4,678.5],[-89.8,685.7],[-84.6,686.2],[-83.5,689.6],[-93.1,702.3],[-99.9,709.8],[-98.0,711.9],[-99.5,721.8],[-96.6,726.6],[-97.5,731.2],[-95.0,735.9],[-83.7,745.2],[-75.8,740.2],[-69.3,740.4],[-61.6,737.8],[-51.1,746.5],[-48.5,737.7],[-41.1,738.6],[-49.6,726.9],[-44.8,722.1],[-34.8,728.5],[-32.8,732.8],[-28.9,733.7],[-19.5,727.5],[-14.9,726.9],[-10.6,722.2],[-0.3,724.6],[8.7,719.2],[7.5,714.1],[12.2,702.8],[20.9,693.9],[25.1,693.6]]]}}]}