{"type":"FeatureCollection","features":[{"type":"Feature","properties":{"name":"Puerto Rico","country_code":"pr","country_es":"Puerto Rico"},"geometry":{"type":"MultiPolygon","coordinates":[[[[-67.873172,18.053523],[-67.892027,18.053343],[-67.902531,18.065403],[-67.931351,18.080582],[-67.937816,18.094322],[-67.931351,18.108842],[-67.9195,18.114362],[-67.86186,18.115982],[-67.855934,18.114602],[-67.844352,18.104522],[-67.844083,18.097622],[-67.859974,18.073082],[-67.867516,18.064263],[-67.868863,18.056403],[-67.873172,18.053523]]],[[[-65.275863,18.137041],[-65.283135,18.133561],[-65.309801,18.135121],[-65.316534,18.132781],[-65.335388,18.120301],[-65.340775,18.114662],[-65.347778,18.114662],[-65.356397,18.122821],[-65.371212,18.119581],[-65.390335,18.112082],[-65.468715,18.094442],[-65.484337,18.087422],[-65.504807,18.093662],[-65.536052,18.090062],[-65.565141,18.093962],[-65.580225,18.122041],[-65.560024,18.122161],[-65.540092,18.123781],[-65.52016,18.131041],[-65.502114,18.141361],[-65.487839,18.152221],[-65.478412,18.157141],[-65.398416,18.16932],[-65.385756,18.1671],[-65.351011,18.155761],[-65.298488,18.153781],[-65.285559,18.148981],[-65.275863,18.137041]]],[[[-65.256739,18.323877],[-65.244619,18.306477],[-65.258355,18.306597],[-65.251352,18.299638],[-65.270476,18.301438],[-65.275863,18.306477],[-65.278826,18.314037],[-65.285559,18.313857],[-65.276402,18.296938],[-65.274785,18.289138],[-65.278826,18.279178],[-65.292562,18.299878],[-65.334311,18.337137],[-65.334042,18.340737],[-65.309531,18.340797],[-65.28098,18.335157],[-65.256739,18.323877]]],[[[-67.012341,18.505733],[-66.907295,18.485394],[-66.803328,18.498173],[-66.789322,18.496553],[-66.751613,18.484074],[-66.736799,18.483114],[-66.697744,18.491513],[-66.640912,18.496313],[-66.614516,18.493253],[-66.58785,18.484014],[-66.57142,18.487134],[-66.507046,18.486414],[-66.467452,18.475314],[-66.382339,18.491453],[-66.303959,18.468834],[-66.25817,18.481614],[-66.205109,18.465414],[-66.194066,18.473514],[-66.180868,18.471594],[-66.170094,18.457314],[-66.161744,18.453294],[-66.152047,18.458754],[-66.143967,18.468654],[-66.134001,18.465834],[-66.137503,18.452754],[-66.11784,18.443034],[-66.108683,18.420715],[-66.093061,18.419695],[-66.0602,18.429415],[-66.0602,18.436735],[-66.07663,18.438895],[-66.094946,18.447714],[-66.121611,18.473394],[-66.055891,18.453834],[-66.011987,18.443994],[-65.997712,18.450114],[-65.988823,18.463134],[-65.966198,18.458334],[-65.920409,18.445914],[-65.904787,18.455814],[-65.892667,18.453654],[-65.880546,18.444834],[-65.848224,18.437875],[-65.830986,18.428815],[-65.812671,18.410455],[-65.801627,18.415435],[-65.794086,18.425335],[-65.787083,18.418195],[-65.79651,18.404995],[-65.771999,18.414595],[-65.755031,18.391076],[-65.738062,18.382436],[-65.724864,18.391196],[-65.697929,18.371156],[-65.663183,18.366536],[-65.629515,18.391076],[-65.621165,18.389096],[-65.621165,18.382256],[-65.630862,18.332937],[-65.633016,18.290938],[-65.628707,18.279298],[-65.633016,18.266998],[-65.617664,18.256259],[-65.603658,18.262858],[-65.606621,18.253619],[-65.603927,18.246239],[-65.591806,18.230999],[-65.602311,18.223679],[-65.603388,18.215399],[-65.612546,18.214499],[-65.622243,18.229199],[-65.633555,18.229259],[-65.637057,18.218579],[-65.62736,18.20598],[-65.636787,18.19818],[-65.648639,18.20016],[-65.665607,18.2085],[-65.682846,18.20292],[-65.701431,18.19416],[-65.721093,18.18978],[-65.737523,18.1827],[-65.754761,18.16614],[-65.790315,18.114062],[-65.793008,18.087542],[-65.807014,18.070263],[-65.812132,18.067203],[-65.835296,18.062523],[-65.840413,18.056343],[-65.830178,18.026883],[-65.849571,18.009664],[-65.88728,17.987704],[-65.938994,17.970485],[-65.961619,17.971025],[-65.984514,17.975585],[-66.004984,17.977565],[-66.017105,17.975225],[-66.046464,17.963885],[-66.084172,17.963945],[-66.104642,17.959025],[-66.16336,17.929206],[-66.19622,17.927826],[-66.204031,17.922846],[-66.210226,17.936585],[-66.199722,17.939705],[-66.197028,17.944445],[-66.210496,17.957045],[-66.229889,17.940425],[-66.241201,17.937365],[-66.255477,17.940665],[-66.28295,17.943305],[-66.292646,17.945705],[-66.306652,17.963765],[-66.327931,17.972285],[-66.344361,17.971385],[-66.367794,17.965925],[-66.396345,17.947205],[-66.416546,17.949545],[-66.435939,17.964005],[-66.452369,17.982064],[-66.469068,17.992744],[-66.502198,17.987044],[-66.512433,17.982064],[-66.527247,17.979425],[-66.559838,17.977505],[-66.580578,17.965865],[-66.592429,17.963465],[-66.608051,17.971325],[-66.622596,17.963945],[-66.62933,17.975105],[-66.646568,17.976725],[-66.687509,17.971445],[-66.724948,17.984464],[-66.765888,17.984404],[-66.76508,17.998144],[-66.773969,18.002164],[-66.787436,17.999284],[-66.800095,17.991904],[-66.800095,17.984344],[-66.786359,17.984344],[-66.79821,17.969345],[-66.817603,17.958905],[-66.840767,17.952665],[-66.861506,17.949545],[-66.892751,17.950685],[-66.924264,17.949665],[-66.928035,17.945585],[-66.930459,17.929206],[-66.949313,17.931306],[-66.963319,17.940965],[-66.985675,17.963945],[-67.006146,17.964845],[-67.028501,17.968565],[-67.052743,17.968265],[-67.067018,17.972465],[-67.081024,17.961245],[-67.097185,17.952905],[-67.111729,17.949545],[-67.158596,17.954585],[-67.180413,17.966105],[-67.191187,17.958005],[-67.184184,17.935025],[-67.194958,17.935685],[-67.214889,17.966225],[-67.214351,17.994244],[-67.183376,18.008584],[-67.166407,18.015064],[-67.163175,18.022444],[-67.176911,18.032823],[-67.190109,18.030363],[-67.203038,18.035763],[-67.201961,18.054303],[-67.195496,18.063843],[-67.1858,18.070503],[-67.19388,18.097262],[-67.183106,18.107762],[-67.183914,18.140041],[-67.173679,18.1761],[-67.157518,18.19182],[-67.151862,18.20352],[-67.158596,18.213899],[-67.171255,18.224759],[-67.187147,18.272878],[-67.196574,18.291358],[-67.236976,18.299938],[-67.252598,18.329277],[-67.262833,18.343737],[-67.270644,18.361736],[-67.268759,18.368876],[-67.240208,18.376796],[-67.19819,18.393596],[-67.184184,18.402175],[-67.159404,18.421015],[-67.158057,18.443094],[-67.168831,18.460614],[-67.169908,18.485994],[-67.151593,18.508853],[-67.101764,18.522773],[-67.048433,18.521033],[-67.012341,18.505733]]]]}}]}