{"type":"FeatureCollection","features":[{"type":"Feature","properties":{"name":"Alto Paraguay","country_code":"py","country_es":"Paraguay"},"geometry":{"type":"Polygon","coordinates":[[[-61.92495,-20.065356],[-61.892168,-20.000609],[-61.761041,-19.65778],[-61.737506,-19.639518],[-61.511396,-19.606314],[-60.005957,-19.298349],[-59.08975,-19.286728],[-59.011578,-19.331553],[-58.175223,-19.821309],[-58.144963,-19.969895],[-58.144963,-20.086109],[-58.158412,-20.181569],[-58.118065,-20.214773],[-58.15589,-20.226395],[-58.156731,-20.262089],[-58.10966,-20.260428],[-58.082762,-20.375812],[-57.98946,-20.433088],[-58.008793,-20.525229],[-57.980214,-20.692908],[-57.903723,-20.678796],[-57.858333,-20.739393],[-57.940707,-20.793349],[-57.887752,-20.8058],[-57.857492,-20.849795],[-57.915491,-20.906242],[-57.847406,-20.956047],[-57.817986,-20.953557],[-57.852449,-21.037397],[-57.829754,-21.127047],[-57.847406,-21.216697],[-57.905404,-21.287255],[-57.855811,-21.33125],[-57.92978,-21.453274],[-57.948272,-21.530473],[-57.912129,-21.563677],[-57.939026,-21.624273],[-57.895317,-21.688191],[-57.939026,-21.755428],[-57.935664,-21.811875],[-57.955838,-21.850889],[-57.925577,-21.905675],[-57.986938,-22.036],[-57.972649,-22.081655],[-57.977692,-22.21032],[-57.965924,-22.256805],[-57.896998,-22.279218],[-57.826392,-22.38879],[-57.849087,-22.422824],[-58.193715,-22.280878],[-58.223975,-22.21447],[-58.262641,-22.197869],[-58.732513,-22.168815],[-58.785468,-22.172966],[-58.998129,-22.157194],[-59.152791,-22.162175],[-59.230123,-22.141422],[-59.341917,-22.083316],[-59.420089,-22.046791],[-59.782369,-22.03351],[-59.938713,-22.040151],[-59.958046,-21.908166],[-59.852135,-21.469046],[-59.811789,-21.424221],[-59.710081,-21.366944],[-59.695792,-21.325439],[-59.736979,-21.06894],[-59.830281,-20.918693],[-59.826078,-20.874698],[-59.875671,-20.775917],[-59.855498,-20.697888],[-59.950481,-20.651403],[-61.81904,-20.131764],[-61.92495,-20.065356]]]}},{"type":"Feature","properties":{"name":"Boquerón","country_code":"py","country_es":"Paraguay"},"geometry":{"type":"Polygon","coordinates":[[[-61.92495,-20.065356],[-61.81904,-20.131764],[-59.950481,-20.651403],[-59.855498,-20.697888],[-59.875671,-20.775917],[-59.826078,-20.874698],[-59.830281,-20.918693],[-59.736979,-21.06894],[-59.695792,-21.325439],[-59.710081,-21.366944],[-59.811789,-21.424221],[-59.852135,-21.469046],[-59.958046,-21.908166],[-59.938713,-22.040151],[-59.782369,-22.03351],[-59.420089,-22.046791],[-59.341917,-22.083316],[-59.304092,-22.195378],[-59.384785,-22.249334],[-59.420929,-22.258465],[-59.464638,-22.230242],[-59.594084,-22.29582],[-59.625185,-22.345625],[-59.615939,-22.412033],[-59.731095,-22.431125],[-59.741182,-22.529076],[-59.93451,-22.795536],[-59.961408,-22.91341],[-59.953002,-23.057016],[-59.987465,-23.162438],[-59.973176,-23.205603],[-60.032015,-23.335928],[-60.05471,-23.410636],[-60.063115,-23.500287],[-60.171547,-23.555073],[-60.229546,-23.569184],[-60.554001,-23.585786],[-60.648143,-23.623971],[-60.720431,-23.634762],[-60.764981,-23.663815],[-60.792719,-23.745164],[-60.787676,-23.873829],[-60.838109,-23.872169],[-60.936454,-23.813232],[-61.006221,-23.805761],[-61.0659,-23.715281],[-61.118855,-23.666305],[-61.109609,-23.607369],[-61.180216,-23.556733],[-61.272678,-23.523529],[-61.297054,-23.481194],[-61.491222,-23.413127],[-61.526526,-23.374942],[-61.516439,-23.345059],[-61.555105,-23.338418],[-61.605538,-23.288613],[-61.666899,-23.282802],[-61.74423,-23.234656],[-61.751795,-23.187341],[-61.845097,-23.096861],[-61.956891,-23.034604],[-62.009006,-22.969026],[-62.035904,-22.884357],[-62.171234,-22.717508],[-62.187204,-22.638649],[-62.252768,-22.603785],[-62.232594,-22.556469],[-62.28723,-22.484251],[-62.367924,-22.465159],[-62.438531,-22.419504],[-62.470472,-22.38215],[-62.522587,-22.364718],[-62.564614,-22.321553],[-62.6327,-22.29582],[-62.619251,-22.255145],[-62.650351,-22.234393],[-62.627656,-22.184587],[-62.57302,-22.001136],[-62.412474,-21.500589],[-62.275463,-21.06728],[-62.27126,-21.000873],[-62.277144,-20.580015],[-62.232594,-20.501156],[-62.010687,-20.199001],[-61.92495,-20.065356]]]}},{"type":"Feature","properties":{"name":"Concepción","country_code":"py","country_es":"Paraguay"},"geometry":{"type":"Polygon","coordinates":[[[-57.849087,-22.422824],[-57.826392,-22.38879],[-57.896998,-22.279218],[-57.965924,-22.256805],[-57.977692,-22.21032],[-57.972649,-22.081655],[-57.939867,-22.11818],[-57.870941,-22.1215],[-57.844043,-22.143082],[-57.775118,-22.12399],[-57.773437,-22.108218],[-57.654918,-22.104898],[-57.613731,-22.177116],[-57.554892,-22.170475],[-57.511183,-22.188738],[-57.472517,-22.180437],[-57.385099,-22.21281],[-57.331303,-22.202849],[-57.271624,-22.21447],[-57.213625,-22.187907],[-57.108556,-22.233563],[-57.011051,-22.233563],[-56.914387,-22.263446],[-56.903459,-22.236883],[-56.879083,-22.290009],[-56.842939,-22.289179],[-56.834534,-22.29831],[-56.622713,-22.346455],[-56.582367,-22.362227],[-56.615148,-22.380489],[-56.657176,-22.436936],[-56.709291,-22.479271],[-56.719377,-22.528246],[-56.721899,-22.643629],[-56.704247,-22.708377],[-56.673987,-22.73992],[-56.652133,-22.817949],[-56.689958,-22.879376],[-56.630278,-22.864434],[-56.594975,-22.886847],[-56.532774,-22.870245],[-56.500832,-22.798027],[-56.405009,-22.763163],[-56.372227,-22.721658],[-56.31591,-22.691775],[-56.27136,-22.706716],[-56.128465,-23.052036],[-56.130147,-23.105992],[-56.174696,-23.122594],[-56.190667,-23.208923],[-56.282287,-23.282802],[-56.30078,-23.340078],[-56.405009,-23.411466],[-56.473935,-23.420598],[-56.525209,-23.44384],[-56.605062,-23.452141],[-56.705088,-23.432219],[-56.877402,-23.422258],[-56.990877,-23.447991],[-57.016935,-23.44384],[-57.089223,-23.468743],[-57.207741,-23.478704],[-57.263218,-23.498626],[-57.350636,-23.504437],[-57.445619,-23.474554],[-57.457387,-23.403996],[-57.501096,-23.35834],[-57.480922,-23.278651],[-57.550689,-23.208923],[-57.624658,-23.164928],[-57.632223,-23.110972],[-57.713757,-23.085239],[-57.729728,-23.054526],[-57.789407,-23.021322],[-57.773437,-22.960725],[-57.818827,-22.9159],[-57.789407,-22.877716],[-57.80874,-22.82625],[-57.851608,-22.810478],[-57.886071,-22.756522],[-57.939867,-22.716678],[-57.896158,-22.665212],[-57.784364,-22.665212],[-57.77932,-22.634498],[-57.830594,-22.55896],[-57.849087,-22.422824]]]}},{"type":"Feature","properties":{"name":"Presidente Hayes","country_code":"py","country_es":"Paraguay"},"geometry":{"type":"Polygon","coordinates":[[[-57.849087,-22.422824],[-57.830594,-22.55896],[-57.77932,-22.634498],[-57.784364,-22.665212],[-57.896158,-22.665212],[-57.939867,-22.716678],[-57.886071,-22.756522],[-57.851608,-22.810478],[-57.80874,-22.82625],[-57.789407,-22.877716],[-57.818827,-22.9159],[-57.773437,-22.960725],[-57.789407,-23.021322],[-57.729728,-23.054526],[-57.713757,-23.085239],[-57.632223,-23.110972],[-57.624658,-23.164928],[-57.550689,-23.208923],[-57.480922,-23.278651],[-57.501096,-23.35834],[-57.457387,-23.403996],[-57.445619,-23.474554],[-57.450662,-23.573335],[-57.398548,-23.645553],[-57.32626,-23.682907],[-57.28087,-23.722752],[-57.299362,-23.757616],[-57.28171,-23.800781],[-57.295159,-23.872169],[-57.338868,-23.931106],[-57.284232,-23.953518],[-57.268261,-24.029887],[-57.223712,-24.050639],[-57.232958,-24.094634],[-57.163192,-24.117877],[-57.22035,-24.197566],[-57.170757,-24.298007],[-57.146381,-24.460706],[-57.13041,-24.50055],[-57.14554,-24.58273],[-57.126207,-24.641666],[-57.090063,-24.67736],[-57.122004,-24.752069],[-57.181684,-24.769501],[-57.196814,-24.826777],[-57.248929,-24.891525],[-57.216147,-24.901486],[-57.212785,-24.988646],[-57.285073,-24.982835],[-57.343912,-25.064184],[-57.422083,-25.11233],[-57.454865,-25.11233],[-57.523791,-25.109009],[-57.554051,-25.20115],[-57.583471,-25.234354],[-57.623817,-25.248465],[-57.67257,-25.28997],[-57.721322,-25.245975],[-57.754104,-25.180397],[-57.891115,-25.079126],[-57.983576,-25.074145],[-58.000387,-25.044262],[-58.042415,-25.044262],[-58.111341,-25.012718],[-58.223975,-24.94133],[-58.311393,-24.993626],[-58.3509,-24.968723],[-58.450926,-24.861641],[-58.473621,-24.85168],[-58.693847,-24.812666],[-58.737556,-24.782782],[-58.809003,-24.776972],[-59.000651,-24.644157],[-59.116647,-24.598501],[-59.341076,-24.487269],[-59.378061,-24.433313],[-59.459595,-24.358604],[-59.540288,-24.308798],[-59.61762,-24.283896],[-59.673937,-24.225789],[-60.033696,-24.007474],[-60.142968,-24.024906],[-60.327891,-24.018265],[-60.38757,-23.986722],[-60.485075,-23.976761],[-60.577536,-23.944387],[-60.594348,-23.907033],[-60.689331,-23.893751],[-60.729677,-23.872169],[-60.787676,-23.873829],[-60.792719,-23.745164],[-60.764981,-23.663815],[-60.720431,-23.634762],[-60.648143,-23.623971],[-60.554001,-23.585786],[-60.229546,-23.569184],[-60.171547,-23.555073],[-60.063115,-23.500287],[-60.05471,-23.410636],[-60.032015,-23.335928],[-59.973176,-23.205603],[-59.987465,-23.162438],[-59.953002,-23.057016],[-59.961408,-22.91341],[-59.93451,-22.795536],[-59.741182,-22.529076],[-59.731095,-22.431125],[-59.615939,-22.412033],[-59.625185,-22.345625],[-59.594084,-22.29582],[-59.464638,-22.230242],[-59.420929,-22.258465],[-59.384785,-22.249334],[-59.304092,-22.195378],[-59.341917,-22.083316],[-59.230123,-22.141422],[-59.152791,-22.162175],[-58.998129,-22.157194],[-58.785468,-22.172966],[-58.732513,-22.168815],[-58.262641,-22.197869],[-58.223975,-22.21447],[-58.193715,-22.280878],[-57.849087,-22.422824]]]}},{"type":"Feature","properties":{"name":"Cordillera","country_code":"py","country_es":"Paraguay"},"geometry":{"type":"Polygon","coordinates":[[[-57.454865,-25.11233],[-57.422083,-25.11233],[-57.343912,-25.064184],[-57.285073,-24.982835],[-57.212785,-24.988646],[-57.13041,-25.02849],[-57.058963,-25.037621],[-57.021978,-25.018529],[-57.020297,-24.983665],[-56.984994,-24.963743],[-56.772333,-24.922238],[-56.689117,-24.917258],[-56.595815,-24.951291],[-56.54202,-25.000267],[-56.494949,-25.021849],[-56.543701,-25.28748],[-56.563874,-25.348907],[-56.809317,-25.505794],[-56.808476,-25.534848],[-56.746275,-25.653551],[-56.806795,-25.636949],[-56.847142,-25.660192],[-56.905981,-25.64027],[-56.877402,-25.607896],[-56.902619,-25.538998],[-57.000124,-25.540658],[-57.088382,-25.526547],[-57.112758,-25.508285],[-57.161511,-25.425275],[-57.193452,-25.383771],[-57.232958,-25.397882],[-57.290956,-25.320683],[-57.318695,-25.255936],[-57.378374,-25.177907],[-57.454865,-25.11233]]]}},{"type":"Feature","properties":{"name":"San Pedro","country_code":"py","country_es":"Paraguay"},"geometry":{"type":"Polygon","coordinates":[[[-56.494949,-25.021849],[-56.54202,-25.000267],[-56.595815,-24.951291],[-56.689117,-24.917258],[-56.772333,-24.922238],[-56.984994,-24.963743],[-57.020297,-24.983665],[-57.021978,-25.018529],[-57.058963,-25.037621],[-57.13041,-25.02849],[-57.212785,-24.988646],[-57.216147,-24.901486],[-57.248929,-24.891525],[-57.196814,-24.826777],[-57.181684,-24.769501],[-57.122004,-24.752069],[-57.090063,-24.67736],[-57.126207,-24.641666],[-57.14554,-24.58273],[-57.13041,-24.50055],[-57.146381,-24.460706],[-57.170757,-24.298007],[-57.22035,-24.197566],[-57.163192,-24.117877],[-57.232958,-24.094634],[-57.223712,-24.050639],[-57.268261,-24.029887],[-57.284232,-23.953518],[-57.338868,-23.931106],[-57.295159,-23.872169],[-57.28171,-23.800781],[-57.299362,-23.757616],[-57.28087,-23.722752],[-57.32626,-23.682907],[-57.398548,-23.645553],[-57.450662,-23.573335],[-57.445619,-23.474554],[-57.350636,-23.504437],[-57.263218,-23.498626],[-57.207741,-23.478704],[-57.089223,-23.468743],[-57.016935,-23.44384],[-56.990877,-23.447991],[-56.877402,-23.422258],[-56.705088,-23.432219],[-56.605062,-23.452141],[-56.525209,-23.44384],[-56.473935,-23.420598],[-56.405009,-23.411466],[-56.30078,-23.340078],[-56.178899,-23.306875],[-56.084756,-23.324307],[-56.078873,-23.372452],[-56.042729,-23.423088],[-56.061221,-23.452141],[-56.144436,-23.514398],[-56.114176,-23.594917],[-56.091481,-23.614009],[-56.041888,-23.586616],[-56.034323,-23.546772],[-55.935978,-23.53017],[-55.933456,-23.599898],[-55.980527,-23.672116],[-55.981368,-23.768407],[-56.008266,-23.819873],[-56.05954,-23.848926],[-55.997338,-24.000003],[-56.007425,-24.029057],[-56.088119,-24.103765],[-56.125944,-24.116217],[-56.153682,-24.161042],[-56.157044,-24.262313],[-56.129306,-24.283896],[-56.115017,-24.352793],[-56.087278,-24.390148],[-56.04441,-24.40841],[-55.959513,-24.532094],[-55.903196,-24.649137],[-55.836792,-24.697283],[-55.814097,-24.745428],[-55.751055,-24.781952],[-55.868733,-24.811836],[-55.949427,-24.841719],[-55.98473,-24.873263],[-56.046091,-24.971214],[-56.13519,-24.892355],[-56.21084,-24.855831],[-56.214202,-24.794404],[-56.246984,-24.788593],[-56.298258,-24.858321],[-56.352894,-24.889864],[-56.380633,-24.931369],[-56.42182,-24.953782],[-56.494949,-25.021849]]]}},{"type":"Feature","properties":{"name":"Central","country_code":"py","country_es":"Paraguay"},"geometry":{"type":"Polygon","coordinates":[[[-57.454865,-25.11233],[-57.378374,-25.177907],[-57.318695,-25.255936],[-57.290956,-25.320683],[-57.232958,-25.397882],[-57.193452,-25.383771],[-57.161511,-25.425275],[-57.238001,-25.479231],[-57.322898,-25.602915],[-57.390142,-25.668493],[-57.426286,-25.738221],[-57.427967,-25.789687],[-57.405272,-25.858585],[-57.433851,-25.944084],[-57.503618,-26.011322],[-57.559094,-25.913371],[-57.590195,-25.900089],[-57.70367,-25.810439],[-57.774277,-25.807119],[-57.781842,-25.851114],[-57.819667,-25.850284],[-57.802015,-25.832021],[-57.821348,-25.778065],[-57.740655,-25.722449],[-57.775118,-25.701697],[-57.753263,-25.672643],[-57.679294,-25.64691],[-57.668367,-25.612877],[-57.622977,-25.615367],[-57.570022,-25.546469],[-57.557413,-25.460139],[-57.596919,-25.403693],[-57.549008,-25.358868],[-57.543964,-25.281669],[-57.583471,-25.234354],[-57.554051,-25.20115],[-57.523791,-25.109009],[-57.454865,-25.11233]]]}},{"type":"Feature","properties":{"name":"Misiones","country_code":"py","country_es":"Paraguay"},"geometry":{"type":"Polygon","coordinates":[[[-56.637843,-27.453196],[-56.771492,-27.507152],[-56.868997,-27.431613],[-56.9043,-27.418332],[-56.977429,-27.435764],[-57.076614,-27.483909],[-57.180003,-27.48723],[-57.310289,-27.429123],[-57.290956,-27.361885],[-57.202698,-27.133609],[-57.203539,-27.080483],[-57.421243,-27.044789],[-57.53724,-26.923596],[-57.619614,-26.818174],[-57.634745,-26.780819],[-57.706192,-26.413088],[-57.636426,-26.459573],[-57.607847,-26.507718],[-57.549008,-26.550883],[-57.475879,-26.564995],[-57.44646,-26.588237],[-57.340549,-26.623101],[-57.201017,-26.589068],[-57.177481,-26.531791],[-57.116961,-26.481985],[-57.090904,-26.43384],[-57.038789,-26.403956],[-57.003486,-26.406447],[-56.871518,-26.482815],[-56.819404,-26.490286],[-56.78326,-26.540922],[-56.754681,-26.556694],[-56.712653,-26.617291],[-56.654654,-26.656305],[-56.576483,-26.670417],[-56.57228,-26.722713],[-56.531933,-27.086294],[-56.543701,-27.13776],[-56.594134,-27.14274],[-56.655495,-27.189226],[-56.687436,-27.256463],[-56.688277,-27.293818],[-56.640365,-27.339473],[-56.637843,-27.453196]]]}},{"type":"Feature","properties":{"name":"Ñeembucú","country_code":"py","country_es":"Paraguay"},"geometry":{"type":"Polygon","coordinates":[[[-57.706192,-26.413088],[-57.634745,-26.780819],[-57.619614,-26.818174],[-57.53724,-26.923596],[-57.421243,-27.044789],[-57.203539,-27.080483],[-57.202698,-27.133609],[-57.290956,-27.361885],[-57.310289,-27.429123],[-57.38678,-27.40339],[-57.487647,-27.415841],[-57.535559,-27.40671],[-57.697786,-27.333662],[-58.022242,-27.259784],[-58.128992,-27.269745],[-58.238265,-27.257293],[-58.511446,-27.278046],[-58.603907,-27.31623],[-58.601386,-27.245672],[-58.65266,-27.198357],[-58.6535,-27.156022],[-58.616516,-27.123648],[-58.565242,-27.116177],[-58.556836,-27.055581],[-58.511446,-27.059731],[-58.466896,-26.975891],[-58.459331,-26.928576],[-58.329045,-26.883751],[-58.339972,-26.808212],[-58.288698,-26.811533],[-58.287858,-26.768368],[-58.248352,-26.757577],[-58.235743,-26.649664],[-58.178585,-26.650494],[-58.192034,-26.61231],[-58.165136,-26.592388],[-58.213889,-26.544242],[-58.202961,-26.471194],[-58.18531,-26.451272],[-58.206324,-26.402296],[-58.172701,-26.34917],[-58.17018,-26.270311],[-58.106297,-26.239598],[-58.12479,-26.202244],[-58.086124,-26.126705],[-57.987779,-26.088521],[-57.872622,-26.009662],[-57.859173,-25.981438],[-57.906245,-25.968987],[-57.852449,-25.897599],[-57.875985,-25.876016],[-57.819667,-25.850284],[-57.781842,-25.851114],[-57.774277,-25.807119],[-57.70367,-25.810439],[-57.590195,-25.900089],[-57.559094,-25.913371],[-57.503618,-26.011322],[-57.475879,-26.157418],[-57.480922,-26.17485],[-57.614571,-26.293554],[-57.665005,-26.376563],[-57.706192,-26.413088]]]}},{"type":"Feature","properties":{"name":"Guairá","country_code":"py","country_es":"Paraguay"},"geometry":{"type":"Polygon","coordinates":[[[-56.586569,-26.175681],[-56.653814,-26.065278],[-56.669784,-25.9914],[-56.604221,-25.960686],[-56.599178,-25.935783],[-56.654654,-25.837832],[-56.670625,-25.742371],[-56.647089,-25.710828],[-56.560512,-25.669323],[-56.5126,-25.628648],[-56.359619,-25.577183],[-56.093162,-25.587974],[-56.046091,-25.610386],[-55.938499,-25.607066],[-55.886385,-25.626158],[-55.827546,-25.676794],[-55.771228,-25.674304],[-55.650188,-25.635289],[-55.624971,-25.650231],[-55.669521,-25.72992],[-55.719114,-25.73158],[-55.770388,-25.784706],[-55.90908,-25.846963],[-56.033482,-25.894279],[-56.073829,-26.003851],[-56.155363,-26.043696],[-56.253709,-25.9914],[-56.367184,-26.013812],[-56.384835,-26.061128],[-56.48234,-26.088521],[-56.506716,-26.165719],[-56.586569,-26.175681]]]}},{"type":"Feature","properties":{"name":"Paraguarí","country_code":"py","country_es":"Paraguay"},"geometry":{"type":"Polygon","coordinates":[[[-56.647089,-25.710828],[-56.670625,-25.742371],[-56.654654,-25.837832],[-56.599178,-25.935783],[-56.604221,-25.960686],[-56.669784,-25.9914],[-56.653814,-26.065278],[-56.586569,-26.175681],[-56.599178,-26.217185],[-56.641206,-26.264501],[-56.662219,-26.354151],[-56.728624,-26.485306],[-56.78326,-26.540922],[-56.819404,-26.490286],[-56.871518,-26.482815],[-57.003486,-26.406447],[-57.038789,-26.403956],[-57.090904,-26.43384],[-57.116961,-26.481985],[-57.177481,-26.531791],[-57.201017,-26.589068],[-57.340549,-26.623101],[-57.44646,-26.588237],[-57.475879,-26.564995],[-57.549008,-26.550883],[-57.607847,-26.507718],[-57.636426,-26.459573],[-57.706192,-26.413088],[-57.665005,-26.376563],[-57.614571,-26.293554],[-57.480922,-26.17485],[-57.475879,-26.157418],[-57.503618,-26.011322],[-57.433851,-25.944084],[-57.405272,-25.858585],[-57.427967,-25.789687],[-57.426286,-25.738221],[-57.390142,-25.668493],[-57.322898,-25.602915],[-57.238001,-25.479231],[-57.161511,-25.425275],[-57.112758,-25.508285],[-57.088382,-25.526547],[-57.000124,-25.540658],[-56.902619,-25.538998],[-56.877402,-25.607896],[-56.905981,-25.64027],[-56.847142,-25.660192],[-56.806795,-25.636949],[-56.746275,-25.653551],[-56.69332,-25.699206],[-56.647089,-25.710828]]]}},{"type":"Feature","properties":{"name":"Amambay","country_code":"py","country_es":"Paraguay"},"geometry":{"type":"Polygon","coordinates":[[[-56.30078,-23.340078],[-56.282287,-23.282802],[-56.190667,-23.208923],[-56.174696,-23.122594],[-56.130147,-23.105992],[-56.128465,-23.052036],[-56.27136,-22.706716],[-56.31591,-22.691775],[-56.372227,-22.721658],[-56.405009,-22.763163],[-56.500832,-22.798027],[-56.532774,-22.870245],[-56.594975,-22.886847],[-56.630278,-22.864434],[-56.689958,-22.879376],[-56.652133,-22.817949],[-56.673987,-22.73992],[-56.704247,-22.708377],[-56.721899,-22.643629],[-56.719377,-22.528246],[-56.709291,-22.479271],[-56.657176,-22.436936],[-56.615148,-22.380489],[-56.582367,-22.362227],[-56.622713,-22.346455],[-56.834534,-22.29831],[-56.842939,-22.289179],[-56.808476,-22.247674],[-56.733667,-22.243524],[-56.715175,-22.215301],[-56.664741,-22.260126],[-56.654654,-22.237713],[-56.584888,-22.191228],[-56.51176,-22.091617],[-56.42182,-22.074185],[-56.397444,-22.086636],[-56.371387,-22.147233],[-56.31675,-22.20783],[-56.196551,-22.279218],[-56.025077,-22.286689],[-55.998179,-22.276728],[-55.95447,-22.3008],[-55.874617,-22.317402],[-55.861168,-22.290009],[-55.810735,-22.353096],[-55.760301,-22.392111],[-55.740968,-22.537377],[-55.697259,-22.595484],[-55.631696,-22.626197],[-55.618247,-22.725809],[-55.659434,-22.818779],[-55.634218,-22.932502],[-55.63758,-23.00057],[-55.600595,-23.044565],[-55.598914,-23.117613],[-55.561089,-23.145836],[-55.535032,-23.228846],[-55.558567,-23.291103],[-55.556046,-23.330117],[-55.514018,-23.379093],[-55.542597,-23.466253],[-55.533351,-23.531],[-55.554365,-23.552582],[-55.579581,-23.635592],[-55.639261,-23.677927],[-55.720795,-23.701169],[-55.867052,-23.79331],[-55.906558,-23.837305],[-56.032642,-23.862208],[-56.05954,-23.848926],[-56.008266,-23.819873],[-55.981368,-23.768407],[-55.980527,-23.672116],[-55.933456,-23.599898],[-55.935978,-23.53017],[-56.034323,-23.546772],[-56.041888,-23.586616],[-56.091481,-23.614009],[-56.114176,-23.594917],[-56.144436,-23.514398],[-56.061221,-23.452141],[-56.042729,-23.423088],[-56.078873,-23.372452],[-56.084756,-23.324307],[-56.178899,-23.306875],[-56.30078,-23.340078]]]}},{"type":"Feature","properties":{"name":"Alto Paraná","country_code":"py","country_es":"Paraguay"},"geometry":{"type":"Polygon","coordinates":[[[-54.517117,-24.708904],[-54.62807,-24.711394],[-54.464162,-24.75954],[-54.442307,-24.784442],[-54.46164,-24.823457],[-54.464162,-24.883224],[-54.558304,-24.874093],[-54.675141,-24.888204],[-54.746589,-24.85417],[-54.848296,-24.891525],[-54.760038,-24.889034],[-54.686069,-24.904806],[-54.603694,-24.905636],[-54.500306,-24.927219],[-54.489378,-24.958762],[-54.517957,-25.009398],[-54.510392,-25.069995],[-54.59781,-25.035961],[-54.660011,-25.035961],[-54.694474,-25.015209],[-54.790298,-25.086597],[-54.723053,-25.077466],[-54.691953,-25.106519],[-54.618824,-25.088257],[-54.575115,-25.095728],[-54.599491,-25.134742],[-54.529725,-25.131422],[-54.483494,-25.150514],[-54.541493,-25.211941],[-54.541493,-25.250125],[-54.576796,-25.281669],[-54.665895,-25.276688],[-54.609578,-25.312382],[-54.638997,-25.37547],[-54.645722,-25.424445],[-54.609578,-25.431916],[-54.591086,-25.524887],[-54.602013,-25.592954],[-54.583521,-25.64525],[-54.633114,-25.651891],[-54.6432,-25.688415],[-54.617143,-25.773085],[-54.588564,-25.811269],[-54.615462,-25.883487],[-54.606216,-25.946575],[-54.662533,-25.979778],[-54.6432,-26.0852],[-54.664214,-26.149948],[-54.638997,-26.197263],[-54.665055,-26.238768],[-54.735662,-26.232127],[-54.743227,-26.197263],[-54.82392,-26.1707],[-54.864267,-26.192282],[-54.907135,-26.148287],[-54.945801,-26.200583],[-55.005481,-26.212205],[-55.027335,-26.236277],[-55.067682,-26.216355],[-55.162665,-26.194773],[-55.236634,-26.198093],[-55.257648,-26.179831],[-55.29127,-26.08354],[-55.226547,-26.031244],[-55.304719,-25.99057],[-55.429122,-26.010492],[-55.499728,-25.983929],[-55.513177,-25.963176],[-55.513177,-25.885148],[-55.526626,-25.861075],[-55.500569,-25.793007],[-55.465266,-25.756483],[-55.445092,-25.675964],[-55.400543,-25.622838],[-55.429962,-25.55062],[-55.488801,-25.5556],[-55.256807,-25.261747],[-55.214779,-25.231033],[-55.171911,-25.266727],[-55.051711,-25.284989],[-55.024813,-25.339776],[-54.950004,-25.338115],[-54.973539,-25.251786],[-55.009683,-25.236014],[-55.008002,-25.192019],[-55.098782,-25.129762],[-55.193765,-25.046752],[-55.289589,-25.02517],[-55.327414,-24.966233],[-55.333298,-24.85085],[-55.316487,-24.829268],[-55.329095,-24.768671],[-55.298835,-24.717205],[-55.285386,-24.649137],[-55.292111,-24.58356],[-55.227388,-24.50221],[-55.116434,-24.467346],[-55.09542,-24.473157],[-55.093739,-24.532924],[-55.051711,-24.553676],[-54.992032,-24.539565],[-54.88444,-24.58273],[-54.885281,-24.620084],[-54.812152,-24.633365],[-54.784414,-24.668229],[-54.745748,-24.635025],[-54.668417,-24.639176],[-54.626389,-24.688982],[-54.517117,-24.708904]]]}},{"type":"Feature","properties":{"name":"Caaguazú","country_code":"py","country_es":"Paraguay"},"geometry":{"type":"Polygon","coordinates":[[[-55.624971,-25.650231],[-55.650188,-25.635289],[-55.771228,-25.674304],[-55.827546,-25.676794],[-55.886385,-25.626158],[-55.938499,-25.607066],[-56.046091,-25.610386],[-56.093162,-25.587974],[-56.359619,-25.577183],[-56.5126,-25.628648],[-56.560512,-25.669323],[-56.647089,-25.710828],[-56.69332,-25.699206],[-56.746275,-25.653551],[-56.808476,-25.534848],[-56.809317,-25.505794],[-56.563874,-25.348907],[-56.543701,-25.28748],[-56.494949,-25.021849],[-56.42182,-24.953782],[-56.380633,-24.931369],[-56.352894,-24.889864],[-56.298258,-24.858321],[-56.246984,-24.788593],[-56.214202,-24.794404],[-56.21084,-24.855831],[-56.13519,-24.892355],[-56.046091,-24.971214],[-55.98473,-24.873263],[-55.949427,-24.841719],[-55.868733,-24.811836],[-55.751055,-24.781952],[-55.682129,-24.698113],[-55.632536,-24.664079],[-55.522423,-24.555336],[-55.489642,-24.542885],[-55.227388,-24.50221],[-55.292111,-24.58356],[-55.285386,-24.649137],[-55.298835,-24.717205],[-55.329095,-24.768671],[-55.316487,-24.829268],[-55.333298,-24.85085],[-55.327414,-24.966233],[-55.289589,-25.02517],[-55.193765,-25.046752],[-55.098782,-25.129762],[-55.008002,-25.192019],[-55.009683,-25.236014],[-54.973539,-25.251786],[-54.950004,-25.338115],[-55.024813,-25.339776],[-55.051711,-25.284989],[-55.171911,-25.266727],[-55.214779,-25.231033],[-55.256807,-25.261747],[-55.488801,-25.5556],[-55.508975,-25.603746],[-55.550162,-25.64027],[-55.624971,-25.650231]]]}},{"type":"Feature","properties":{"name":"Caazapá","country_code":"py","country_es":"Paraguay"},"geometry":{"type":"Polygon","coordinates":[[[-56.57228,-26.722713],[-56.576483,-26.670417],[-56.654654,-26.656305],[-56.712653,-26.617291],[-56.754681,-26.556694],[-56.78326,-26.540922],[-56.728624,-26.485306],[-56.662219,-26.354151],[-56.641206,-26.264501],[-56.599178,-26.217185],[-56.586569,-26.175681],[-56.506716,-26.165719],[-56.48234,-26.088521],[-56.384835,-26.061128],[-56.367184,-26.013812],[-56.253709,-25.9914],[-56.155363,-26.043696],[-56.073829,-26.003851],[-56.033482,-25.894279],[-55.90908,-25.846963],[-55.770388,-25.784706],[-55.719114,-25.73158],[-55.669521,-25.72992],[-55.624971,-25.650231],[-55.550162,-25.64027],[-55.508975,-25.603746],[-55.488801,-25.5556],[-55.429962,-25.55062],[-55.400543,-25.622838],[-55.445092,-25.675964],[-55.465266,-25.756483],[-55.500569,-25.793007],[-55.526626,-25.861075],[-55.513177,-25.885148],[-55.513177,-25.963176],[-55.499728,-25.983929],[-55.429122,-26.010492],[-55.304719,-25.99057],[-55.226547,-26.031244],[-55.29127,-26.08354],[-55.318168,-26.08188],[-55.323211,-26.164889],[-55.38121,-26.227146],[-55.466106,-26.286913],[-55.551843,-26.320117],[-55.63842,-26.323437],[-55.739287,-26.356641],[-55.75862,-26.388185],[-55.86453,-26.472024],[-55.98389,-26.497757],[-56.035164,-26.572466],[-56.118379,-26.671247],[-56.209159,-26.693659],[-56.295736,-26.735164],[-56.411733,-26.775839],[-56.49663,-26.737654],[-56.57228,-26.722713]]]}},{"type":"Feature","properties":{"name":"Canindeyú","country_code":"py","country_es":"Paraguay"},"geometry":{"type":"Polygon","coordinates":[[[-54.517117,-24.708904],[-54.626389,-24.688982],[-54.668417,-24.639176],[-54.745748,-24.635025],[-54.784414,-24.668229],[-54.812152,-24.633365],[-54.885281,-24.620084],[-54.88444,-24.58273],[-54.992032,-24.539565],[-55.051711,-24.553676],[-55.093739,-24.532924],[-55.09542,-24.473157],[-55.116434,-24.467346],[-55.227388,-24.50221],[-55.489642,-24.542885],[-55.522423,-24.555336],[-55.632536,-24.664079],[-55.682129,-24.698113],[-55.751055,-24.781952],[-55.814097,-24.745428],[-55.836792,-24.697283],[-55.903196,-24.649137],[-55.959513,-24.532094],[-56.04441,-24.40841],[-56.087278,-24.390148],[-56.115017,-24.352793],[-56.129306,-24.283896],[-56.157044,-24.262313],[-56.153682,-24.161042],[-56.125944,-24.116217],[-56.088119,-24.103765],[-56.007425,-24.029057],[-55.997338,-24.000003],[-56.05954,-23.848926],[-56.032642,-23.862208],[-55.906558,-23.837305],[-55.867052,-23.79331],[-55.720795,-23.701169],[-55.639261,-23.677927],[-55.579581,-23.635592],[-55.554365,-23.552582],[-55.533351,-23.531],[-55.529988,-23.603218],[-55.466947,-23.672946],[-55.445092,-23.735203],[-55.429962,-23.928615],[-55.398021,-23.976761],[-55.20049,-24.019096],[-55.105507,-23.988382],[-55.042465,-23.989212],[-54.943279,-23.96929],[-54.892005,-23.920314],[-54.827282,-23.887111],[-54.696155,-23.844776],[-54.638997,-23.804931],[-54.6121,-23.810742],[-54.422974,-23.914504],[-54.367497,-23.985062],[-54.245617,-24.050639],[-54.327151,-24.084673],[-54.361614,-24.132818],[-54.352367,-24.199226],[-54.388511,-24.229939],[-54.334716,-24.266464],[-54.293528,-24.345323],[-54.345643,-24.434973],[-54.437264,-24.404259],[-54.393555,-24.440783],[-54.373381,-24.484778],[-54.376744,-24.537074],[-54.475089,-24.554506],[-54.393555,-24.575259],[-54.369179,-24.618424],[-54.391033,-24.694792],[-54.441466,-24.717205],[-54.517117,-24.708904]]]}},{"type":"Feature","properties":{"name":"Itapúa","country_code":"py","country_es":"Paraguay"},"geometry":{"type":"Polygon","coordinates":[[[-55.29127,-26.08354],[-55.257648,-26.179831],[-55.236634,-26.198093],[-55.162665,-26.194773],[-55.067682,-26.216355],[-55.027335,-26.236277],[-55.005481,-26.212205],[-54.945801,-26.200583],[-54.907135,-26.148287],[-54.864267,-26.192282],[-54.82392,-26.1707],[-54.743227,-26.197263],[-54.735662,-26.232127],[-54.665055,-26.238768],[-54.663374,-26.308496],[-54.706242,-26.442141],[-54.789457,-26.528471],[-54.780211,-26.574956],[-54.79366,-26.644684],[-54.903773,-26.660456],[-54.930671,-26.694489],[-54.975221,-26.78829],[-55.060957,-26.804892],[-55.12568,-26.862999],[-55.118956,-26.919445],[-55.138289,-26.953479],[-55.20133,-26.955139],[-55.281183,-26.933557],[-55.329095,-26.958459],[-55.39634,-26.969251],[-55.430803,-26.996644],[-55.461903,-27.097915],[-55.533351,-27.099576],[-55.555205,-27.153532],[-55.598074,-27.167643],[-55.568654,-27.246502],[-55.591349,-27.328682],[-55.65355,-27.360225],[-55.755258,-27.443235],[-55.862849,-27.390939],[-55.912442,-27.327851],[-55.98473,-27.332832],[-56.125103,-27.298798],[-56.205797,-27.361885],[-56.279766,-27.389278],[-56.297417,-27.480589],[-56.368024,-27.5802],[-56.399125,-27.586841],[-56.461326,-27.553637],[-56.546223,-27.455686],[-56.637843,-27.453196],[-56.640365,-27.339473],[-56.688277,-27.293818],[-56.687436,-27.256463],[-56.655495,-27.189226],[-56.594134,-27.14274],[-56.543701,-27.13776],[-56.531933,-27.086294],[-56.57228,-26.722713],[-56.49663,-26.737654],[-56.411733,-26.775839],[-56.295736,-26.735164],[-56.209159,-26.693659],[-56.118379,-26.671247],[-56.035164,-26.572466],[-55.98389,-26.497757],[-55.86453,-26.472024],[-55.75862,-26.388185],[-55.739287,-26.356641],[-55.63842,-26.323437],[-55.551843,-26.320117],[-55.466106,-26.286913],[-55.38121,-26.227146],[-55.323211,-26.164889],[-55.318168,-26.08188],[-55.29127,-26.08354]]]}},{"type":"Feature","properties":{"name":"Asunción","country_code":"py","country_es":"Paraguay"},"geometry":{"type":"Polygon","coordinates":[[[-57.596919,-25.403693],[-57.640628,-25.372979],[-57.671729,-25.28997],[-57.623817,-25.248465],[-57.583471,-25.234354],[-57.543964,-25.281669],[-57.549008,-25.358868],[-57.596919,-25.403693]]]}}]}