{"type":"FeatureCollection","features":[{"type":"Feature","id":"SR.NI","properties":{"name":"Nickerie","country_code":"sr","country_es":"Surinam","hc_key":"sr-ni"},"geometry":{"type":"MultiPolygon","coordinates":[[[[141.1,903.9],[139.3,903.5],[134.2,915.6],[141.4,932.7],[141.8,926.4],[138.7,914.8],[141.1,903.9]]],[[[118.6,790.2],[111.7,793.0],[109.0,789.3],[113.0,783.6],[106.1,781.1],[104.3,784.6],[103.9,802.7],[92.8,802.5],[94.8,810.6],[110.1,827.4],[112.3,843.1],[120.7,854.4],[132.5,860.3],[136.7,867.2],[143.0,895.2],[144.3,919.9],[146.7,935.0],[152.9,952.7],[162.3,969.2],[170.4,971.7],[181.0,980.2],[190.8,985.1],[214.1,979.4],[268.0,976.7],[282.5,969.0],[283.0,923.2],[283.7,916.6],[291.6,901.0],[292.7,892.3],[299.3,879.1],[308.8,867.6],[307.2,858.6],[302.4,861.0],[291.5,856.8],[292.1,852.6],[302.7,839.1],[295.9,821.1],[305.8,819.0],[308.2,825.9],[314.7,823.3],[319.3,813.5],[313.5,804.5],[251.0,808.8],[146.5,792.9],[118.6,790.2]]]]}},{"type":"Feature","id":"SR.MA","properties":{"name":"Marowijne","country_code":"sr","country_es":"Surinam","hc_key":"sr-ma"},"geometry":{"type":"Polygon","coordinates":[[[776.1,975.4],[836.7,966.7],[893.7,954.9],[934.1,942.7],[949.9,941.4],[963.1,916.3],[951.5,896.5],[946.6,866.0],[940.6,849.8],[928.9,837.6],[926.3,830.2],[910.3,807.1],[889.8,792.4],[876.5,777.6],[870.2,784.0],[854.8,790.3],[836.8,802.0],[789.4,819.6],[800.4,837.1],[801.6,849.3],[796.3,867.5],[776.4,899.5],[767.9,921.4],[768.0,936.2],[774.9,945.9],[773.0,966.6],[776.1,975.4]]]}},{"type":"Feature","id":"SR.PR","properties":{"name":"Para","country_code":"sr","country_es":"Surinam","hc_key":"sr-pr"},"geometry":{"type":"Polygon","coordinates":[[[796.3,867.5],[801.6,849.3],[800.4,837.1],[789.4,819.6],[785.6,820.8],[767.8,787.7],[763.1,777.0],[750.9,764.5],[745.4,744.6],[742.8,729.6],[738.4,717.3],[732.1,719.0],[733.1,735.5],[726.5,747.2],[726.4,760.5],[720.4,768.0],[704.3,779.6],[702.0,785.0],[701.1,800.7],[692.9,805.9],[615.2,805.2],[608.4,803.9],[605.3,797.6],[608.9,792.1],[608.2,786.4],[598.9,771.2],[590.3,762.5],[577.7,753.2],[568.7,743.0],[562.4,740.3],[556.6,729.9],[534.8,718.8],[523.5,716.4],[517.9,719.6],[512.7,738.2],[503.6,744.8],[487.0,750.1],[470.2,749.3],[457.5,745.6],[439.7,748.8],[439.4,762.2],[447.3,821.0],[461.0,862.3],[468.1,852.3],[461.9,840.2],[463.5,829.2],[467.7,827.3],[479.4,830.4],[492.8,827.5],[571.9,833.6],[578.7,836.3],[583.6,832.8],[587.8,837.7],[595.9,840.6],[600.3,853.9],[594.0,862.0],[601.4,878.4],[598.2,883.0],[608.7,889.1],[607.9,896.8],[633.1,893.9],[641.8,894.1],[669.6,899.5],[689.3,895.3],[680.0,890.8],[676.4,881.9],[685.3,883.7],[687.0,879.1],[686.7,861.9],[696.8,860.2],[796.3,867.5]]]}},{"type":"Feature","id":"SR.BR","properties":{"name":"Brokopondo","country_code":"sr","country_es":"Surinam","hc_key":"sr-br"},"geometry":{"type":"Polygon","coordinates":[[[568.7,743.0],[577.7,753.2],[590.3,762.5],[598.9,771.2],[608.2,786.4],[608.9,792.1],[605.3,797.6],[608.4,803.9],[615.2,805.2],[692.9,805.9],[701.1,800.7],[702.0,785.0],[704.3,779.6],[720.4,768.0],[726.4,760.5],[726.5,747.2],[733.1,735.5],[732.1,719.0],[738.4,717.3],[755.9,710.5],[763.0,704.2],[767.4,693.8],[761.4,680.3],[760.4,670.9],[754.3,656.2],[752.2,644.7],[747.1,631.1],[747.5,608.2],[743.6,596.5],[730.0,583.0],[726.1,574.0],[727.7,562.0],[732.4,548.3],[732.4,537.7],[726.6,522.1],[719.8,510.7],[715.5,499.3],[711.1,496.0],[704.2,504.4],[696.9,507.3],[685.6,493.5],[674.5,491.6],[665.7,487.9],[651.9,475.3],[634.9,466.6],[624.3,467.4],[618.8,480.7],[613.6,572.1],[611.2,579.8],[604.1,591.6],[606.0,641.6],[601.7,684.1],[595.1,701.8],[568.7,743.0]]]}},{"type":"Feature","id":"SR.SI","properties":{"name":"Sipaliwini","country_code":"sr","country_es":"Surinam","hc_key":"sr-si"},"geometry":{"type":"Polygon","coordinates":[[[568.7,743.0],[595.1,701.8],[601.7,684.1],[606.0,641.6],[604.1,591.6],[611.2,579.8],[613.6,572.1],[618.8,480.7],[624.3,467.4],[634.9,466.6],[651.9,475.3],[665.7,487.9],[674.5,491.6],[685.6,493.5],[696.9,507.3],[704.2,504.4],[711.1,496.0],[715.5,499.3],[719.8,510.7],[726.6,522.1],[732.4,537.7],[732.4,548.3],[727.7,562.0],[726.1,574.0],[730.0,583.0],[743.6,596.5],[747.5,608.2],[747.1,631.1],[752.2,644.7],[754.3,656.2],[760.4,670.9],[761.4,680.3],[767.4,693.8],[763.0,704.2],[755.9,710.5],[738.4,717.3],[742.8,729.6],[745.4,744.6],[750.9,764.5],[763.1,777.0],[767.8,787.7],[785.6,820.8],[789.4,819.6],[836.8,802.0],[854.8,790.3],[870.2,784.0],[876.5,777.6],[870.5,763.1],[848.0,736.3],[840.9,720.2],[842.7,706.0],[834.6,699.7],[835.5,658.8],[846.8,647.0],[846.3,631.2],[849.5,622.7],[850.0,609.0],[842.9,588.5],[847.5,560.5],[855.5,544.0],[858.0,526.2],[853.5,516.9],[860.9,506.8],[872.3,502.3],[872.6,493.1],[868.0,480.1],[870.9,469.3],[879.8,461.3],[884.3,449.8],[891.4,442.7],[897.9,430.7],[902.8,428.1],[911.9,414.7],[928.1,408.0],[936.2,397.2],[941.5,378.8],[947.8,368.0],[956.2,369.8],[963.8,361.9],[959.3,341.1],[960.2,321.5],[955.9,311.1],[946.5,301.3],[940.1,283.6],[931.2,277.3],[911.4,249.4],[906.0,236.2],[914.9,233.4],[914.9,215.9],[917.0,206.0],[912.8,202.6],[918.5,195.3],[911.7,169.6],[916.8,165.0],[911.9,161.2],[905.7,145.1],[886.8,119.5],[877.6,101.0],[867.5,75.4],[850.8,56.6],[832.5,51.7],[825.5,34.0],[817.4,31.2],[804.9,33.2],[800.7,28.1],[790.7,25.6],[777.5,27.7],[774.4,41.0],[779.7,48.2],[777.7,59.1],[767.3,64.5],[741.5,55.9],[731.5,59.5],[705.8,84.3],[705.5,90.3],[712.3,98.9],[706.2,100.9],[695.5,96.7],[680.3,84.9],[670.8,80.4],[664.5,81.9],[664.2,89.3],[655.3,88.5],[634.4,72.6],[621.1,78.2],[607.6,71.8],[603.3,58.2],[595.9,55.0],[566.7,56.6],[541.4,56.0],[531.7,51.5],[511.1,46.3],[503.2,49.6],[495.7,58.9],[472.9,65.6],[458.7,77.2],[446.7,81.0],[441.9,78.5],[437.1,62.9],[435.6,46.9],[422.9,32.0],[415.2,34.7],[408.6,29.8],[401.5,14.7],[403.8,7.8],[420.0,6.0],[425.0,1.5],[430.9,-14.2],[440.2,-21.0],[461.2,-46.9],[459.0,-55.0],[460.8,-76.9],[459.4,-86.2],[451.1,-94.8],[433.9,-99.9],[417.5,-96.5],[401.1,-90.0],[384.3,-85.6],[371.7,-86.3],[353.2,-77.8],[343.2,-75.1],[330.6,-77.5],[313.2,-71.8],[310.8,-66.3],[287.6,-52.3],[262.0,-51.8],[254.9,-48.9],[229.8,-13.5],[223.3,11.4],[220.0,16.4],[208.1,22.3],[205.4,37.4],[196.0,45.6],[196.2,56.7],[188.5,69.1],[188.5,79.7],[179.5,74.5],[178.7,87.6],[172.2,95.2],[170.9,111.8],[163.4,110.3],[161.8,120.5],[151.2,135.7],[154.6,144.4],[142.3,143.7],[143.2,159.7],[132.5,156.2],[124.2,165.9],[120.7,179.4],[130.1,188.8],[128.9,192.7],[116.9,195.5],[119.0,208.7],[124.4,210.5],[120.1,223.5],[113.3,232.4],[117.3,240.0],[106.4,238.1],[103.6,253.1],[105.0,267.6],[101.9,275.0],[104.2,292.5],[97.8,305.8],[89.5,299.4],[82.5,298.2],[67.3,303.9],[65.8,296.9],[52.4,293.8],[38.5,298.8],[30.7,294.2],[6.5,306.0],[5.9,325.3],[10.2,337.6],[-6.3,349.0],[-11.1,361.1],[-38.2,375.5],[-42.6,385.9],[-44.4,402.6],[-49.9,414.5],[-67.3,438.7],[-84.4,452.3],[-90.7,460.2],[-96.6,491.5],[-99.9,502.7],[-95.8,513.6],[-73.0,536.6],[-67.8,552.7],[-69.7,569.8],[-61.6,580.4],[-59.7,589.0],[-50.4,607.9],[-46.2,621.1],[-39.5,632.3],[-41.2,641.8],[-48.2,650.8],[-51.7,661.5],[-62.3,670.1],[-60.4,678.9],[-42.6,703.0],[-37.4,705.6],[-29.1,703.0],[-19.7,706.2],[-8.7,720.3],[0.0,724.5],[9.8,725.1],[20.0,720.6],[31.5,724.6],[44.2,726.0],[51.3,720.5],[79.6,724.2],[96.9,729.4],[105.9,729.4],[96.4,737.9],[96.4,747.2],[103.8,767.0],[114.7,767.4],[118.3,759.5],[126.4,763.5],[130.9,770.1],[118.6,790.2],[146.5,792.9],[251.0,808.8],[313.5,804.5],[337.9,805.4],[355.5,819.0],[364.8,822.9],[379.8,824.0],[405.5,822.6],[423.8,824.7],[428.3,833.5],[447.9,846.2],[446.6,854.3],[450.4,858.9],[461.0,862.3],[447.3,821.0],[439.4,762.2],[439.7,748.8],[457.5,745.6],[470.2,749.3],[487.0,750.1],[503.6,744.8],[512.7,738.2],[517.9,719.6],[523.5,716.4],[534.8,718.8],[556.6,729.9],[562.4,740.3],[568.7,743.0]]]}},{"type":"Feature","id":"SR.CM","properties":{"name":"Commewijne","country_code":"sr","country_es":"Surinam","hc_key":"sr-cm"},"geometry":{"type":"Polygon","coordinates":[[[796.3,867.5],[696.8,860.2],[686.7,861.9],[687.0,879.1],[685.3,883.7],[676.4,881.9],[680.0,890.8],[689.3,895.3],[690.1,901.4],[674.6,906.9],[666.0,914.6],[662.1,921.1],[658.6,930.2],[666.0,935.4],[673.2,937.8],[677.2,951.4],[682.9,951.4],[691.5,945.4],[704.3,946.9],[710.1,943.4],[717.1,944.3],[725.4,949.5],[735.0,944.4],[730.1,950.3],[722.1,951.7],[710.8,947.5],[703.2,950.8],[695.1,948.6],[687.1,953.8],[672.0,958.1],[662.2,963.6],[657.8,970.9],[661.8,975.1],[677.2,979.4],[695.8,980.1],[758.2,978.1],[776.1,975.4],[773.0,966.6],[774.9,945.9],[768.0,936.2],[767.9,921.4],[776.4,899.5],[796.3,867.5]]]}},{"type":"Feature","id":"SR.CR","properties":{"name":"Coronie","country_code":"sr","country_es":"Surinam","hc_key":"sr-cr"},"geometry":{"type":"Polygon","coordinates":[[[461.0,862.3],[450.4,858.9],[446.6,854.3],[447.9,846.2],[428.3,833.5],[423.8,824.7],[405.5,822.6],[379.8,824.0],[364.8,822.9],[355.5,819.0],[337.9,805.4],[313.5,804.5],[319.3,813.5],[314.7,823.3],[308.2,825.9],[305.8,819.0],[295.9,821.1],[302.7,839.1],[292.1,852.6],[291.5,856.8],[302.4,861.0],[307.2,858.6],[308.8,867.6],[299.3,879.1],[292.7,892.3],[291.6,901.0],[283.7,916.6],[283.0,923.2],[282.5,969.0],[302.5,965.4],[347.2,954.5],[360.5,953.9],[389.6,946.1],[407.1,942.3],[439.7,932.6],[456.1,931.0],[466.0,920.2],[466.1,897.8],[466.1,897.8],[462.0,892.8],[451.0,891.1],[446.1,886.0],[449.7,877.6],[459.5,867.2],[461.0,862.3]]]}},{"type":"Feature","id":"SR.PM","properties":{"name":"Paramaribo","country_code":"sr","country_es":"Surinam","hc_key":"sr-pm"},"geometry":{"type":"Polygon","coordinates":[[[639.9,942.0],[639.7,956.4],[650.4,955.1],[661.0,957.9],[670.6,950.9],[672.6,947.1],[665.7,935.2],[658.6,930.2],[662.1,921.1],[650.9,924.7],[644.6,929.6],[639.9,942.0]]]}},{"type":"Feature","id":"SR.SA","properties":{"name":"Saramacca","country_code":"sr","country_es":"Surinam","hc_key":"sr-sa"},"geometry":{"type":"Polygon","coordinates":[[[607.9,896.8],[608.7,889.1],[598.2,883.0],[601.4,878.4],[594.0,862.0],[600.3,853.9],[595.9,840.6],[587.8,837.7],[583.6,832.8],[578.7,836.3],[571.9,833.6],[492.8,827.5],[479.4,830.4],[467.7,827.3],[463.5,829.2],[461.9,840.2],[468.1,852.3],[461.0,862.3],[459.5,867.2],[449.7,877.6],[446.1,886.0],[451.0,891.1],[462.0,892.8],[466.1,897.8],[469.8,905.9],[468.7,919.3],[461.4,935.5],[465.5,940.7],[453.0,945.8],[453.3,954.9],[459.3,963.0],[469.1,972.1],[479.9,975.5],[533.7,978.1],[596.7,974.9],[612.1,972.1],[619.4,967.0],[633.6,960.4],[616.7,924.7],[607.2,915.4],[606.3,906.2],[607.9,896.8]]]}},{"type":"Feature","id":"SR.WA","properties":{"name":"Wanica","country_code":"sr","country_es":"Surinam","hc_key":"sr-wa"},"geometry":{"type":"Polygon","coordinates":[[[662.1,921.1],[666.0,914.6],[674.6,906.9],[690.1,901.4],[689.3,895.3],[669.6,899.5],[641.8,894.1],[633.1,893.9],[607.9,896.8],[606.3,906.2],[607.2,915.4],[616.7,924.7],[633.6,960.4],[636.3,958.2],[639.7,956.4],[639.9,942.0],[644.6,929.6],[650.9,924.7],[662.1,921.1]]]}}]}