{"type":"FeatureCollection","features":[{"type":"Feature","properties":{"name":"La Unión","country_code":"sv","country_es":"El Salvador"},"geometry":{"type":"MultiPolygon","coordinates":[[[[-87.696825,13.177978],[-87.693193,13.16794],[-87.701668,13.163306],[-87.714501,13.16794],[-87.722976,13.164079],[-87.722976,13.17476],[-87.728303,13.185828],[-87.727335,13.211053],[-87.719828,13.216329],[-87.706027,13.211696],[-87.697552,13.193293],[-87.696825,13.177978]]],[[[-87.757359,13.220576],[-87.763897,13.214399],[-87.776973,13.225724],[-87.78012,13.241682],[-87.774309,13.247345],[-87.757844,13.243613],[-87.751548,13.228941],[-87.757359,13.220576]]],[[[-88.091508,13.172701],[-88.085938,13.251077],[-88.081822,13.26858],[-88.062935,13.25674],[-88.045986,13.252493],[-88.038964,13.256225],[-88.025889,13.297793],[-88.027099,13.314009],[-88.014266,13.386079],[-88.02831,13.412719],[-88.031216,13.430479],[-88.0317,13.45596],[-88.029279,13.466513],[-88.017414,13.474493],[-88.012813,13.485689],[-88.016687,13.500103],[-88.017414,13.530218],[-88.014993,13.54283],[-88.008455,13.551324],[-87.977461,13.583755],[-87.970439,13.594694],[-87.968502,13.613484],[-87.945742,13.671011],[-87.939446,13.698037],[-87.93654,13.740378],[-87.947194,13.767147],[-87.943078,13.827762],[-87.945015,13.856204],[-87.952521,13.891981],[-87.925402,13.879755],[-87.90022,13.894169],[-87.870437,13.889536],[-87.860752,13.890051],[-87.851308,13.896872],[-87.832906,13.915275],[-87.817894,13.915919],[-87.80845,13.908583],[-87.798765,13.882329],[-87.790532,13.870489],[-87.76535,13.858907],[-87.721281,13.821971],[-87.703605,13.815021],[-87.712806,13.800479],[-87.732904,13.755178],[-87.737746,13.738834],[-87.731451,13.722232],[-87.736294,13.71155],[-87.75518,13.689929],[-87.758812,13.672298],[-87.757844,13.635234],[-87.760023,13.617087],[-87.783994,13.560333],[-87.789806,13.53292],[-87.779394,13.509884],[-87.769224,13.506409],[-87.747916,13.51323],[-87.733388,13.507696],[-87.72564,13.498945],[-87.718618,13.473592],[-87.721281,13.460851],[-87.738231,13.441804],[-87.817167,13.406541],[-87.825642,13.411174],[-87.838233,13.440903],[-87.866321,13.393286],[-87.873585,13.365359],[-87.855425,13.352875],[-87.84356,13.348371],[-87.810387,13.317484],[-87.791501,13.304872],[-87.790048,13.286983],[-87.798038,13.26562],[-87.818136,13.250433],[-87.892229,13.213884],[-87.912327,13.198183],[-87.915959,13.182353],[-87.892956,13.166524],[-87.928066,13.158545],[-88.066083,13.167811],[-88.091508,13.172701]]]]}},{"type":"Feature","properties":{"name":"La Libertad","country_code":"sv","country_es":"El Salvador"},"geometry":{"type":"Polygon","coordinates":[[[-89.135841,13.414392],[-89.183542,13.442962],[-89.25134,13.472433],[-89.324708,13.489421],[-89.359091,13.489293],[-89.385,13.495341],[-89.527134,13.494312],[-89.587668,13.508983],[-89.60946,13.513101],[-89.590815,13.551324],[-89.565391,13.573074],[-89.558369,13.581954],[-89.555221,13.602287],[-89.550621,13.610395],[-89.524712,13.634847],[-89.516964,13.646559],[-89.517932,13.671783],[-89.511153,13.700611],[-89.507278,13.706145],[-89.485728,13.71451],[-89.468537,13.733557],[-89.440207,13.752347],[-89.436333,13.760068],[-89.438996,13.767404],[-89.456672,13.774997],[-89.452071,13.803053],[-89.434395,13.849512],[-89.4327,13.870747],[-89.431974,13.915533],[-89.427131,13.924413],[-89.413572,13.926472],[-89.405581,13.938955],[-89.388632,13.942687],[-89.385242,13.948607],[-89.382094,13.985286],[-89.37144,14.040496],[-89.363934,14.054267],[-89.343836,14.059543],[-89.324708,14.071641],[-89.314538,14.06971],[-89.296378,14.059672],[-89.279912,14.057227],[-89.267321,14.052079],[-89.268532,14.018361],[-89.273859,13.996997],[-89.273375,13.987988],[-89.267321,13.983484],[-89.25134,13.954399],[-89.234149,13.947192],[-89.210419,13.945519],[-89.196133,13.934322],[-89.201218,13.920423],[-89.214294,13.914761],[-89.219378,13.859035],[-89.2218,13.851185],[-89.23318,13.845007],[-89.239476,13.831752],[-89.241413,13.814249],[-89.24674,13.799192],[-89.251583,13.767275],[-89.262721,13.74218],[-89.249888,13.728795],[-89.25013,13.709105],[-89.240202,13.697651],[-89.235844,13.681821],[-89.217199,13.67011],[-89.204366,13.656597],[-89.209451,13.638194],[-89.199523,13.629314],[-89.204608,13.606148],[-89.202913,13.56458],[-89.21163,13.537039],[-89.211388,13.528545],[-89.189838,13.491738],[-89.17991,13.488263],[-89.163929,13.493025],[-89.144316,13.489293],[-89.137778,13.46883],[-89.115986,13.463553],[-89.11187,13.457247],[-89.13003,13.429707],[-89.135841,13.414392]]]}},{"type":"Feature","properties":{"name":"La Paz","country_code":"sv","country_es":"El Salvador"},"geometry":{"type":"Polygon","coordinates":[[[-88.831476,13.266134],[-89.064895,13.372051],[-89.135841,13.414392],[-89.13003,13.429707],[-89.11187,13.457247],[-89.115986,13.463553],[-89.137778,13.46883],[-89.144316,13.489293],[-89.142379,13.497658],[-89.131967,13.507439],[-89.118408,13.54283],[-89.115744,13.56059],[-89.12543,13.578607],[-89.13003,13.595467],[-89.128335,13.60306],[-89.116955,13.604475],[-89.09492,13.598813],[-89.089835,13.602416],[-89.059811,13.639867],[-89.02349,13.67307],[-88.979663,13.657369],[-88.96223,13.648103],[-88.943343,13.642183],[-88.931236,13.644628],[-88.925909,13.653122],[-88.908475,13.656597],[-88.896126,13.662517],[-88.88862,13.642827],[-88.889347,13.609623],[-88.886441,13.598813],[-88.876756,13.598941],[-88.853026,13.606148],[-88.833655,13.599585],[-88.8092,13.547978],[-88.809442,13.530347],[-88.818643,13.504993],[-88.823243,13.478096],[-88.819369,13.446437],[-88.798061,13.429449],[-88.784502,13.414778],[-88.781354,13.405383],[-88.784986,13.392127],[-88.794187,13.383505],[-88.79564,13.374882],[-88.791281,13.328294],[-88.798303,13.32083],[-88.823243,13.30796],[-88.829055,13.296249],[-88.831476,13.266134]]]}},{"type":"Feature","properties":{"name":"Cuscatlán","country_code":"sv","country_es":"El Salvador"},"geometry":{"type":"Polygon","coordinates":[[[-88.896126,13.662517],[-88.908475,13.656597],[-88.925909,13.653122],[-88.931236,13.644628],[-88.943343,13.642183],[-88.96223,13.648103],[-88.979663,13.657369],[-89.02349,13.67307],[-89.024459,13.703185],[-89.050609,13.751446],[-89.050367,13.777828],[-89.053031,13.785035],[-89.063685,13.792757],[-89.076276,13.810646],[-89.090078,13.813863],[-89.106301,13.829564],[-89.132936,13.870489],[-89.135599,13.878082],[-89.120345,13.890566],[-89.14819,13.93355],[-89.157876,13.952468],[-89.160781,13.968427],[-89.152307,13.978465],[-89.148432,13.995067],[-89.151096,14.035734],[-89.141895,14.057355],[-89.141168,14.067008],[-89.123492,14.075888],[-89.078939,14.060187],[-89.049641,14.039724],[-89.043587,14.029943],[-89.021553,14.00459],[-89.019132,13.987988],[-89.009446,13.970228],[-89.001214,13.963922],[-88.979663,13.954141],[-88.961745,13.955686],[-88.946249,13.949766],[-88.929783,13.947964],[-88.94867,13.91875],[-88.969009,13.904594],[-88.976516,13.890952],[-88.969252,13.876152],[-88.949881,13.849254],[-88.93051,13.832267],[-88.917434,13.796618],[-88.893705,13.764959],[-88.884746,13.759682],[-88.850121,13.750674],[-88.876513,13.681307],[-88.896126,13.662517]]]}},{"type":"Feature","properties":{"name":"Sonsonate","country_code":"sv","country_es":"El Salvador"},"geometry":{"type":"Polygon","coordinates":[[[-89.456672,13.774997],[-89.438996,13.767404],[-89.436333,13.760068],[-89.440207,13.752347],[-89.468537,13.733557],[-89.485728,13.71451],[-89.507278,13.706145],[-89.511153,13.700611],[-89.517932,13.671783],[-89.516964,13.646559],[-89.524712,13.634847],[-89.550621,13.610395],[-89.555221,13.602287],[-89.558369,13.581954],[-89.565391,13.573074],[-89.590815,13.551324],[-89.60946,13.513101],[-89.61624,13.514388],[-89.679922,13.534722],[-89.713094,13.52803],[-89.808012,13.526872],[-89.823266,13.537167],[-89.833194,13.573974],[-89.837068,13.596882],[-89.849659,13.60692],[-89.870241,13.619275],[-89.953536,13.665091],[-89.935375,13.693147],[-89.922784,13.705759],[-89.902929,13.708976],[-89.891791,13.702413],[-89.869514,13.679634],[-89.832952,13.676674],[-89.819876,13.679762],[-89.81237,13.706917],[-89.799537,13.729181],[-89.798084,13.741021],[-89.781619,13.768047],[-89.791304,13.799578],[-89.788883,13.808973],[-89.768301,13.839087],[-89.774355,13.859807],[-89.777018,13.878597],[-89.770723,13.893912],[-89.736582,13.901634],[-89.718906,13.908969],[-89.69566,13.903307],[-89.674837,13.905366],[-89.664425,13.89906],[-89.648202,13.883616],[-89.642148,13.87242],[-89.626167,13.853759],[-89.626167,13.843077],[-89.635853,13.831623],[-89.625441,13.82403],[-89.612123,13.807042],[-89.604133,13.804854],[-89.593479,13.808329],[-89.589363,13.827634],[-89.577014,13.842691],[-89.560548,13.834197],[-89.539483,13.818754],[-89.525923,13.806785],[-89.516964,13.788253],[-89.504131,13.783877],[-89.456672,13.774997]]]}},{"type":"Feature","properties":{"name":"San Salvador","country_code":"sv","country_es":"El Salvador"},"geometry":{"type":"Polygon","coordinates":[[[-89.141168,14.067008],[-89.141895,14.057355],[-89.151096,14.035734],[-89.148432,13.995067],[-89.152307,13.978465],[-89.160781,13.968427],[-89.157876,13.952468],[-89.14819,13.93355],[-89.120345,13.890566],[-89.135599,13.878082],[-89.132936,13.870489],[-89.106301,13.829564],[-89.090078,13.813863],[-89.076276,13.810646],[-89.063685,13.792757],[-89.053031,13.785035],[-89.050367,13.777828],[-89.050609,13.751446],[-89.024459,13.703185],[-89.02349,13.67307],[-89.059811,13.639867],[-89.089835,13.602416],[-89.09492,13.598813],[-89.116955,13.604475],[-89.128335,13.60306],[-89.13003,13.595467],[-89.12543,13.578607],[-89.115744,13.56059],[-89.118408,13.54283],[-89.131967,13.507439],[-89.142379,13.497658],[-89.144316,13.489293],[-89.163929,13.493025],[-89.17991,13.488263],[-89.189838,13.491738],[-89.211388,13.528545],[-89.21163,13.537039],[-89.202913,13.56458],[-89.204608,13.606148],[-89.199523,13.629314],[-89.209451,13.638194],[-89.204366,13.656597],[-89.217199,13.67011],[-89.235844,13.681821],[-89.240202,13.697651],[-89.25013,13.709105],[-89.249888,13.728795],[-89.262721,13.74218],[-89.251583,13.767275],[-89.24674,13.799192],[-89.241413,13.814249],[-89.239476,13.831752],[-89.23318,13.845007],[-89.2218,13.851185],[-89.219378,13.859035],[-89.214294,13.914761],[-89.201218,13.920423],[-89.196133,13.934322],[-89.210419,13.945519],[-89.234149,13.947192],[-89.25134,13.954399],[-89.267321,13.983484],[-89.273375,13.987988],[-89.273859,13.996997],[-89.268532,14.018361],[-89.267321,14.052079],[-89.260299,14.051178],[-89.235359,14.064691],[-89.214536,14.056068],[-89.200734,14.055811],[-89.194438,14.068294],[-89.180394,14.057355],[-89.169014,14.054524],[-89.141168,14.067008]]]}},{"type":"Feature","properties":{"name":"Morazán","country_code":"sv","country_es":"El Salvador"},"geometry":{"type":"Polygon","coordinates":[[[-88.274078,13.919136],[-88.263666,13.933164],[-88.251802,13.938183],[-88.236305,13.938054],[-88.231462,13.951825],[-88.244538,13.96611],[-88.24478,13.989147],[-88.235094,13.992879],[-88.193447,13.985543],[-88.177466,13.985286],[-88.125407,13.991206],[-88.099014,13.98979],[-88.087391,13.980653],[-88.072863,13.94346],[-88.058335,13.926601],[-88.040175,13.910127],[-88.023709,13.891209],[-88.015235,13.866371],[-87.969713,13.888635],[-87.952521,13.891981],[-87.945015,13.856204],[-87.943078,13.827762],[-87.947194,13.767147],[-87.93654,13.740378],[-87.939446,13.698037],[-87.945742,13.671011],[-87.968502,13.613484],[-87.970439,13.594694],[-87.977461,13.583755],[-88.008455,13.551324],[-88.030247,13.554927],[-88.040417,13.554284],[-88.079643,13.542444],[-88.09175,13.542444],[-88.101677,13.554541],[-88.118627,13.564837],[-88.125649,13.592249],[-88.133639,13.604218],[-88.140903,13.607821],[-88.179645,13.604604],[-88.203859,13.595338],[-88.197321,13.613227],[-88.212091,13.626096],[-88.220082,13.642698],[-88.233157,13.653251],[-88.238484,13.66419],[-88.25955,13.685682],[-88.261245,13.710778],[-88.258339,13.717599],[-88.225409,13.740635],[-88.207249,13.750545],[-88.208217,13.763028],[-88.21306,13.769592],[-88.250833,13.794687],[-88.260277,13.803439],[-88.260034,13.827376],[-88.248654,13.839602],[-88.246233,13.853373],[-88.254707,13.873449],[-88.257129,13.884903],[-88.268751,13.911801],[-88.274078,13.919136]]]}},{"type":"Feature","properties":{"name":"San Miguel","country_code":"sv","country_es":"El Salvador"},"geometry":{"type":"Polygon","coordinates":[[[-88.091508,13.172701],[-88.105309,13.174117],[-88.112331,13.171286],[-88.173592,13.240781],[-88.182309,13.242326],[-88.20967,13.238207],[-88.213786,13.24091],[-88.212334,13.252235],[-88.205069,13.265491],[-88.220566,13.281578],[-88.222019,13.302298],[-88.23461,13.308861],[-88.249138,13.301912],[-88.260034,13.302555],[-88.276015,13.309376],[-88.30144,13.332027],[-88.321295,13.334214],[-88.333886,13.338847],[-88.345024,13.350173],[-88.360279,13.376684],[-88.365606,13.394573],[-88.369722,13.42044],[-88.382798,13.42443],[-88.387882,13.462781],[-88.385219,13.473077],[-88.376018,13.469087],[-88.372144,13.491223],[-88.362458,13.502934],[-88.367543,13.531505],[-88.366817,13.545533],[-88.378681,13.5705],[-88.377955,13.589675],[-88.366332,13.595595],[-88.361732,13.604475],[-88.368269,13.62764],[-88.362942,13.649519],[-88.372386,13.653894],[-88.40459,13.659428],[-88.420087,13.671654],[-88.434615,13.691988],[-88.446479,13.692889],[-88.487158,13.688256],[-88.498781,13.705759],[-88.529532,13.735874],[-88.532196,13.759296],[-88.513793,13.790955],[-88.515972,13.804726],[-88.505318,13.811418],[-88.498054,13.821456],[-88.496844,13.833296],[-88.502897,13.84578],[-88.496844,13.851185],[-88.470209,13.852472],[-88.451322,13.86354],[-88.433162,13.871133],[-88.392967,13.879755],[-88.383282,13.879241],[-88.360037,13.87242],[-88.355194,13.891081],[-88.340666,13.890051],[-88.326138,13.885032],[-88.319358,13.897644],[-88.285459,13.905881],[-88.274078,13.919136],[-88.268751,13.911801],[-88.257129,13.884903],[-88.254707,13.873449],[-88.246233,13.853373],[-88.248654,13.839602],[-88.260034,13.827376],[-88.260277,13.803439],[-88.250833,13.794687],[-88.21306,13.769592],[-88.208217,13.763028],[-88.207249,13.750545],[-88.225409,13.740635],[-88.258339,13.717599],[-88.261245,13.710778],[-88.25955,13.685682],[-88.238484,13.66419],[-88.233157,13.653251],[-88.220082,13.642698],[-88.212091,13.626096],[-88.197321,13.613227],[-88.203859,13.595338],[-88.179645,13.604604],[-88.140903,13.607821],[-88.133639,13.604218],[-88.125649,13.592249],[-88.118627,13.564837],[-88.101677,13.554541],[-88.09175,13.542444],[-88.079643,13.542444],[-88.040417,13.554284],[-88.030247,13.554927],[-88.008455,13.551324],[-88.014993,13.54283],[-88.017414,13.530218],[-88.016687,13.500103],[-88.012813,13.485689],[-88.017414,13.474493],[-88.029279,13.466513],[-88.0317,13.45596],[-88.031216,13.430479],[-88.02831,13.412719],[-88.014266,13.386079],[-88.027099,13.314009],[-88.025889,13.297793],[-88.038964,13.256225],[-88.045986,13.252493],[-88.062935,13.25674],[-88.081822,13.26858],[-88.085938,13.251077],[-88.091508,13.172701]]]}},{"type":"Feature","properties":{"name":"San Vicente","country_code":"sv","country_es":"El Salvador"},"geometry":{"type":"MultiPolygon","coordinates":[[[[-88.529532,13.735874],[-88.498781,13.705759],[-88.487158,13.688256],[-88.550114,13.643599],[-88.555925,13.626096],[-88.570695,13.60602],[-88.590793,13.593665],[-88.612827,13.598684],[-88.641641,13.564065],[-88.642852,13.55763],[-88.659559,13.555056],[-88.665128,13.546948],[-88.66755,13.516705],[-88.675782,13.487233],[-88.721546,13.402552],[-88.728084,13.379387],[-88.729295,13.348371],[-88.731716,13.34155],[-88.749392,13.324948],[-88.764889,13.300367],[-88.774332,13.292903],[-88.793945,13.290072],[-88.805567,13.285696],[-88.813316,13.275658],[-88.816948,13.259571],[-88.831476,13.266134],[-88.829055,13.296249],[-88.823243,13.30796],[-88.798303,13.32083],[-88.791281,13.328294],[-88.79564,13.374882],[-88.794187,13.383505],[-88.784986,13.392127],[-88.781354,13.405383],[-88.784502,13.414778],[-88.798061,13.429449],[-88.819369,13.446437],[-88.823243,13.478096],[-88.818643,13.504993],[-88.809442,13.530347],[-88.8092,13.547978],[-88.833655,13.599585],[-88.853026,13.606148],[-88.876756,13.598941],[-88.886441,13.598813],[-88.889347,13.609623],[-88.88862,13.642827],[-88.896126,13.662517],[-88.876513,13.681307],[-88.850121,13.750674],[-88.84891,13.779373],[-88.844067,13.786065],[-88.821548,13.781046],[-88.805083,13.785164],[-88.76731,13.800479],[-88.754235,13.798034],[-88.74237,13.81026],[-88.73559,13.81219],[-88.721304,13.802152],[-88.709439,13.800221],[-88.677477,13.800607],[-88.64382,13.795717],[-88.625418,13.782333],[-88.596362,13.77075],[-88.588856,13.75698],[-88.583286,13.754148],[-88.548661,13.748614],[-88.532438,13.759296],[-88.529532,13.735874]]],[[[-88.532438,13.759682],[-88.532196,13.759296],[-88.532438,13.759296],[-88.532438,13.759682]]]]}},{"type":"Feature","properties":{"name":"Usulután","country_code":"sv","country_es":"El Salvador"},"geometry":{"type":"Polygon","coordinates":[[[-88.112331,13.171286],[-88.122017,13.167553],[-88.208217,13.160475],[-88.300955,13.174246],[-88.324927,13.166524],[-88.352288,13.173988],[-88.352288,13.180294],[-88.32977,13.181839],[-88.328075,13.197153],[-88.340182,13.216072],[-88.358584,13.228684],[-88.338002,13.194451],[-88.374081,13.195738],[-88.391757,13.193936],[-88.406769,13.18763],[-88.397326,13.183512],[-88.365848,13.18763],[-88.365848,13.180166],[-88.389093,13.170771],[-88.41476,13.171543],[-88.434857,13.18364],[-88.441152,13.20835],[-88.427351,13.201272],[-88.413549,13.215042],[-88.413549,13.221091],[-88.430741,13.228813],[-88.449627,13.25468],[-88.462218,13.262273],[-88.450111,13.225338],[-88.454712,13.215042],[-88.46924,13.223021],[-88.511372,13.233574],[-88.529774,13.242969],[-88.546482,13.271797],[-88.553988,13.27643],[-88.598783,13.283894],[-88.613553,13.284023],[-88.653748,13.27643],[-88.710408,13.274886],[-88.722757,13.26948],[-88.708713,13.260472],[-88.694911,13.262273],[-88.666581,13.25571],[-88.586192,13.264333],[-88.5644,13.255967],[-88.545029,13.234733],[-88.536554,13.228555],[-88.536554,13.22122],[-88.569,13.226882],[-88.598541,13.235505],[-88.598541,13.228684],[-88.516699,13.212211],[-88.473841,13.198569],[-88.454712,13.180166],[-88.461734,13.168326],[-88.479652,13.171286],[-88.499507,13.181324],[-88.527595,13.19844],[-88.785712,13.245286],[-88.816948,13.259571],[-88.813316,13.275658],[-88.805567,13.285696],[-88.793945,13.290072],[-88.774332,13.292903],[-88.764889,13.300367],[-88.749392,13.324948],[-88.731716,13.34155],[-88.729295,13.348371],[-88.728084,13.379387],[-88.721546,13.402552],[-88.675782,13.487233],[-88.66755,13.516705],[-88.665128,13.546948],[-88.659559,13.555056],[-88.642852,13.55763],[-88.641641,13.564065],[-88.612827,13.598684],[-88.590793,13.593665],[-88.570695,13.60602],[-88.555925,13.626096],[-88.550114,13.643599],[-88.487158,13.688256],[-88.446479,13.692889],[-88.434615,13.691988],[-88.420087,13.671654],[-88.40459,13.659428],[-88.372386,13.653894],[-88.362942,13.649519],[-88.368269,13.62764],[-88.361732,13.604475],[-88.366332,13.595595],[-88.377955,13.589675],[-88.378681,13.5705],[-88.366817,13.545533],[-88.367543,13.531505],[-88.362458,13.502934],[-88.372144,13.491223],[-88.376018,13.469087],[-88.385219,13.473077],[-88.387882,13.462781],[-88.382798,13.42443],[-88.369722,13.42044],[-88.365606,13.394573],[-88.360279,13.376684],[-88.345024,13.350173],[-88.333886,13.338847],[-88.321295,13.334214],[-88.30144,13.332027],[-88.276015,13.309376],[-88.260034,13.302555],[-88.249138,13.301912],[-88.23461,13.308861],[-88.222019,13.302298],[-88.220566,13.281578],[-88.205069,13.265491],[-88.212334,13.252235],[-88.213786,13.24091],[-88.20967,13.238207],[-88.182309,13.242326],[-88.173592,13.240781],[-88.112331,13.171286]]]}},{"type":"Feature","properties":{"name":"Chalatenango","country_code":"sv","country_es":"El Salvador"},"geometry":{"type":"Polygon","coordinates":[[[-88.929783,13.947964],[-88.946249,13.949766],[-88.961745,13.955686],[-88.979663,13.954141],[-89.001214,13.963922],[-89.009446,13.970228],[-89.019132,13.987988],[-89.021553,14.00459],[-89.043587,14.029943],[-89.049641,14.039724],[-89.078939,14.060187],[-89.123492,14.075888],[-89.141168,14.067008],[-89.169014,14.054524],[-89.180394,14.057355],[-89.194438,14.068294],[-89.200734,14.055811],[-89.214536,14.056068],[-89.235359,14.064691],[-89.260299,14.051178],[-89.267321,14.052079],[-89.279912,14.057227],[-89.296378,14.059672],[-89.314538,14.06971],[-89.324708,14.071641],[-89.343836,14.059543],[-89.363934,14.054267],[-89.37144,14.040496],[-89.383063,14.037407],[-89.413087,14.040239],[-89.423984,14.05002],[-89.427131,14.071641],[-89.408003,14.13586],[-89.389116,14.134573],[-89.380157,14.141908],[-89.368292,14.162628],[-89.35667,14.167648],[-89.338025,14.170479],[-89.330277,14.176656],[-89.310906,14.202653],[-89.308485,14.211147],[-89.309211,14.242162],[-89.272164,14.256834],[-89.263205,14.266486],[-89.259331,14.286562],[-89.246498,14.322855],[-89.2649,14.33418],[-89.271922,14.34203],[-89.292504,14.354642],[-89.301463,14.371244],[-89.346258,14.41307],[-89.307516,14.407021],[-89.276523,14.392736],[-89.225432,14.382055],[-89.20025,14.364552],[-89.154002,14.351296],[-89.144558,14.359661],[-89.13003,14.386688],[-89.122282,14.394795],[-89.107511,14.395825],[-89.096857,14.384114],[-89.089593,14.364938],[-89.094436,14.344733],[-89.083056,14.335338],[-89.048914,14.331477],[-89.032933,14.323627],[-89.026638,14.311401],[-89.022764,14.280642],[-89.017921,14.271634],[-88.992739,14.252844],[-88.974579,14.227362],[-88.966104,14.191328],[-88.957145,14.18515],[-88.947459,14.187338],[-88.921551,14.199821],[-88.906054,14.199564],[-88.881356,14.184249],[-88.86029,14.15851],[-88.845278,14.128524],[-88.83874,14.10034],[-88.821064,14.103042],[-88.777238,14.099696],[-88.755203,14.110378],[-88.746244,14.111408],[-88.739222,14.099825],[-88.740191,14.083094],[-88.746244,14.066493],[-88.746728,14.052465],[-88.73099,14.042427],[-88.709439,14.039724],[-88.692732,14.02531],[-88.690795,14.011797],[-88.736801,14.005105],[-88.757625,13.995324],[-88.765131,13.985414],[-88.783775,13.97499],[-88.874092,13.94642],[-88.900243,13.948607],[-88.929783,13.947964]]]}},{"type":"Feature","properties":{"name":"Santa Ana","country_code":"sv","country_es":"El Salvador"},"geometry":{"type":"Polygon","coordinates":[[[-89.346258,14.41307],[-89.301463,14.371244],[-89.292504,14.354642],[-89.271922,14.34203],[-89.2649,14.33418],[-89.246498,14.322855],[-89.259331,14.286562],[-89.263205,14.266486],[-89.272164,14.256834],[-89.309211,14.242162],[-89.308485,14.211147],[-89.310906,14.202653],[-89.330277,14.176656],[-89.338025,14.170479],[-89.35667,14.167648],[-89.368292,14.162628],[-89.380157,14.141908],[-89.389116,14.134573],[-89.408003,14.13586],[-89.427131,14.071641],[-89.423984,14.05002],[-89.413087,14.040239],[-89.383063,14.037407],[-89.37144,14.040496],[-89.382094,13.985286],[-89.385242,13.948607],[-89.388632,13.942687],[-89.405581,13.938955],[-89.413572,13.926472],[-89.427131,13.924413],[-89.431974,13.915533],[-89.4327,13.870747],[-89.434395,13.849512],[-89.452071,13.803053],[-89.456672,13.774997],[-89.504131,13.783877],[-89.516964,13.788253],[-89.525923,13.806785],[-89.539483,13.818754],[-89.560548,13.834197],[-89.577014,13.842691],[-89.589363,13.827634],[-89.593479,13.808329],[-89.604133,13.804854],[-89.612123,13.807042],[-89.625441,13.82403],[-89.635853,13.831623],[-89.626167,13.843077],[-89.626167,13.853759],[-89.642148,13.87242],[-89.648202,13.883616],[-89.664425,13.89906],[-89.674837,13.905366],[-89.69566,13.903307],[-89.718906,13.908969],[-89.698808,13.975891],[-89.695903,13.99378],[-89.710189,14.010253],[-89.721569,14.030329],[-89.747962,14.044872],[-89.7545,14.059286],[-89.752563,14.075244],[-89.709704,14.148729],[-89.689849,14.169964],[-89.664667,14.188882],[-89.638274,14.200465],[-89.531008,14.225689],[-89.52447,14.231738],[-89.524712,14.24731],[-89.54481,14.261853],[-89.549894,14.288235],[-89.555706,14.298917],[-89.571202,14.311143],[-89.592268,14.313717],[-89.598322,14.327874],[-89.582583,14.343446],[-89.576045,14.353098],[-89.578951,14.364809],[-89.590573,14.386044],[-89.584036,14.401745],[-89.569992,14.412041],[-89.554979,14.410754],[-89.544325,14.400072],[-89.54142,14.38154],[-89.527618,14.390935],[-89.503162,14.42002],[-89.485244,14.427355],[-89.469505,14.425425],[-89.446987,14.415644],[-89.431248,14.418733],[-89.408487,14.441383],[-89.398075,14.445373],[-89.396864,14.42594],[-89.390569,14.435978],[-89.361512,14.415515],[-89.346258,14.41307]]]}},{"type":"Feature","properties":{"name":"Ahuachapán","country_code":"sv","country_es":"El Salvador"},"geometry":{"type":"Polygon","coordinates":[[[-89.953536,13.665091],[-90.021092,13.695206],[-90.093006,13.728924],[-90.114314,13.79636],[-90.112135,13.828148],[-90.09906,13.858392],[-90.087195,13.870489],[-90.059833,13.884774],[-90.047242,13.894169],[-90.038041,13.908454],[-90.023029,13.936896],[-90.008258,13.949637],[-89.91213,14.015143],[-89.890822,14.035863],[-89.880168,14.042684],[-89.835857,14.059028],[-89.821087,14.059929],[-89.802927,14.055425],[-89.777018,14.035863],[-89.762248,14.030072],[-89.74772,14.037665],[-89.747962,14.044872],[-89.721569,14.030329],[-89.710189,14.010253],[-89.695903,13.99378],[-89.698808,13.975891],[-89.718906,13.908969],[-89.736582,13.901634],[-89.770723,13.893912],[-89.777018,13.878597],[-89.774355,13.859807],[-89.768301,13.839087],[-89.788883,13.808973],[-89.791304,13.799578],[-89.781619,13.768047],[-89.798084,13.741021],[-89.799537,13.729181],[-89.81237,13.706917],[-89.819876,13.679762],[-89.832952,13.676674],[-89.869514,13.679634],[-89.891791,13.702413],[-89.902929,13.708976],[-89.922784,13.705759],[-89.935375,13.693147],[-89.953536,13.665091]]]}},{"type":"Feature","properties":{"name":"Cabañas","country_code":"sv","country_es":"El Salvador"},"geometry":{"type":"Polygon","coordinates":[[[-88.496844,13.851185],[-88.502897,13.84578],[-88.496844,13.833296],[-88.498054,13.821456],[-88.505318,13.811418],[-88.515972,13.804726],[-88.513793,13.790955],[-88.532438,13.759682],[-88.532196,13.759296],[-88.532438,13.759296],[-88.548661,13.748614],[-88.583286,13.754148],[-88.588856,13.75698],[-88.596362,13.77075],[-88.625418,13.782333],[-88.64382,13.795717],[-88.677477,13.800607],[-88.709439,13.800221],[-88.721304,13.802152],[-88.73559,13.81219],[-88.74237,13.81026],[-88.754235,13.798034],[-88.76731,13.800479],[-88.805083,13.785164],[-88.821548,13.781046],[-88.844067,13.786065],[-88.84891,13.779373],[-88.850121,13.750674],[-88.884746,13.759682],[-88.893705,13.764959],[-88.917434,13.796618],[-88.93051,13.832267],[-88.949881,13.849254],[-88.969252,13.876152],[-88.976516,13.890952],[-88.969009,13.904594],[-88.94867,13.91875],[-88.929783,13.947964],[-88.900243,13.948607],[-88.874092,13.94642],[-88.783775,13.97499],[-88.765131,13.985414],[-88.757625,13.995324],[-88.736801,14.005105],[-88.690795,14.011797],[-88.659317,14.016173],[-88.633893,14.0145],[-88.558104,13.99082],[-88.514035,13.987731],[-88.495391,13.975247],[-88.502413,13.968941],[-88.496117,13.955814],[-88.502171,13.917077],[-88.488611,13.8813],[-88.487885,13.865341],[-88.496844,13.851185]]]}}]}