{"type":"FeatureCollection","features":[{"type":"Feature","id":"TT.180","properties":{"name":"Arima","country_code":"tt","country_es":"Trinidad y Tobago","hc_key":"tt-180"},"geometry":{"type":"Polygon","coordinates":[[[409.6,398.8],[399.1,398.0],[392.0,400.3],[389.6,402.9],[394.9,410.3],[395.8,420.3],[397.5,423.2],[396.5,427.4],[397.3,434.4],[408.3,424.0],[412.9,407.6],[413.2,402.8],[409.6,398.8]]]}},{"type":"Feature","id":"TT.DM","properties":{"name":"Diego Martin","country_code":"tt","country_es":"Trinidad y Tobago","hc_key":"tt-dm"},"geometry":{"type":"MultiPolygon","coordinates":[[[[38.7,463.2],[44.9,455.9],[43.2,453.3],[38.1,456.4],[33.7,455.9],[31.8,453.5],[32.9,450.9],[37.6,447.9],[35.9,445.4],[25.2,444.8],[25.0,448.0],[27.7,460.7],[31.4,464.0],[38.7,463.2]]],[[[83.5,452.0],[81.6,450.8],[74.2,452.1],[72.2,453.6],[78.0,467.0],[84.0,469.5],[89.6,469.4],[91.0,466.4],[90.2,457.5],[84.4,454.5],[83.5,452.0]]],[[[192.8,443.6],[170.6,453.6],[154.0,457.0],[114.5,459.5],[109.6,461.0],[105.7,465.2],[100.8,474.3],[140.9,502.2],[151.4,506.7],[183.2,504.1],[218.8,512.6],[238.2,512.5],[239.9,492.9],[235.6,474.7],[222.0,450.6],[210.6,452.3],[204.2,451.7],[195.9,445.0],[192.8,443.6]]]]}},{"type":"Feature","id":"TT.TP","properties":{"name":"Tunapuna/Piarco","country_code":"tt","country_es":"Trinidad y Tobago","hc_key":"tt-tp"},"geometry":{"type":"Polygon","coordinates":[[[344.6,551.8],[347.3,552.0],[388.4,547.3],[478.3,547.4],[484.9,552.5],[488.0,550.1],[495.5,539.2],[496.2,525.3],[491.7,521.0],[480.0,514.1],[467.4,499.8],[463.0,496.5],[456.0,494.3],[434.1,492.0],[432.6,488.9],[439.9,486.2],[444.7,485.9],[452.2,480.7],[453.0,474.2],[452.8,460.3],[449.5,448.4],[452.1,435.5],[455.1,429.9],[461.0,422.4],[462.6,417.6],[461.5,406.3],[453.4,395.2],[433.5,385.6],[411.3,378.4],[377.8,376.8],[366.9,374.3],[357.3,369.9],[347.6,369.3],[336.2,370.9],[332.9,364.7],[301.2,365.1],[291.6,424.9],[291.8,444.4],[286.1,478.8],[287.7,492.5],[291.9,500.3],[298.6,502.3],[319.3,499.5],[329.9,501.6],[335.6,501.3],[349.0,498.2],[353.7,499.7],[358.6,505.6],[359.4,514.3],[353.0,527.2],[347.1,546.8],[344.6,551.8]],[[409.6,398.8],[413.2,402.8],[412.9,407.6],[408.3,424.0],[397.3,434.4],[396.5,427.4],[397.5,423.2],[395.8,420.3],[394.9,410.3],[389.6,402.9],[392.0,400.3],[399.1,398.0],[409.6,398.8]]]}},{"type":"Feature","id":"TT.SF","properties":{"name":"San Fernando","country_code":"tt","country_es":"Trinidad y Tobago","hc_key":"tt-sf"},"geometry":{"type":"Polygon","coordinates":[[[240.3,116.3],[246.4,121.4],[255.8,132.1],[261.7,142.2],[264.6,157.9],[263.5,163.8],[267.6,162.7],[288.2,164.2],[277.8,124.2],[241.1,115.3],[240.3,116.3]]]}},{"type":"Feature","id":"TT.CH","properties":{"name":"Chaguanas","country_code":"tt","country_es":"Trinidad y Tobago","hc_key":"tt-ch"},"geometry":{"type":"Polygon","coordinates":[[[260.7,330.7],[260.7,342.8],[261.9,342.8],[277.0,364.0],[301.2,365.1],[332.9,364.7],[336.4,348.0],[331.3,329.9],[330.3,322.1],[325.0,317.2],[305.1,315.6],[295.7,318.5],[289.8,323.3],[282.4,324.7],[276.7,328.3],[271.6,329.6],[260.7,330.7]]]}},{"type":"Feature","id":"TT.PS","properties":{"name":"Port of Spain","country_code":"tt","country_es":"Trinidad y Tobago","hc_key":"tt-ps"},"geometry":{"type":"Polygon","coordinates":[[[234.3,419.2],[208.6,436.5],[192.8,443.6],[195.9,445.0],[204.2,451.7],[210.6,452.3],[222.0,450.6],[233.1,444.8],[237.4,435.6],[234.3,419.2]]]}},{"type":"Feature","id":"TT.193","properties":{"name":"Eastern Tobago","country_code":"tt","country_es":"Trinidad y Tobago","hc_key":"tt-193"},"geometry":{"type":"Polygon","coordinates":[[[882.5,950.5],[897.1,956.0],[918.9,960.8],[928.0,966.0],[937.4,967.9],[949.7,960.7],[955.4,961.5],[970.0,979.0],[978.4,985.1],[984.2,979.3],[985.1,959.9],[982.6,935.8],[977.0,918.8],[968.3,920.7],[963.5,920.7],[958.9,908.9],[952.1,907.5],[944.3,910.1],[936.7,909.8],[935.2,906.3],[923.8,890.8],[921.0,890.2],[903.2,879.0],[897.6,874.4],[889.0,869.1],[864.2,890.0],[844.6,897.5],[852.1,905.0],[873.5,919.2],[888.6,938.0],[882.5,950.5]]]}},{"type":"Feature","id":"TT.6597","properties":{"name":"Western Tobago","country_code":"tt","country_es":"Trinidad y Tobago","hc_key":"tt-6597"},"geometry":{"type":"Polygon","coordinates":[[[889.0,869.1],[879.2,869.2],[869.9,871.0],[862.5,871.2],[815.9,847.3],[802.2,844.0],[781.5,825.8],[768.4,820.4],[762.9,832.9],[751.3,827.0],[740.5,828.8],[734.1,836.4],[735.8,848.3],[742.3,851.7],[753.1,853.5],[763.1,857.6],[767.4,867.8],[775.0,878.0],[840.2,921.4],[854.0,935.3],[862.0,941.3],[871.8,946.5],[882.5,950.5],[888.6,938.0],[873.5,919.2],[852.1,905.0],[844.6,897.5],[864.2,890.0],[889.0,869.1]]]}},{"type":"Feature","id":"TT.SI","properties":{"name":"Siparia","country_code":"tt","country_es":"Trinidad y Tobago","hc_key":"tt-si"},"geometry":{"type":"Polygon","coordinates":[[[229.9,-24.6],[198.8,-19.6],[191.5,-21.4],[169.4,-30.4],[160.8,-31.3],[145.5,-35.0],[137.6,-35.9],[126.7,-34.3],[118.9,-30.3],[111.8,-25.1],[102.9,-20.0],[88.4,-15.8],[72.5,-14.0],[5.2,-14.1],[-13.2,-16.4],[-27.3,-23.2],[-38.7,-32.0],[-53.7,-41.1],[-69.6,-47.2],[-83.2,-47.4],[-99.9,-36.2],[-92.3,-25.5],[-67.4,-12.3],[-63.7,-9.4],[-55.2,-6.7],[-30.0,-1.9],[-24.9,3.0],[-16.8,14.8],[-4.7,24.0],[8.2,30.4],[68.0,48.4],[71.7,50.2],[83.7,31.8],[91.1,32.5],[99.9,35.5],[116.4,49.5],[131.1,71.1],[132.0,75.3],[129.9,79.1],[124.4,85.1],[124.8,85.4],[124.0,109.0],[133.9,114.3],[145.6,114.5],[185.8,107.8],[216.3,109.0],[219.7,103.9],[241.0,85.4],[250.7,79.4],[256.9,66.6],[256.6,53.1],[253.5,38.7],[249.9,31.1],[240.3,19.7],[236.3,13.0],[233.6,4.5],[229.9,-24.6]]]}},{"type":"Feature","id":"TT.SN","properties":{"name":"Sangre Grande","country_code":"tt","country_es":"Trinidad y Tobago","hc_key":"tt-sn"},"geometry":{"type":"Polygon","coordinates":[[[433.5,385.6],[453.4,395.2],[461.5,406.3],[462.6,417.6],[461.0,422.4],[455.1,429.9],[452.1,435.5],[449.5,448.4],[452.8,460.3],[453.0,474.2],[452.2,480.7],[444.7,485.9],[439.9,486.2],[432.6,488.9],[434.1,492.0],[456.0,494.3],[463.0,496.5],[467.4,499.8],[480.0,514.1],[491.7,521.0],[496.2,525.3],[495.5,539.2],[488.0,550.1],[484.9,552.5],[497.8,562.4],[543.0,568.1],[556.9,574.1],[657.3,586.0],[689.6,579.8],[657.1,521.8],[616.7,471.3],[602.2,473.8],[593.2,458.7],[589.1,435.3],[590.1,412.7],[605.5,365.2],[608.8,342.0],[586.4,322.6],[587.1,300.6],[589.8,286.3],[545.6,290.6],[466.7,279.8],[451.6,284.0],[449.9,294.2],[456.2,311.9],[456.3,324.3],[450.2,330.6],[447.8,336.9],[445.3,370.0],[442.1,378.4],[433.5,385.6]]]}},{"type":"Feature","id":"TT.MR","properties":{"name":"Rio Claro-Mayaro","country_code":"tt","country_es":"Trinidad y Tobago","hc_key":"tt-mr"},"geometry":{"type":"Polygon","coordinates":[[[589.8,286.3],[598.1,243.1],[602.1,232.4],[607.3,222.5],[621.4,202.0],[650.3,181.9],[628.0,157.6],[618.5,117.0],[618.4,71.2],[624.3,31.3],[607.6,34.9],[588.9,29.1],[571.3,18.1],[557.6,6.3],[544.0,-2.9],[526.4,-9.6],[491.5,-18.1],[483.5,-18.9],[471.7,102.5],[458.7,124.8],[451.4,133.7],[444.9,135.0],[442.0,141.6],[437.0,145.1],[431.3,162.6],[442.3,178.8],[448.5,200.2],[452.9,245.2],[456.4,260.7],[466.7,279.8],[545.6,290.6],[589.8,286.3]]]}},{"type":"Feature","id":"TT.SL","properties":{"name":"San Juan-Laventille","country_code":"tt","country_es":"Trinidad y Tobago","hc_key":"tt-sl"},"geometry":{"type":"Polygon","coordinates":[[[260.7,342.8],[260.6,358.6],[252.6,387.3],[233.9,410.7],[239.6,415.6],[234.3,419.2],[237.4,435.6],[233.1,444.8],[222.0,450.6],[235.6,474.7],[239.9,492.9],[238.2,512.5],[241.6,512.4],[251.3,516.9],[257.2,524.8],[261.1,528.0],[265.1,518.4],[270.9,518.4],[270.9,529.1],[275.6,529.2],[276.2,525.2],[281.5,518.5],[275.7,512.6],[282.1,514.2],[291.6,523.4],[306.5,524.0],[308.0,523.5],[314.3,529.3],[328.9,546.5],[333.8,550.8],[344.6,551.8],[347.1,546.8],[353.0,527.2],[359.4,514.3],[358.6,505.6],[353.7,499.7],[349.0,498.2],[335.6,501.3],[329.9,501.6],[319.3,499.5],[298.6,502.3],[291.9,500.3],[287.7,492.5],[286.1,478.8],[291.8,444.4],[291.6,424.9],[301.2,365.1],[277.0,364.0],[261.9,342.8],[260.7,342.8]]]}},{"type":"Feature","id":"TT.PT","properties":{"name":"Princes Town","country_code":"tt","country_es":"Trinidad y Tobago","hc_key":"tt-pt"},"geometry":{"type":"Polygon","coordinates":[[[431.3,162.6],[437.0,145.1],[442.0,141.6],[444.9,135.0],[451.4,133.7],[458.7,124.8],[471.7,102.5],[483.5,-18.9],[472.6,-20.1],[424.9,-12.6],[407.8,-14.2],[358.4,-24.2],[327.0,-21.6],[331.3,91.8],[325.2,99.8],[316.6,107.6],[277.8,124.2],[288.2,164.2],[303.8,165.9],[330.2,177.1],[356.2,182.2],[378.4,182.7],[392.0,180.5],[401.9,177.9],[424.4,169.1],[431.3,162.6]]]}},{"type":"Feature","id":"TT.CT","properties":{"name":"Couva-Tabaquite-Talparo","country_code":"tt","country_es":"Trinidad y Tobago","hc_key":"tt-ct"},"geometry":{"type":"Polygon","coordinates":[[[466.7,279.8],[456.4,260.7],[452.9,245.2],[448.5,200.2],[442.3,178.8],[431.3,162.6],[424.4,169.1],[401.9,177.9],[392.0,180.5],[378.4,182.7],[356.2,182.2],[330.2,177.1],[303.8,165.9],[288.2,164.2],[267.6,162.7],[263.5,163.8],[262.2,171.1],[258.3,183.7],[256.1,198.4],[254.7,202.7],[247.9,208.3],[245.4,211.8],[245.1,216.0],[249.9,217.7],[251.2,220.0],[250.4,226.1],[245.8,241.5],[242.9,246.8],[241.1,258.1],[245.5,273.6],[255.6,297.9],[260.7,327.7],[260.7,330.7],[271.6,329.6],[276.7,328.3],[282.4,324.7],[289.8,323.3],[295.7,318.5],[305.1,315.6],[325.0,317.2],[330.3,322.1],[331.3,329.9],[336.4,348.0],[332.9,364.7],[336.2,370.9],[347.6,369.3],[357.3,369.9],[366.9,374.3],[377.8,376.8],[411.3,378.4],[433.5,385.6],[442.1,378.4],[445.3,370.0],[447.8,336.9],[450.2,330.6],[456.3,324.3],[456.2,311.9],[449.9,294.2],[451.6,284.0],[466.7,279.8]]]}},{"type":"Feature","id":"TT.PD","properties":{"name":"Penal-Debe","country_code":"tt","country_es":"Trinidad y Tobago","hc_key":"tt-pd"},"geometry":{"type":"Polygon","coordinates":[[[327.0,-21.6],[297.2,-19.1],[230.7,-24.8],[229.9,-24.6],[233.6,4.5],[236.3,13.0],[240.3,19.7],[249.9,31.1],[253.5,38.7],[256.6,53.1],[256.9,66.6],[250.7,79.4],[241.0,85.4],[219.7,103.9],[216.3,109.0],[227.3,109.5],[236.1,113.0],[240.3,116.3],[241.1,115.3],[277.8,124.2],[316.6,107.6],[325.2,99.8],[331.3,91.8],[327.0,-21.6]]]}},{"type":"Feature","id":"TT.PF","properties":{"name":"Point Fortin","country_code":"tt","country_es":"Trinidad y Tobago","hc_key":"tt-pf"},"geometry":{"type":"Polygon","coordinates":[[[71.7,50.2],[101.4,64.6],[124.4,85.1],[129.9,79.1],[132.0,75.3],[131.1,71.1],[116.4,49.5],[99.9,35.5],[91.1,32.5],[83.7,31.8],[71.7,50.2]]]}}]}