{"type":"FeatureCollection","features":[{"type":"Feature","properties":{"name":"Salto","country_code":"uy","country_es":"Uruguay"},"geometry":{"type":"Polygon","coordinates":[[[-56.017307,-31.074012],[-56.010987,-31.082297],[-56.009407,-31.081809],[-56.036796,-31.160273],[-56.055758,-31.19585],[-56.078407,-31.210958],[-56.148461,-31.228502],[-56.186912,-31.257256],[-56.157942,-31.304529],[-56.187438,-31.395177],[-56.226416,-31.430754],[-56.262233,-31.449273],[-56.284355,-31.485337],[-56.321225,-31.519452],[-56.353882,-31.599865],[-56.337027,-31.625207],[-56.319645,-31.723653],[-56.321752,-31.751432],[-56.374424,-31.763128],[-56.441845,-31.832332],[-56.462387,-31.864985],[-56.509265,-31.870833],[-56.580372,-31.852314],[-56.65148,-31.845978],[-56.702045,-31.818686],[-56.763144,-31.815275],[-56.841099,-31.793344],[-56.928008,-31.809427],[-57.003856,-31.791395],[-57.068116,-31.809427],[-57.177147,-31.794806],[-57.225079,-31.765077],[-57.304087,-31.745583],[-57.347805,-31.719754],[-57.369927,-31.690513],[-57.455783,-31.675405],[-57.595364,-31.610587],[-57.742846,-31.582808],[-57.759701,-31.57501],[-57.796044,-31.512142],[-57.861885,-31.480951],[-57.906656,-31.470717],[-57.943526,-31.478514],[-57.955114,-31.500932],[-58.004626,-31.496546],[-58.038863,-31.50873],[-58.075207,-31.475103],[-58.062565,-31.4444],[-57.990404,-31.399076],[-57.966175,-31.314764],[-57.935625,-31.289909],[-57.905076,-31.241174],[-57.911923,-31.170995],[-57.898755,-31.126158],[-57.855564,-31.058904],[-57.863465,-31.012605],[-57.911923,-30.9473],[-57.885587,-30.919034],[-57.807106,-30.907824],[-57.794991,-30.857627],[-57.799205,-30.791347],[-57.763388,-30.752359],[-57.701235,-30.76503],[-57.636448,-30.806942],[-57.572188,-30.863475],[-57.478958,-30.875659],[-57.423653,-30.911236],[-57.291446,-30.972155],[-57.244041,-30.985313],[-57.174514,-31.039897],[-57.131849,-31.062803],[-57.071276,-31.07791],[-57.043887,-31.074499],[-57.000169,-31.049644],[-56.910626,-31.043796],[-56.796855,-31.061828],[-56.710999,-31.052568],[-56.678869,-31.041846],[-56.619876,-30.999934],[-56.565624,-30.98775],[-56.480295,-30.938528],[-56.450799,-30.893691],[-56.415509,-30.886868],[-56.341768,-30.907337],[-56.183225,-30.937553],[-56.139507,-30.96387],[-56.106323,-31.003833],[-56.017307,-31.074012]]]}},{"type":"Feature","properties":{"name":"Soriano","country_code":"uy","country_es":"Uruguay"},"geometry":{"type":"Polygon","coordinates":[[[-58.415468,-33.875801],[-58.43443,-33.785154],[-58.439171,-33.698405],[-58.426003,-33.613118],[-58.438117,-33.551712],[-58.43285,-33.527832],[-58.385445,-33.470324],[-58.391766,-33.424513],[-58.295903,-33.376752],[-58.24165,-33.317783],[-58.223215,-33.308036],[-58.135779,-33.307548],[-58.131039,-33.252965],[-58.083634,-33.218363],[-58.03939,-33.246629],[-58.028328,-33.205204],[-58.049924,-33.187659],[-58.060458,-33.144285],[-58.033596,-33.126253],[-57.965122,-33.131127],[-57.959855,-33.095062],[-57.905076,-33.075081],[-57.868732,-33.044378],[-57.832915,-33.042428],[-57.777609,-33.060948],[-57.744426,-33.054125],[-57.650669,-33.084828],[-57.630654,-33.081417],[-57.613272,-33.051688],[-57.546379,-33.025371],[-57.503187,-33.024396],[-57.45947,-33.04389],[-57.439981,-33.091164],[-57.384675,-33.075081],[-57.30514,-33.09555],[-57.281965,-33.146722],[-57.240354,-33.115531],[-57.228239,-33.153057],[-57.206117,-33.155494],[-57.127109,-33.122842],[-57.147124,-33.163779],[-57.336744,-33.354821],[-57.344644,-33.39186],[-57.298293,-33.429874],[-57.286705,-33.472761],[-57.266163,-33.499565],[-57.258789,-33.541477],[-57.226659,-33.576079],[-57.173987,-33.597036],[-57.160819,-33.616042],[-57.170827,-33.641872],[-57.185575,-33.739343],[-57.183468,-33.758837],[-57.130269,-33.842661],[-57.103406,-33.931359],[-57.077597,-33.963037],[-57.181888,-33.949391],[-57.292499,-33.94598],[-57.33411,-33.918201],[-57.393103,-33.895783],[-57.565867,-33.935258],[-57.654356,-33.938182],[-57.790777,-33.898707],[-57.850297,-33.862155],[-57.994092,-33.862155],[-58.03939,-33.803673],[-58.152635,-33.779793],[-58.185818,-33.78223],[-58.279048,-33.835838],[-58.369117,-33.867029],[-58.415468,-33.875801]]]}},{"type":"Feature","properties":{"name":"Cerro Largo","country_code":"uy","country_es":"Uruguay"},"geometry":{"type":"Polygon","coordinates":[[[-54.467694,-31.664196],[-54.274387,-31.823072],[-54.219082,-31.8567],[-54.16957,-31.895688],[-54.134806,-31.908846],[-54.10689,-31.883991],[-54.068966,-31.880093],[-54.032623,-31.898125],[-53.998912,-31.929803],[-53.934126,-31.942474],[-53.894095,-31.969766],[-53.881454,-32.001443],[-53.830362,-32.036533],[-53.771896,-32.047255],[-53.751353,-32.068698],[-53.749773,-32.104275],[-53.72133,-32.16227],[-53.670765,-32.2266],[-53.65233,-32.288007],[-53.648643,-32.338691],[-53.561207,-32.449808],[-53.474298,-32.507803],[-53.415832,-32.563848],[-53.359473,-32.580418],[-53.315755,-32.602349],[-53.26677,-32.607223],[-53.201457,-32.637438],[-53.172487,-32.658882],[-53.180915,-32.704206],[-53.26361,-32.744656],[-53.352099,-32.752454],[-53.312068,-32.777796],[-53.380015,-32.789492],[-53.420573,-32.772922],[-53.474825,-32.767562],[-53.500108,-32.750017],[-53.607559,-32.761226],[-53.667078,-32.75489],[-53.834049,-32.765612],[-53.868286,-32.755865],[-53.931492,-32.712491],[-53.968363,-32.708105],[-53.996279,-32.721263],[-54.03631,-32.760739],[-54.025775,-32.793879],[-54.045264,-32.798752],[-54.130066,-32.756352],[-54.286502,-32.731498],[-54.315998,-32.714928],[-54.410808,-32.750017],[-54.495084,-32.75489],[-54.52142,-32.78803],[-54.564084,-32.790467],[-54.596741,-32.82117],[-54.684176,-32.814347],[-54.730528,-32.83043],[-54.819544,-32.838228],[-54.878537,-32.86357],[-54.924888,-32.899634],[-55.007056,-32.940084],[-55.027599,-32.96299],[-55.010217,-33.024884],[-55.061835,-33.019036],[-55.159279,-33.017573],[-55.177714,-32.997592],[-55.272524,-32.945933],[-55.320982,-32.890862],[-55.315715,-32.831405],[-55.344685,-32.776334],[-55.312028,-32.757327],[-55.308341,-32.736858],[-55.335204,-32.667654],[-55.3036,-32.572621],[-55.307814,-32.526809],[-55.328356,-32.494157],[-55.23934,-32.459067],[-55.205104,-32.457118],[-55.10608,-32.484897],[-55.039713,-32.468815],[-54.992308,-32.431288],[-54.956491,-32.388401],[-54.921201,-32.379629],[-54.896972,-32.349413],[-54.839559,-32.310425],[-54.800582,-32.238297],[-54.814803,-32.205157],[-54.801109,-32.171042],[-54.769505,-32.135465],[-54.755811,-32.101838],[-54.691024,-32.129617],[-54.65468,-32.122794],[-54.589367,-32.109636],[-54.571458,-32.076496],[-54.581466,-32.0609],[-54.546176,-32.032147],[-54.543542,-32.002906],[-54.58884,-31.985361],[-54.554603,-31.943936],[-54.504565,-31.842567],[-54.504038,-31.800654],[-54.520366,-31.732425],[-54.467694,-31.664196]]]}},{"type":"Feature","properties":{"name":"Durazno","country_code":"uy","country_es":"Uruguay"},"geometry":{"type":"Polygon","coordinates":[[[-55.328356,-32.494157],[-55.307814,-32.526809],[-55.3036,-32.572621],[-55.335204,-32.667654],[-55.308341,-32.736858],[-55.312028,-32.757327],[-55.344685,-32.776334],[-55.315715,-32.831405],[-55.320982,-32.890862],[-55.272524,-32.945933],[-55.177714,-32.997592],[-55.159279,-33.017573],[-55.061835,-33.019036],[-55.010217,-33.024884],[-55.03866,-33.057536],[-55.094492,-33.08824],[-55.111347,-33.118455],[-55.178768,-33.151108],[-55.258302,-33.207641],[-55.3036,-33.196432],[-55.403151,-33.241756],[-55.431594,-33.270509],[-55.622267,-33.361157],[-55.644916,-33.368955],[-55.717603,-33.367005],[-55.768168,-33.402582],[-55.829795,-33.426462],[-55.885627,-33.435235],[-55.935666,-33.422563],[-56.022048,-33.433772],[-56.049964,-33.469349],[-56.095262,-33.492742],[-56.172163,-33.477634],[-56.248011,-33.476172],[-56.271187,-33.435235],[-56.294363,-33.427437],[-56.355462,-33.429874],[-56.411295,-33.401607],[-56.419196,-33.408918],[-56.415509,-33.469349],[-56.453959,-33.497128],[-56.532967,-33.495179],[-56.558777,-33.464963],[-56.566151,-33.420127],[-56.680976,-33.298776],[-56.736808,-33.281231],[-56.808442,-33.272459],[-56.84742,-33.24273],[-56.859534,-33.207154],[-56.883237,-33.192533],[-56.973833,-33.177425],[-57.028085,-33.184248],[-57.08023,-33.162317],[-57.127109,-33.122842],[-57.130269,-33.075081],[-57.179254,-33.065334],[-57.118681,-33.02001],[-57.082864,-33.006364],[-57.023871,-33.024396],[-56.969092,-33.025371],[-56.985421,-32.993693],[-56.932222,-32.986383],[-56.915367,-32.959091],[-56.87797,-32.984921],[-56.863748,-32.976148],[-56.863748,-32.938135],[-56.81529,-32.933749],[-56.804755,-32.888912],[-56.782106,-32.870393],[-56.734701,-32.862595],[-56.703625,-32.843589],[-56.667281,-32.843101],[-56.637258,-32.858209],[-56.582479,-32.835791],[-56.470814,-32.830917],[-56.42815,-32.859671],[-56.407081,-32.861133],[-56.361256,-32.814347],[-56.295416,-32.82312],[-56.224836,-32.822632],[-56.218515,-32.793391],[-56.16953,-32.726137],[-56.083674,-32.707617],[-56.014147,-32.700307],[-55.927238,-32.614533],[-55.88194,-32.602349],[-55.830321,-32.63354],[-55.792924,-32.608197],[-55.772909,-32.570184],[-55.779756,-32.525835],[-55.748153,-32.522423],[-55.710756,-32.547766],[-55.675992,-32.539481],[-55.649656,-32.496594],[-55.564327,-32.510727],[-55.521136,-32.503417],[-55.495854,-32.444934],[-55.471098,-32.42739],[-55.445288,-32.438111],[-55.430013,-32.471251],[-55.359433,-32.498543],[-55.328356,-32.494157]]]}},{"type":"Feature","properties":{"name":"Rivera","country_code":"uy","country_es":"Uruguay"},"geometry":{"type":"Polygon","coordinates":[[[-56.157942,-31.304529],[-56.186912,-31.257256],[-56.148461,-31.228502],[-56.078407,-31.210958],[-56.055758,-31.19585],[-56.036796,-31.160273],[-56.009407,-31.081809],[-55.919337,-31.082297],[-55.864032,-31.076448],[-55.763428,-31.008706],[-55.731825,-30.945351],[-55.665984,-30.949249],[-55.652816,-30.939015],[-55.654923,-30.879071],[-55.633854,-30.847393],[-55.591717,-30.848367],[-55.563801,-30.876634],[-55.527457,-30.894666],[-55.442655,-30.965332],[-55.353639,-31.05598],[-55.337837,-31.125184],[-55.293593,-31.15345],[-55.259883,-31.228502],[-55.227753,-31.253357],[-55.169287,-31.276263],[-55.121882,-31.313789],[-55.087118,-31.32646],[-55.029705,-31.268953],[-54.969659,-31.341081],[-54.94069,-31.365936],[-54.900132,-31.382018],[-54.863262,-31.417595],[-54.82007,-31.435627],[-54.654153,-31.456096],[-54.619916,-31.455609],[-54.591474,-31.471204],[-54.562504,-31.51604],[-54.509305,-31.552104],[-54.483496,-31.583782],[-54.467694,-31.664196],[-54.520366,-31.732425],[-54.504038,-31.800654],[-54.504565,-31.842567],[-54.554603,-31.943936],[-54.58884,-31.985361],[-54.543542,-32.002906],[-54.546176,-32.032147],[-54.581466,-32.0609],[-54.571458,-32.076496],[-54.589367,-32.109636],[-54.65468,-32.122794],[-54.701032,-32.060413],[-54.795841,-31.968791],[-54.812696,-31.942474],[-54.887491,-31.875219],[-54.965445,-31.848902],[-55.042347,-31.843054],[-55.100286,-31.823072],[-55.250402,-31.818686],[-55.347845,-31.798217],[-55.503754,-31.806502],[-55.558533,-31.79773],[-55.602251,-31.806015],[-55.645442,-31.767514],[-55.661244,-31.699285],[-55.646496,-31.64129],[-55.671252,-31.57501],[-55.739199,-31.54918],[-55.786604,-31.515066],[-55.815047,-31.457558],[-55.815047,-31.420519],[-55.830848,-31.387379],[-55.857184,-31.36691],[-55.97675,-31.317688],[-56.058918,-31.26213],[-56.097369,-31.256281],[-56.134239,-31.272851],[-56.157942,-31.304529]]]}},{"type":"Feature","properties":{"name":"Tacuarembó","country_code":"uy","country_es":"Uruguay"},"geometry":{"type":"Polygon","coordinates":[[[-54.65468,-32.122794],[-54.691024,-32.129617],[-54.755811,-32.101838],[-54.769505,-32.135465],[-54.801109,-32.171042],[-54.814803,-32.205157],[-54.800582,-32.238297],[-54.839559,-32.310425],[-54.896972,-32.349413],[-54.921201,-32.379629],[-54.956491,-32.388401],[-54.992308,-32.431288],[-55.039713,-32.468815],[-55.10608,-32.484897],[-55.205104,-32.457118],[-55.23934,-32.459067],[-55.328356,-32.494157],[-55.359433,-32.498543],[-55.430013,-32.471251],[-55.445288,-32.438111],[-55.471098,-32.42739],[-55.495854,-32.444934],[-55.521136,-32.503417],[-55.564327,-32.510727],[-55.649656,-32.496594],[-55.675992,-32.539481],[-55.710756,-32.547766],[-55.748153,-32.522423],[-55.779756,-32.525835],[-55.772909,-32.570184],[-55.792924,-32.608197],[-55.830321,-32.63354],[-55.88194,-32.602349],[-55.927238,-32.614533],[-56.014147,-32.700307],[-56.083674,-32.707617],[-56.16953,-32.726137],[-56.218515,-32.793391],[-56.224836,-32.822632],[-56.295416,-32.82312],[-56.361256,-32.814347],[-56.407081,-32.861133],[-56.42815,-32.859671],[-56.470814,-32.830917],[-56.582479,-32.835791],[-56.637258,-32.858209],[-56.667281,-32.843101],[-56.630411,-32.750017],[-56.629357,-32.699332],[-56.599334,-32.66473],[-56.564044,-32.538019],[-56.559303,-32.492695],[-56.505578,-32.356236],[-56.488723,-32.334793],[-56.422356,-32.288494],[-56.358623,-32.231961],[-56.322806,-32.1033],[-56.294889,-32.042381],[-56.284355,-31.933214],[-56.244851,-31.906897],[-56.279615,-31.855238],[-56.279615,-31.803578],[-56.321752,-31.751432],[-56.319645,-31.723653],[-56.337027,-31.625207],[-56.353882,-31.599865],[-56.321225,-31.519452],[-56.284355,-31.485337],[-56.262233,-31.449273],[-56.226416,-31.430754],[-56.187438,-31.395177],[-56.157942,-31.304529],[-56.134239,-31.272851],[-56.097369,-31.256281],[-56.058918,-31.26213],[-55.97675,-31.317688],[-55.857184,-31.36691],[-55.830848,-31.387379],[-55.815047,-31.420519],[-55.815047,-31.457558],[-55.786604,-31.515066],[-55.739199,-31.54918],[-55.671252,-31.57501],[-55.646496,-31.64129],[-55.661244,-31.699285],[-55.645442,-31.767514],[-55.602251,-31.806015],[-55.558533,-31.79773],[-55.503754,-31.806502],[-55.347845,-31.798217],[-55.250402,-31.818686],[-55.100286,-31.823072],[-55.042347,-31.843054],[-54.965445,-31.848902],[-54.887491,-31.875219],[-54.812696,-31.942474],[-54.795841,-31.968791],[-54.701032,-32.060413],[-54.65468,-32.122794]]]}},{"type":"Feature","properties":{"name":"Treinta y Tres","country_code":"uy","country_es":"Uruguay"},"geometry":{"type":"Polygon","coordinates":[[[-53.312068,-32.777796],[-53.286259,-32.825069],[-53.292053,-32.861133],[-53.327343,-32.876729],[-53.306801,-32.896223],[-53.348939,-32.916204],[-53.331557,-32.952268],[-53.447435,-32.944958],[-53.497474,-32.971275],[-53.578589,-33.076056],[-53.595971,-33.08824],[-53.604398,-33.041454],[-53.622834,-33.057536],[-53.613879,-33.099936],[-53.636528,-33.108708],[-53.615986,-33.143798],[-53.6892,-33.170115],[-53.768735,-33.189122],[-53.797705,-33.237857],[-53.846163,-33.262712],[-53.895675,-33.315833],[-53.963622,-33.346049],[-53.988905,-33.390398],[-54.057378,-33.438646],[-54.109524,-33.449855],[-54.125325,-33.46545],[-54.23383,-33.418665],[-54.286502,-33.353847],[-54.354449,-33.357258],[-54.408701,-33.387474],[-54.443465,-33.434747],[-54.504565,-33.448393],[-54.571985,-33.430361],[-54.603061,-33.414278],[-54.714726,-33.395759],[-54.776879,-33.35141],[-54.835345,-33.337764],[-54.906453,-33.365056],[-54.941216,-33.365056],[-54.999156,-33.34215],[-55.056568,-33.350435],[-55.124515,-33.381626],[-55.148218,-33.343612],[-55.10766,-33.298776],[-55.091332,-33.252477],[-55.111347,-33.118455],[-55.094492,-33.08824],[-55.03866,-33.057536],[-55.010217,-33.024884],[-55.027599,-32.96299],[-55.007056,-32.940084],[-54.924888,-32.899634],[-54.878537,-32.86357],[-54.819544,-32.838228],[-54.730528,-32.83043],[-54.684176,-32.814347],[-54.596741,-32.82117],[-54.564084,-32.790467],[-54.52142,-32.78803],[-54.495084,-32.75489],[-54.410808,-32.750017],[-54.315998,-32.714928],[-54.286502,-32.731498],[-54.130066,-32.756352],[-54.045264,-32.798752],[-54.025775,-32.793879],[-54.03631,-32.760739],[-53.996279,-32.721263],[-53.968363,-32.708105],[-53.931492,-32.712491],[-53.868286,-32.755865],[-53.834049,-32.765612],[-53.667078,-32.75489],[-53.607559,-32.761226],[-53.500108,-32.750017],[-53.474825,-32.767562],[-53.420573,-32.772922],[-53.380015,-32.789492],[-53.312068,-32.777796]]]}},{"type":"Feature","properties":{"name":"Canelones","country_code":"uy","country_es":"Uruguay"},"geometry":{"type":"Polygon","coordinates":[[[-55.373654,-34.803233],[-55.467937,-34.795435],[-55.509548,-34.798847],[-55.601725,-34.77253],[-55.646496,-34.781302],[-55.693901,-34.764732],[-55.756581,-34.782764],[-55.791871,-34.773992],[-55.889314,-34.803233],[-56.038376,-34.885596],[-56.052598,-34.848069],[-56.035743,-34.779353],[-56.075247,-34.774967],[-56.120018,-34.7467],[-56.132659,-34.726231],[-56.183225,-34.73939],[-56.202713,-34.758397],[-56.232736,-34.761321],[-56.280668,-34.720383],[-56.312798,-34.713073],[-56.364417,-34.734516],[-56.386539,-34.709174],[-56.455013,-34.667749],[-56.471868,-34.596596],[-56.398127,-34.527392],[-56.407608,-34.487429],[-56.401287,-34.432845],[-56.373898,-34.366565],[-56.303844,-34.351945],[-56.268027,-34.357306],[-56.223782,-34.377774],[-56.13582,-34.364616],[-56.106323,-34.31052],[-56.087888,-34.293462],[-55.998345,-34.24424],[-55.955154,-34.249601],[-55.901956,-34.271044],[-55.839802,-34.264709],[-55.744466,-34.222309],[-55.619106,-34.207688],[-55.578549,-34.330988],[-55.536938,-34.395806],[-55.532724,-34.419199],[-55.544312,-34.499612],[-55.495327,-34.553709],[-55.473205,-34.594159],[-55.473205,-34.621938],[-55.458456,-34.650204],[-55.413158,-34.694066],[-55.418426,-34.734029],[-55.385242,-34.773992],[-55.373654,-34.803233]]]}},{"type":"Feature","properties":{"name":"Florida","country_code":"uy","country_es":"Uruguay"},"geometry":{"type":"Polygon","coordinates":[[[-55.619106,-34.207688],[-55.744466,-34.222309],[-55.839802,-34.264709],[-55.901956,-34.271044],[-55.955154,-34.249601],[-55.998345,-34.24424],[-56.087888,-34.293462],[-56.106323,-34.31052],[-56.13582,-34.364616],[-56.223782,-34.377774],[-56.268027,-34.357306],[-56.303844,-34.351945],[-56.373898,-34.366565],[-56.401287,-34.432845],[-56.468707,-34.365103],[-56.457119,-34.336837],[-56.424463,-34.307108],[-56.420249,-34.240828],[-56.444478,-34.17796],[-56.418669,-34.121427],[-56.418669,-34.055634],[-56.448692,-33.934771],[-56.462387,-33.902606],[-56.427096,-33.85582],[-56.421829,-33.763223],[-56.46028,-33.695968],[-56.517692,-33.521983],[-56.532967,-33.495179],[-56.453959,-33.497128],[-56.415509,-33.469349],[-56.419196,-33.408918],[-56.411295,-33.401607],[-56.355462,-33.429874],[-56.294363,-33.427437],[-56.271187,-33.435235],[-56.248011,-33.476172],[-56.172163,-33.477634],[-56.095262,-33.492742],[-56.049964,-33.469349],[-56.022048,-33.433772],[-55.935666,-33.422563],[-55.885627,-33.435235],[-55.829795,-33.426462],[-55.768168,-33.402582],[-55.717603,-33.367005],[-55.644916,-33.368955],[-55.622267,-33.361157],[-55.431594,-33.270509],[-55.403151,-33.241756],[-55.3036,-33.196432],[-55.258302,-33.207641],[-55.178768,-33.151108],[-55.111347,-33.118455],[-55.091332,-33.252477],[-55.10766,-33.298776],[-55.148218,-33.343612],[-55.124515,-33.381626],[-55.109767,-33.440108],[-55.141897,-33.477634],[-55.20089,-33.503464],[-55.230386,-33.563896],[-55.268837,-33.591187],[-55.321509,-33.610194],[-55.328356,-33.650157],[-55.292013,-33.707665],[-55.298333,-33.758349],[-55.336257,-33.832914],[-55.347318,-33.880187],[-55.39209,-33.910891],[-55.413158,-33.950366],[-55.447922,-33.987405],[-55.454243,-34.024444],[-55.513235,-34.071717],[-55.550633,-34.133123],[-55.619106,-34.207688]]]}},{"type":"Feature","properties":{"name":"Lavalleja","country_code":"uy","country_es":"Uruguay"},"geometry":{"type":"Polygon","coordinates":[[[-55.473205,-34.621938],[-55.473205,-34.594159],[-55.495327,-34.553709],[-55.544312,-34.499612],[-55.532724,-34.419199],[-55.536938,-34.395806],[-55.578549,-34.330988],[-55.619106,-34.207688],[-55.550633,-34.133123],[-55.513235,-34.071717],[-55.454243,-34.024444],[-55.447922,-33.987405],[-55.413158,-33.950366],[-55.39209,-33.910891],[-55.347318,-33.880187],[-55.336257,-33.832914],[-55.298333,-33.758349],[-55.292013,-33.707665],[-55.328356,-33.650157],[-55.321509,-33.610194],[-55.268837,-33.591187],[-55.230386,-33.563896],[-55.20089,-33.503464],[-55.141897,-33.477634],[-55.109767,-33.440108],[-55.124515,-33.381626],[-55.056568,-33.350435],[-54.999156,-33.34215],[-54.941216,-33.365056],[-54.906453,-33.365056],[-54.835345,-33.337764],[-54.776879,-33.35141],[-54.714726,-33.395759],[-54.603061,-33.414278],[-54.571985,-33.430361],[-54.504565,-33.448393],[-54.443465,-33.434747],[-54.408701,-33.387474],[-54.354449,-33.357258],[-54.286502,-33.353847],[-54.23383,-33.418665],[-54.125325,-33.46545],[-54.143234,-33.47666],[-54.208547,-33.487381],[-54.229616,-33.549275],[-54.26754,-33.577541],[-54.347602,-33.61653],[-54.369197,-33.636511],[-54.383419,-33.672575],[-54.373411,-33.729595],[-54.415549,-33.800262],[-54.427663,-33.864592],[-54.481916,-33.925999],[-54.524053,-33.952316],[-54.574092,-34.039552],[-54.646253,-34.05271],[-54.68997,-34.072204],[-54.740536,-34.13556],[-54.78004,-34.20184],[-54.781093,-34.256911],[-54.81375,-34.294437],[-54.844826,-34.392882],[-54.901186,-34.422123],[-54.983354,-34.44308],[-55.083431,-34.511796],[-55.16718,-34.517644],[-55.280951,-34.596596],[-55.338364,-34.615602],[-55.473205,-34.621938]]]}},{"type":"Feature","properties":{"name":"Maldonado","country_code":"uy","country_es":"Uruguay"},"geometry":{"type":"Polygon","coordinates":[[[-54.530901,-34.806645],[-54.604115,-34.826139],[-54.636772,-34.848557],[-54.699451,-34.867564],[-54.872743,-34.93628],[-54.913827,-34.945053],[-54.939636,-34.969908],[-54.975453,-34.928483],[-55.033393,-34.916786],[-55.040767,-34.897779],[-55.082378,-34.884134],[-55.129782,-34.886083],[-55.221959,-34.903628],[-55.260409,-34.897292],[-55.338364,-34.818828],[-55.373654,-34.803233],[-55.385242,-34.773992],[-55.418426,-34.734029],[-55.413158,-34.694066],[-55.458456,-34.650204],[-55.473205,-34.621938],[-55.338364,-34.615602],[-55.280951,-34.596596],[-55.16718,-34.517644],[-55.083431,-34.511796],[-54.983354,-34.44308],[-54.901186,-34.422123],[-54.844826,-34.392882],[-54.81375,-34.294437],[-54.781093,-34.256911],[-54.78004,-34.20184],[-54.740536,-34.13556],[-54.68997,-34.072204],[-54.646253,-34.05271],[-54.574092,-34.039552],[-54.524053,-33.952316],[-54.481916,-33.925999],[-54.460847,-34.09511],[-54.481916,-34.145795],[-54.49245,-34.201353],[-54.483496,-34.302722],[-54.49245,-34.390933],[-54.526687,-34.396781],[-54.538275,-34.440643],[-54.518786,-34.515208],[-54.498771,-34.546398],[-54.524053,-34.60683],[-54.535114,-34.655078],[-54.533008,-34.695041],[-54.517206,-34.743776],[-54.532481,-34.772042],[-54.530901,-34.806645]]]}},{"type":"Feature","properties":{"name":"Montevideo","country_code":"uy","country_es":"Uruguay"},"geometry":{"type":"Polygon","coordinates":[[[-56.038376,-34.885596],[-56.069453,-34.900704],[-56.104743,-34.898267],[-56.150041,-34.920198],[-56.155835,-34.941154],[-56.177431,-34.916299],[-56.213248,-34.908014],[-56.203767,-34.887545],[-56.230629,-34.877798],[-56.256439,-34.906064],[-56.311218,-34.906064],[-56.402867,-34.854892],[-56.420776,-34.828088],[-56.364417,-34.793486],[-56.354409,-34.769606],[-56.364417,-34.734516],[-56.312798,-34.713073],[-56.280668,-34.720383],[-56.232736,-34.761321],[-56.202713,-34.758397],[-56.183225,-34.73939],[-56.132659,-34.726231],[-56.120018,-34.7467],[-56.075247,-34.774967],[-56.035743,-34.779353],[-56.052598,-34.848069],[-56.038376,-34.885596]]]}},{"type":"Feature","properties":{"name":"Rocha","country_code":"uy","country_es":"Uruguay"},"geometry":{"type":"Polygon","coordinates":[[[-54.530901,-34.806645],[-54.532481,-34.772042],[-54.517206,-34.743776],[-54.533008,-34.695041],[-54.535114,-34.655078],[-54.524053,-34.60683],[-54.498771,-34.546398],[-54.518786,-34.515208],[-54.538275,-34.440643],[-54.526687,-34.396781],[-54.49245,-34.390933],[-54.483496,-34.302722],[-54.49245,-34.201353],[-54.481916,-34.145795],[-54.460847,-34.09511],[-54.481916,-33.925999],[-54.427663,-33.864592],[-54.415549,-33.800262],[-54.373411,-33.729595],[-54.383419,-33.672575],[-54.369197,-33.636511],[-54.347602,-33.61653],[-54.26754,-33.577541],[-54.229616,-33.549275],[-54.208547,-33.487381],[-54.143234,-33.47666],[-54.125325,-33.46545],[-54.109524,-33.449855],[-54.057378,-33.438646],[-53.988905,-33.390398],[-53.963622,-33.346049],[-53.895675,-33.315833],[-53.846163,-33.262712],[-53.797705,-33.237857],[-53.768735,-33.189122],[-53.6892,-33.170115],[-53.615986,-33.143798],[-53.616513,-33.162317],[-53.645483,-33.187659],[-53.640215,-33.217875],[-53.609139,-33.257351],[-53.565421,-33.273434],[-53.59281,-33.33484],[-53.560154,-33.363594],[-53.58649,-33.418665],[-53.585436,-33.45083],[-53.549093,-33.504439],[-53.536451,-33.559997],[-53.539612,-33.649182],[-53.511169,-33.690607],[-53.45639,-33.687683],[-53.411092,-33.742267],[-53.378962,-33.740805],[-53.414779,-33.764685],[-53.473245,-33.834864],[-53.539612,-34.062457],[-53.59123,-34.095597],[-53.640215,-34.147257],[-53.711323,-34.198916],[-53.758728,-34.278354],[-53.779796,-34.335862],[-53.765048,-34.390445],[-53.806132,-34.40068],[-53.898309,-34.444054],[-53.972576,-34.486941],[-54.124799,-34.610729],[-54.145868,-34.667262],[-54.259639,-34.685781],[-54.23225,-34.658002],[-54.252792,-34.63071],[-54.23857,-34.589773],[-54.280181,-34.567842],[-54.32864,-34.561506],[-54.280181,-34.581975],[-54.304411,-34.608292],[-54.344968,-34.630223],[-54.337594,-34.654591],[-54.307571,-34.64728],[-54.280181,-34.68237],[-54.306517,-34.707712],[-54.530901,-34.806645]]]}},{"type":"Feature","properties":{"name":"Colonia","country_code":"uy","country_es":"Uruguay"},"geometry":{"type":"Polygon","coordinates":[[[-57.167666,-34.44844],[-57.202956,-34.442105],[-57.346751,-34.443567],[-57.365187,-34.430408],[-57.411538,-34.431383],[-57.436821,-34.444542],[-57.474218,-34.429434],[-57.537424,-34.453801],[-57.569554,-34.42651],[-57.623807,-34.430408],[-57.763914,-34.47427],[-57.855564,-34.471346],[-57.853984,-34.447953],[-57.8819,-34.440643],[-57.899808,-34.416275],[-57.897702,-34.376312],[-58.017267,-34.253012],[-58.049397,-34.239854],[-58.077313,-34.192093],[-58.118924,-34.169187],[-58.195826,-34.15944],[-58.231643,-34.088774],[-58.316445,-33.98643],[-58.372804,-33.954265],[-58.402827,-33.922587],[-58.415468,-33.875801],[-58.369117,-33.867029],[-58.279048,-33.835838],[-58.185818,-33.78223],[-58.152635,-33.779793],[-58.03939,-33.803673],[-57.994092,-33.862155],[-57.850297,-33.862155],[-57.790777,-33.898707],[-57.654356,-33.938182],[-57.565867,-33.935258],[-57.393103,-33.895783],[-57.33411,-33.918201],[-57.292499,-33.94598],[-57.181888,-33.949391],[-57.077597,-33.963037],[-57.04652,-34.032241],[-57.017551,-34.046375],[-56.948024,-34.127762],[-56.941703,-34.147257],[-56.996482,-34.189656],[-57.051261,-34.205739],[-57.090765,-34.227182],[-57.102879,-34.267633],[-57.07391,-34.30857],[-57.097612,-34.353894],[-57.10604,-34.404091],[-57.167666,-34.44844]]]}},{"type":"Feature","properties":{"name":"San José","country_code":"uy","country_es":"Uruguay"},"geometry":{"type":"Polygon","coordinates":[[[-56.462387,-33.902606],[-56.448692,-33.934771],[-56.418669,-34.055634],[-56.418669,-34.121427],[-56.444478,-34.17796],[-56.420249,-34.240828],[-56.424463,-34.307108],[-56.457119,-34.336837],[-56.468707,-34.365103],[-56.401287,-34.432845],[-56.407608,-34.487429],[-56.398127,-34.527392],[-56.471868,-34.596596],[-56.455013,-34.667749],[-56.386539,-34.709174],[-56.364417,-34.734516],[-56.354409,-34.769606],[-56.364417,-34.793486],[-56.376004,-34.782764],[-56.448165,-34.758397],[-56.520326,-34.754985],[-56.541922,-34.767169],[-56.574052,-34.758884],[-56.646739,-34.72282],[-56.713633,-34.707225],[-56.795274,-34.698452],[-56.873756,-34.670186],[-56.904306,-34.635584],[-57.015971,-34.552247],[-57.057581,-34.527392],[-57.056001,-34.513258],[-57.119735,-34.463061],[-57.167666,-34.44844],[-57.10604,-34.404091],[-57.097612,-34.353894],[-57.07391,-34.30857],[-57.102879,-34.267633],[-57.090765,-34.227182],[-57.051261,-34.205739],[-56.996482,-34.189656],[-56.941703,-34.147257],[-56.948024,-34.127762],[-57.017551,-34.046375],[-57.04652,-34.032241],[-57.077597,-33.963037],[-57.034932,-33.964987],[-56.890611,-33.98838],[-56.820557,-33.966936],[-56.755244,-33.909916],[-56.68677,-33.895295],[-56.643579,-33.877263],[-56.602495,-33.849972],[-56.571945,-33.856307],[-56.462387,-33.902606]]]}},{"type":"Feature","properties":{"name":"Artigas","country_code":"uy","country_es":"Uruguay"},"geometry":{"type":"Polygon","coordinates":[[[-57.799205,-30.791347],[-57.81764,-30.711909],[-57.848716,-30.647578],[-57.885587,-30.590071],[-57.889801,-30.550595],[-57.877159,-30.514531],[-57.84977,-30.48529],[-57.652776,-30.329337],[-57.631181,-30.296684],[-57.62328,-30.258184],[-57.642242,-30.193366],[-57.611692,-30.183131],[-57.586936,-30.204087],[-57.567447,-30.256234],[-57.535844,-30.274266],[-57.443141,-30.269393],[-57.399423,-30.299121],[-57.354125,-30.271829],[-57.296186,-30.293273],[-57.276171,-30.277678],[-57.245094,-30.293273],[-57.212964,-30.287425],[-57.163979,-30.239177],[-57.150811,-30.182644],[-57.102353,-30.121237],[-57.07707,-30.105642],[-57.038093,-30.114415],[-56.954344,-30.09687],[-56.906413,-30.108566],[-56.831091,-30.102231],[-56.795274,-30.123674],[-56.767358,-30.1612],[-56.673602,-30.211398],[-56.632518,-30.247462],[-56.631464,-30.284988],[-56.585639,-30.296197],[-56.524013,-30.357603],[-56.441318,-30.408775],[-56.372317,-30.485777],[-56.326493,-30.508195],[-56.2675,-30.551082],[-56.23537,-30.565216],[-56.183225,-30.614438],[-56.170583,-30.645629],[-56.124759,-30.680231],[-56.076827,-30.752359],[-56.011513,-30.79817],[-55.988864,-30.855678],[-56.011513,-30.912698],[-56.022575,-31.045258],[-56.017307,-31.074012],[-56.106323,-31.003833],[-56.139507,-30.96387],[-56.183225,-30.937553],[-56.341768,-30.907337],[-56.415509,-30.886868],[-56.450799,-30.893691],[-56.480295,-30.938528],[-56.565624,-30.98775],[-56.619876,-30.999934],[-56.678869,-31.041846],[-56.710999,-31.052568],[-56.796855,-31.061828],[-56.910626,-31.043796],[-57.000169,-31.049644],[-57.043887,-31.074499],[-57.071276,-31.07791],[-57.131849,-31.062803],[-57.174514,-31.039897],[-57.244041,-30.985313],[-57.291446,-30.972155],[-57.423653,-30.911236],[-57.478958,-30.875659],[-57.572188,-30.863475],[-57.636448,-30.806942],[-57.701235,-30.76503],[-57.763388,-30.752359],[-57.799205,-30.791347]]]}},{"type":"Feature","properties":{"name":"Flores","country_code":"uy","country_es":"Uruguay"},"geometry":{"type":"Polygon","coordinates":[[[-56.532967,-33.495179],[-56.517692,-33.521983],[-56.46028,-33.695968],[-56.421829,-33.763223],[-56.427096,-33.85582],[-56.462387,-33.902606],[-56.571945,-33.856307],[-56.602495,-33.849972],[-56.643579,-33.877263],[-56.68677,-33.895295],[-56.755244,-33.909916],[-56.820557,-33.966936],[-56.890611,-33.98838],[-57.034932,-33.964987],[-57.077597,-33.963037],[-57.103406,-33.931359],[-57.130269,-33.842661],[-57.183468,-33.758837],[-57.185575,-33.739343],[-57.170827,-33.641872],[-57.160819,-33.616042],[-57.173987,-33.597036],[-57.226659,-33.576079],[-57.258789,-33.541477],[-57.266163,-33.499565],[-57.286705,-33.472761],[-57.298293,-33.429874],[-57.344644,-33.39186],[-57.336744,-33.354821],[-57.147124,-33.163779],[-57.127109,-33.122842],[-57.08023,-33.162317],[-57.028085,-33.184248],[-56.973833,-33.177425],[-56.883237,-33.192533],[-56.859534,-33.207154],[-56.84742,-33.24273],[-56.808442,-33.272459],[-56.736808,-33.281231],[-56.680976,-33.298776],[-56.566151,-33.420127],[-56.558777,-33.464963],[-56.532967,-33.495179]]]}},{"type":"Feature","properties":{"name":"Paysandú","country_code":"uy","country_es":"Uruguay"},"geometry":{"type":"Polygon","coordinates":[[[-56.321752,-31.751432],[-56.279615,-31.803578],[-56.279615,-31.855238],[-56.244851,-31.906897],[-56.284355,-31.933214],[-56.294889,-32.042381],[-56.322806,-32.1033],[-56.358623,-32.231961],[-56.422356,-32.288494],[-56.488723,-32.334793],[-56.505578,-32.356236],[-56.559303,-32.492695],[-56.605128,-32.470277],[-56.670968,-32.425927],[-56.725747,-32.411794],[-56.859534,-32.409845],[-56.927481,-32.404971],[-57.013337,-32.367933],[-57.039673,-32.363059],[-57.102353,-32.390838],[-57.185575,-32.397174],[-57.250888,-32.437137],[-57.286178,-32.445422],[-57.327263,-32.433725],[-57.40153,-32.450295],[-57.470004,-32.445422],[-57.539005,-32.481973],[-57.583249,-32.536069],[-57.757067,-32.558487],[-57.784457,-32.60771],[-57.821327,-32.610147],[-57.909289,-32.602836],[-57.995672,-32.58188],[-58.018847,-32.543379],[-58.080474,-32.497081],[-58.111024,-32.48441],[-58.191612,-32.49172],[-58.200039,-32.444934],[-58.165276,-32.389376],[-58.101543,-32.3114],[-58.10681,-32.251943],[-58.175284,-32.174454],[-58.186345,-32.15301],[-58.158955,-32.101351],[-58.148421,-32.06285],[-58.148947,-31.975126],[-58.158955,-31.943449],[-58.202673,-31.893251],[-58.168963,-31.845978],[-58.130512,-31.827459],[-58.059405,-31.811376],[-58.04887,-31.797243],[-57.988824,-31.642752],[-57.979343,-31.59889],[-57.986717,-31.554541],[-58.038863,-31.50873],[-58.004626,-31.496546],[-57.955114,-31.500932],[-57.943526,-31.478514],[-57.906656,-31.470717],[-57.861885,-31.480951],[-57.796044,-31.512142],[-57.759701,-31.57501],[-57.742846,-31.582808],[-57.595364,-31.610587],[-57.455783,-31.675405],[-57.369927,-31.690513],[-57.347805,-31.719754],[-57.304087,-31.745583],[-57.225079,-31.765077],[-57.177147,-31.794806],[-57.068116,-31.809427],[-57.003856,-31.791395],[-56.928008,-31.809427],[-56.841099,-31.793344],[-56.763144,-31.815275],[-56.702045,-31.818686],[-56.65148,-31.845978],[-56.580372,-31.852314],[-56.509265,-31.870833],[-56.462387,-31.864985],[-56.441845,-31.832332],[-56.374424,-31.763128],[-56.321752,-31.751432]]]}},{"type":"Feature","properties":{"name":"Río Negro","country_code":"uy","country_es":"Uruguay"},"geometry":{"type":"Polygon","coordinates":[[[-56.559303,-32.492695],[-56.564044,-32.538019],[-56.599334,-32.66473],[-56.629357,-32.699332],[-56.630411,-32.750017],[-56.667281,-32.843101],[-56.703625,-32.843589],[-56.734701,-32.862595],[-56.782106,-32.870393],[-56.804755,-32.888912],[-56.81529,-32.933749],[-56.863748,-32.938135],[-56.863748,-32.976148],[-56.87797,-32.984921],[-56.915367,-32.959091],[-56.932222,-32.986383],[-56.985421,-32.993693],[-56.969092,-33.025371],[-57.023871,-33.024396],[-57.082864,-33.006364],[-57.118681,-33.02001],[-57.179254,-33.065334],[-57.130269,-33.075081],[-57.127109,-33.122842],[-57.206117,-33.155494],[-57.228239,-33.153057],[-57.240354,-33.115531],[-57.281965,-33.146722],[-57.30514,-33.09555],[-57.384675,-33.075081],[-57.439981,-33.091164],[-57.45947,-33.04389],[-57.503187,-33.024396],[-57.546379,-33.025371],[-57.613272,-33.051688],[-57.630654,-33.081417],[-57.650669,-33.084828],[-57.744426,-33.054125],[-57.777609,-33.060948],[-57.832915,-33.042428],[-57.868732,-33.044378],[-57.905076,-33.075081],[-57.959855,-33.095062],[-57.965122,-33.131127],[-58.033596,-33.126253],[-58.060458,-33.144285],[-58.049924,-33.187659],[-58.028328,-33.205204],[-58.03939,-33.246629],[-58.083634,-33.218363],[-58.131039,-33.252965],[-58.135779,-33.307548],[-58.223215,-33.308036],[-58.24165,-33.317783],[-58.295903,-33.376752],[-58.391766,-33.424513],[-58.412308,-33.409405],[-58.412835,-33.371391],[-58.361216,-33.32558],[-58.349101,-33.283181],[-58.365957,-33.195944],[-58.36701,-33.154032],[-58.351735,-33.121867],[-58.310124,-33.109196],[-58.174757,-33.11017],[-58.137886,-33.095062],[-58.099962,-33.065334],[-58.076787,-33.030732],[-58.048344,-32.911818],[-58.057298,-32.881602],[-58.120505,-32.819221],[-58.13736,-32.763175],[-58.137886,-32.671066],[-58.157375,-32.575057],[-58.17739,-32.545329],[-58.191612,-32.49172],[-58.111024,-32.48441],[-58.080474,-32.497081],[-58.018847,-32.543379],[-57.995672,-32.58188],[-57.909289,-32.602836],[-57.821327,-32.610147],[-57.784457,-32.60771],[-57.757067,-32.558487],[-57.583249,-32.536069],[-57.539005,-32.481973],[-57.470004,-32.445422],[-57.40153,-32.450295],[-57.327263,-32.433725],[-57.286178,-32.445422],[-57.250888,-32.437137],[-57.185575,-32.397174],[-57.102353,-32.390838],[-57.039673,-32.363059],[-57.013337,-32.367933],[-56.927481,-32.404971],[-56.859534,-32.409845],[-56.725747,-32.411794],[-56.670968,-32.425927],[-56.605128,-32.470277],[-56.559303,-32.492695]]]}}]}