{"type":"FeatureCollection","features":[{"type":"Feature","properties":{"name":"Dependencias Federales","country_code":"ve","country_es":"Venezuela"},"geometry":{"type":"MultiPolygon","coordinates":[[[[-65.245613,10.954411],[-65.204919,10.904769],[-65.316151,10.890915],[-65.411105,10.924395],[-65.377193,10.965955],[-65.306655,10.976345],[-65.245613,10.954411]]],[[[-64.552448,11.82372],[-64.648759,11.830646],[-64.606708,11.899914],[-64.5633,11.867589],[-64.552448,11.82372]]]]}},{"type":"Feature","properties":{"name":"Nueva Esparta","country_code":"ve","country_es":"Venezuela"},"geometry":{"type":"MultiPolygon","coordinates":[[[[-63.908117,10.735063],[-64.004428,10.775469],[-63.977298,10.810103],[-63.902691,10.777778],[-63.908117,10.735063]]],[[[-63.794172,11.000589],[-63.871492,10.937094],[-63.898622,10.885143],[-63.955594,10.894379],[-64.042409,10.867826],[-64.096669,10.890915],[-64.175345,10.96711],[-64.225535,10.939403],[-64.408661,10.96711],[-64.370679,11.061776],[-64.198405,11.088328],[-64.182127,11.034068],[-64.049192,10.991353],[-63.985437,11.109108],[-63.880987,11.178376],[-63.794172,11.000589]]]]}},{"type":"Feature","properties":{"name":"Sucre","country_code":"ve","country_es":"Venezuela"},"geometry":{"type":"MultiPolygon","coordinates":[[[[-62.660149,10.310222],[-62.793085,10.447602],[-62.776807,10.492626],[-62.649297,10.344855],[-62.660149,10.310222]]],[[[-63.948812,10.082793],[-64.045122,10.127817],[-64.153641,10.078175],[-64.247239,10.071248],[-64.347619,10.095492],[-64.43579,10.146288],[-64.456138,10.199393],[-64.536171,10.252499],[-64.491406,10.2398],[-64.377462,10.300986],[-64.469703,10.322921],[-64.365253,10.337929],[-64.33948,10.391034],[-64.142789,10.479927],[-64.027488,10.446448],[-63.943386,10.461456],[-63.819945,10.447602],[-63.65581,10.494935],[-63.729061,10.497244],[-63.847075,10.556122],[-63.966446,10.58152],[-64.168563,10.569975],[-64.248595,10.520333],[-64.297429,10.619617],[-64.270299,10.672722],[-64.240456,10.64617],[-64.130581,10.619617],[-64.072252,10.648479],[-63.914899,10.631162],[-63.847075,10.651942],[-63.819945,10.714283],[-63.780607,10.676186],[-63.653097,10.641552],[-63.531014,10.631162],[-63.465902,10.668104],[-63.251577,10.680804],[-63.160693,10.733909],[-63.148484,10.710819],[-63.014192,10.720055],[-62.904316,10.702738],[-62.719834,10.760461],[-62.154179,10.686576],[-62.102633,10.714283],[-61.981905,10.735063],[-61.934428,10.72121],[-61.8449,10.740835],[-61.962914,10.653096],[-62.089068,10.632316],[-62.239638,10.638088],[-62.334592,10.530724],[-62.441754,10.535341],[-62.662862,10.566512],[-62.896178,10.536496],[-62.841918,10.512252],[-62.831066,10.406042],[-62.964002,10.415278],[-62.955863,10.3564],[-63.004697,10.275588],[-62.927377,10.303295],[-62.95315,10.396806],[-62.8799,10.371408],[-62.801223,10.404887],[-62.736112,10.378335],[-62.67507,10.292905],[-62.67507,10.213247],[-62.626237,10.13128],[-62.657436,10.081638],[-62.793085,10.080484],[-62.828353,10.047005],[-62.964002,10.1105],[-63.012835,10.096646],[-63.063025,10.187849],[-63.113216,10.217865],[-63.18104,10.170532],[-63.40486,10.261734],[-63.476754,10.312531],[-63.55543,10.229409],[-63.739913,10.201702],[-63.800954,10.127817],[-63.948812,10.082793]]]]}},{"type":"Feature","properties":{"name":"Delta Amacuro","country_code":"ve","country_es":"Venezuela"},"geometry":{"type":"MultiPolygon","coordinates":[[[[-61.390477,8.58084],[-61.31587,8.570449],[-61.276532,8.450386],[-61.33893,8.509263],[-61.432528,8.513881],[-61.53969,8.565832],[-61.390477,8.58084]]],[[[-60.99167,8.576222],[-61.04186,8.518499],[-61.125962,8.506954],[-61.269749,8.513881],[-61.227698,8.571604],[-61.13817,8.560059],[-61.098832,8.602774],[-61.022869,8.610856],[-60.99167,8.576222]]],[[[-60.678321,8.693977],[-60.611853,8.683587],[-60.618636,8.636254],[-60.808544,8.63279],[-60.761067,8.717066],[-60.675608,8.763244],[-60.678321,8.693977]]],[[[-60.728511,8.87869],[-60.685104,8.788643],[-60.769206,8.74131],[-60.846525,8.637408],[-61.093406,8.63279],[-61.176152,8.603929],[-61.166656,8.698595],[-61.125962,8.756318],[-60.997096,8.822122],[-60.883151,8.840593],[-60.861447,8.870609],[-60.728511,8.87869]]],[[[-61.067633,8.827894],[-61.016086,8.879845],[-60.933341,9.019535],[-60.838387,9.001063],[-60.86416,8.941031],[-60.933341,8.884463],[-61.067633,8.827894]]],[[[-60.856021,9.069176],[-60.942836,9.025307],[-61.097476,8.900625],[-61.068989,8.979129],[-61.002522,9.001063],[-60.946906,9.066868],[-60.851951,9.096884],[-60.856021,9.069176]]],[[[-60.861447,9.1269],[-60.961827,9.069176],[-60.93741,9.164997],[-60.853308,9.193858],[-60.861447,9.1269]]],[[[-60.728511,9.192704],[-60.797692,9.171923],[-60.845169,9.116509],[-60.828891,9.186931],[-60.756997,9.230801],[-60.728511,9.192704]]],[[[-60.268662,7.921643],[-60.539959,7.917025],[-60.601001,7.890472],[-60.796335,7.756555],[-60.940123,7.920488],[-61.024225,7.940114],[-61.24262,7.838521],[-61.31994,7.821205],[-61.394546,7.876619],[-61.610228,8.119055],[-61.638714,8.186014],[-61.634645,8.287607],[-62.24642,8.313005],[-62.312888,8.330322],[-62.59775,8.448077],[-62.50144,8.519653],[-62.436328,8.513881],[-62.310175,8.593539],[-62.239638,8.598157],[-62.186735,8.67666],[-62.087711,8.725147],[-62.007678,8.894853],[-62.084998,8.944495],[-62.052443,9.046087],[-62.132475,9.058786],[-62.151466,9.096884],[-62.201656,9.071485],[-62.270837,9.132672],[-62.322384,9.14768],[-62.304749,9.197322],[-62.319671,9.357792],[-62.386138,9.416669],[-62.395634,9.481319],[-62.44718,9.526343],[-62.325096,9.719138],[-62.270837,9.766471],[-62.242351,9.842665],[-62.257272,9.974274],[-62.178596,9.846128],[-62.181309,9.648716],[-62.154179,9.726065],[-62.159605,9.849592],[-62.194874,9.932713],[-62.236925,9.967347],[-62.19623,10.019298],[-62.025313,9.956957],[-61.831335,9.791869],[-61.789284,9.83112],[-61.592593,9.782633],[-61.602089,9.836893],[-61.67127,9.896925],[-61.637357,9.898079],[-61.475936,9.802259],[-61.421676,9.736455],[-61.43931,9.818421],[-61.337574,9.712211],[-61.235837,9.632553],[-61.130031,9.572521],[-61.052712,9.580603],[-60.976748,9.549432],[-60.961827,9.487091],[-60.862803,9.455921],[-60.784127,9.338166],[-60.822109,9.272362],[-60.918419,9.238882],[-61.067633,9.132672],[-61.112397,9.041469],[-60.983531,9.167306],[-61.006591,9.049551],[-61.078485,8.9976],[-61.117823,8.902934],[-61.127318,8.814041],[-61.180221,8.736692],[-61.210064,8.609701],[-61.277888,8.588921],[-61.348426,8.609701],[-61.523413,8.595848],[-61.604802,8.631636],[-61.652279,8.586612],[-61.536977,8.52658],[-61.500352,8.534661],[-61.433884,8.479247],[-61.349782,8.479247],[-61.283314,8.39728],[-61.181578,8.494255],[-60.99167,8.512726],[-60.9876,8.565832],[-60.691886,8.605083],[-60.606427,8.550824],[-60.461283,8.534661],[-60.371755,8.635099],[-60.198125,8.623555],[-60.020425,8.55775],[-59.815595,8.287607],[-59.848151,8.227575],[-59.940392,8.207949],[-59.993295,8.168697],[-60.020425,8.060178],[-60.1303,8.029007],[-60.268662,7.921643]]]]}},{"type":"Feature","properties":{"name":"Bolívar","country_code":"ve","country_es":"Venezuela"},"geometry":{"type":"Polygon","coordinates":[[[-67.13113,6.475103],[-67.148765,6.529363],[-67.104001,6.701378],[-67.049741,6.755637],[-67.06195,6.851458],[-67.033463,6.912644],[-67.089079,7.065033],[-66.995482,7.15739],[-66.931727,7.168934],[-66.794722,7.258982],[-66.596675,7.339794],[-66.440678,7.581077],[-66.330803,7.64919],[-66.215502,7.642263],[-66.130043,7.683824],[-65.938778,7.679206],[-65.834329,7.757709],[-65.746157,7.855838],[-65.647134,7.899708],[-65.542684,7.899708],[-65.473503,7.866228],[-65.356845,7.869692],[-65.306655,7.875464],[-65.103182,7.835058],[-64.99602,7.770408],[-64.856302,7.65958],[-64.821033,7.666507],[-64.620273,7.773872],[-64.523962,7.772717],[-64.481911,7.843139],[-64.545666,7.896244],[-64.523962,7.995528],[-64.353045,8.009382],[-64.283864,8.080958],[-64.232317,8.070568],[-64.13872,7.973593],[-63.96102,7.973593],[-63.876918,8.026699],[-63.840293,8.110974],[-63.68294,8.158307],[-63.491675,8.145608],[-63.415712,8.213721],[-63.330253,8.213721],[-63.271925,8.271444],[-63.174257,8.313005],[-62.97621,8.309541],[-62.878543,8.273753],[-62.757816,8.379963],[-62.685922,8.385736],[-62.677783,8.390354],[-62.59775,8.448077],[-62.312888,8.330322],[-62.24642,8.313005],[-61.634645,8.287607],[-61.638714,8.186014],[-61.610228,8.119055],[-61.394546,7.876619],[-61.31994,7.821205],[-61.24262,7.838521],[-61.024225,7.940114],[-60.940123,7.920488],[-60.796335,7.756555],[-60.601001,7.890472],[-60.539959,7.917025],[-60.268662,7.921643],[-60.375824,7.823513],[-60.503334,7.82005],[-60.58201,7.736929],[-60.601001,7.633027],[-60.729868,7.525663],[-60.601001,7.330559],[-60.643052,7.219731],[-60.548098,7.126219],[-60.476204,7.18856],[-60.371755,7.172398],[-60.291722,7.105439],[-60.359547,7.005001],[-60.377181,6.939197],[-60.420589,6.94266],[-60.548098,6.863002],[-60.619992,6.845685],[-60.721729,6.760255],[-60.907567,6.814515],[-60.933341,6.731394],[-61.130031,6.715231],[-61.204638,6.596322],[-61.210064,6.540908],[-61.139527,6.425462],[-61.161231,6.34234],[-61.113753,6.254601],[-61.121892,6.186488],[-61.269749,6.10683],[-61.33893,5.986767],[-61.397259,5.945206],[-61.379625,5.905954],[-60.739363,5.201733],[-60.664756,5.170563],[-60.599645,4.996239],[-60.61321,4.900419],[-60.679678,4.818452],[-60.76378,4.754957],[-60.903498,4.699543],[-60.948262,4.573707],[-61.012017,4.518293],[-61.150379,4.492895],[-61.296879,4.524065],[-61.29281,4.447871],[-61.332148,4.423627],[-61.458301,4.419009],[-61.51663,4.37514],[-61.522056,4.297791],[-61.56682,4.248149],[-61.718747,4.255076],[-61.831335,4.176572],[-61.930359,4.146556],[-62.034808,4.159255],[-62.112128,4.104996],[-62.193517,4.09576],[-62.383425,4.174263],[-62.463458,4.174263],[-62.536708,4.125776],[-62.561125,4.038037],[-62.669644,4.043809],[-62.767311,4.02072],[-62.789015,3.899502],[-62.749677,3.782901],[-62.749677,3.660528],[-62.797154,3.598188],[-62.93009,3.563554],[-62.996558,3.599342],[-63.13085,3.762121],[-63.193248,3.80599],[-63.285489,3.921437],[-63.425208,3.968769],[-63.468615,3.867177],[-63.510666,3.854478],[-63.623255,3.93529],[-63.745339,3.930672],[-63.875561,3.950298],[-63.996289,3.88103],[-64.064113,3.911046],[-64.125155,4.088833],[-64.240456,4.143093],[-64.365253,4.152329],[-64.589074,4.118849],[-64.648759,4.208897],[-64.629768,4.287401],[-64.659611,4.542536],[-64.701662,4.58756],[-64.94176,4.624503],[-65.085548,4.799981],[-65.183215,4.999703],[-65.222553,5.14401],[-65.289021,5.249066],[-65.256465,5.286009],[-65.135738,5.311407],[-65.126242,5.385293],[-65.175076,5.422235],[-65.133025,5.513438],[-65.252396,5.628884],[-65.260535,5.683143],[-65.225266,5.758183],[-65.265961,5.773191],[-65.47079,5.768574],[-65.538615,5.698151],[-65.609152,5.714314],[-65.638995,5.854004],[-65.579309,6.081432],[-65.632212,6.147237],[-65.782782,6.136846],[-65.827546,6.110294],[-65.993038,5.796281],[-66.117835,5.784736],[-66.220928,5.731631],[-66.275187,5.782427],[-66.295534,5.881711],[-66.345724,5.922117],[-66.535633,5.753566],[-66.694342,5.699306],[-66.817782,5.694688],[-66.977847,5.623111],[-67.036176,5.632347],[-67.076871,5.714314],[-67.198955,5.713159],[-67.201668,5.781273],[-67.148765,5.910572],[-67.144695,5.974068],[-67.189459,6.111448],[-67.288483,6.116066],[-67.330534,6.146082],[-67.395645,6.124147],[-67.456687,6.193415],[-67.449905,6.198033],[-67.322395,6.273073],[-67.274918,6.367739],[-67.13113,6.475103]]]}},{"type":"Feature","properties":{"name":"Apure","country_code":"ve","country_es":"Venezuela"},"geometry":{"type":"Polygon","coordinates":[[[-67.13113,6.475103],[-67.170469,6.428925],[-67.274918,6.367739],[-67.322395,6.273073],[-67.449905,6.198033],[-67.573345,6.266146],[-67.730698,6.301934],[-67.839217,6.307707],[-67.924675,6.233821],[-68.01963,6.211886],[-68.145783,6.223431],[-68.304492,6.177253],[-68.449636,6.19457],[-68.583928,6.170326],[-68.635475,6.135692],[-68.828096,6.187643],[-68.893207,6.184179],[-69.060055,6.217659],[-69.245894,6.080278],[-69.311005,6.146082],[-69.443941,6.122993],[-70.096411,6.943814],[-70.157453,6.979603],[-70.320232,6.939197],[-70.461306,7.008464],[-70.520992,7.015391],[-70.577964,7.085813],[-70.640363,7.073114],[-70.704118,7.099667],[-70.903521,7.062724],[-70.96185,7.009619],[-71.064943,6.984221],[-71.136837,6.992302],[-71.184314,6.96344],[-71.276555,6.985375],[-71.283338,7.018854],[-71.621103,7.051179],[-71.774386,7.02809],[-71.832715,6.986529],[-71.994137,7.013082],[-72.080952,7.066187],[-72.152846,7.193178],[-72.165054,7.32825],[-72.205749,7.382509],[-72.395657,7.407908],[-72.319694,7.448314],[-72.189471,7.449468],[-72.068744,7.375583],[-71.965651,7.373274],[-71.874766,7.421761],[-71.84221,7.494492],[-71.748613,7.47833],[-71.716057,7.442541],[-71.640094,7.432151],[-71.471889,7.463322],[-71.248069,7.454086],[-71.18974,7.404444],[-71.018823,7.361729],[-70.946929,7.308624],[-70.873678,7.287844],[-70.795002,7.315551],[-70.666136,7.286689],[-70.548122,7.334022],[-70.45995,7.42407],[-70.369065,7.450623],[-70.298528,7.590312],[-70.134393,7.629564],[-70.086916,7.710376],[-70.013666,7.754246],[-69.948554,7.754246],[-69.878017,7.805042],[-69.734229,7.844294],[-69.576877,7.951659],[-69.441228,8.070568],[-69.331353,8.062487],[-69.211982,8.07634],[-69.054629,7.98052],[-68.970527,7.998991],[-68.94611,7.935496],[-68.82267,7.903171],[-68.730429,7.917025],[-68.650396,7.966667],[-68.460488,7.947041],[-68.385881,7.99091],[-68.257015,7.957431],[-68.053542,8.048633],[-67.954518,8.05556],[-67.885337,8.026699],[-67.604544,7.998991],[-67.544859,7.958585],[-67.538077,7.917025],[-67.337316,7.889318],[-67.226085,7.798115],[-67.140626,7.772717],[-67.056524,7.796961],[-67.014473,7.769254],[-66.931727,7.776181],[-66.764879,7.754246],[-66.55191,7.793497],[-66.527494,7.816587],[-66.477304,7.760018],[-66.360646,7.741547],[-66.330803,7.64919],[-66.440678,7.581077],[-66.596675,7.339794],[-66.794722,7.258982],[-66.931727,7.168934],[-66.995482,7.15739],[-67.089079,7.065033],[-67.033463,6.912644],[-67.06195,6.851458],[-67.049741,6.755637],[-67.104001,6.701378],[-67.148765,6.529363],[-67.13113,6.475103]]]}},{"type":"Feature","properties":{"name":"Barinas","country_code":"ve","country_es":"Venezuela"},"geometry":{"type":"Polygon","coordinates":[[[-67.544859,7.958585],[-67.604544,7.998991],[-67.885337,8.026699],[-67.954518,8.05556],[-68.053542,8.048633],[-68.257015,7.957431],[-68.385881,7.99091],[-68.460488,7.947041],[-68.650396,7.966667],[-68.730429,7.917025],[-68.82267,7.903171],[-68.94611,7.935496],[-68.970527,7.998991],[-69.054629,7.98052],[-69.211982,8.07634],[-69.331353,8.062487],[-69.441228,8.070568],[-69.576877,7.951659],[-69.734229,7.844294],[-69.878017,7.805042],[-69.948554,7.754246],[-70.013666,7.754246],[-70.086916,7.710376],[-70.134393,7.629564],[-70.298528,7.590312],[-70.369065,7.450623],[-70.45995,7.42407],[-70.548122,7.334022],[-70.666136,7.286689],[-70.795002,7.315551],[-70.873678,7.287844],[-70.946929,7.308624],[-71.018823,7.361729],[-71.18974,7.404444],[-71.248069,7.454086],[-71.471889,7.463322],[-71.640094,7.432151],[-71.716057,7.442541],[-71.748613,7.47833],[-71.84221,7.494492],[-71.843567,7.53028],[-71.667223,7.547597],[-71.334884,7.48872],[-71.49088,7.629564],[-71.484098,7.684978],[-71.462394,7.769254],[-71.241287,7.934342],[-71.090716,8.067105],[-71.01204,8.20564],[-71.078508,8.3765],[-70.971346,8.52658],[-70.976772,8.579685],[-70.910304,8.624709],[-70.83841,8.726302],[-70.767872,8.780561],[-70.732604,8.763244],[-70.695979,8.81635],[-70.577964,8.856756],[-70.534557,8.956039],[-70.426038,9.021844],[-70.271398,9.024153],[-70.18187,9.00799],[-70.00417,8.84752],[-69.819688,8.7517],[-69.705743,8.722838],[-69.622997,8.778252],[-69.60265,8.745927],[-69.467001,8.669733],[-69.286589,8.638563],[-69.175357,8.501182],[-69.161792,8.442304],[-69.111602,8.427296],[-69.12788,8.351102],[-69.072264,8.289916],[-68.985448,8.240274],[-68.947467,8.186014],[-68.841661,8.112129],[-68.829452,8.201022],[-68.781975,8.332631],[-68.678882,8.391508],[-68.602919,8.500027],[-68.573076,8.635099],[-68.422506,8.603929],[-68.147139,8.605083],[-68.056255,8.570449],[-68.035907,8.538125],[-67.972152,8.468857],[-67.943666,8.404207],[-67.850069,8.367264],[-67.862277,8.329167],[-67.774105,8.279525],[-67.771392,8.242583],[-67.677795,8.209103],[-67.544859,7.958585]]]}},{"type":"Feature","properties":{"name":"Mérida","country_code":"ve","country_es":"Venezuela"},"geometry":{"type":"Polygon","coordinates":[[[-70.534557,8.956039],[-70.577964,8.856756],[-70.695979,8.81635],[-70.732604,8.763244],[-70.767872,8.780561],[-70.83841,8.726302],[-70.910304,8.624709],[-70.976772,8.579685],[-70.971346,8.52658],[-71.078508,8.3765],[-71.01204,8.20564],[-71.090716,8.067105],[-71.241287,7.934342],[-71.462394,7.769254],[-71.484098,7.684978],[-71.531575,7.753091],[-71.505802,7.83044],[-71.519366,7.943577],[-71.508514,8.004764],[-71.588547,8.056714],[-71.721483,8.053251],[-71.79609,8.15138],[-71.8924,8.172161],[-71.885618,8.232193],[-71.811011,8.339557],[-71.830002,8.396126],[-71.777099,8.459621],[-71.777099,8.503491],[-71.823219,8.590075],[-71.945303,8.61201],[-71.848993,8.670888],[-71.806942,8.620091],[-71.721483,8.6224],[-71.674006,8.71822],[-71.610251,8.77248],[-71.226365,9.048396],[-71.187027,8.991828],[-71.147689,9.033388],[-71.147689,9.128054],[-71.218226,9.186931],[-71.151758,9.28737],[-71.058161,9.338166],[-70.972702,9.350865],[-70.917086,9.303532],[-70.88453,9.174232],[-70.853331,9.129208],[-70.731247,9.053014],[-70.694622,8.984901],[-70.579321,9.040315],[-70.534557,8.956039]]]}},{"type":"Feature","properties":{"name":"Táchira","country_code":"ve","country_es":"Venezuela"},"geometry":{"type":"Polygon","coordinates":[[[-71.484098,7.684978],[-71.49088,7.629564],[-71.334884,7.48872],[-71.667223,7.547597],[-71.843567,7.53028],[-71.84221,7.494492],[-71.874766,7.421761],[-71.965651,7.373274],[-72.068744,7.375583],[-72.189471,7.449468],[-72.319694,7.448314],[-72.395657,7.407908],[-72.451273,7.440233],[-72.481116,7.508346],[-72.463481,7.570687],[-72.482472,7.64919],[-72.451273,7.832749],[-72.487898,7.94935],[-72.430926,7.99091],[-72.407865,8.042861],[-72.349537,8.042861],[-72.334615,8.104047],[-72.395657,8.256436],[-72.387518,8.338403],[-72.414648,8.382272],[-72.345467,8.490792],[-72.257295,8.53697],[-72.226096,8.400744],[-72.173193,8.457312],[-72.048396,8.483865],[-71.945303,8.61201],[-71.823219,8.590075],[-71.777099,8.503491],[-71.777099,8.459621],[-71.830002,8.396126],[-71.811011,8.339557],[-71.885618,8.232193],[-71.8924,8.172161],[-71.79609,8.15138],[-71.721483,8.053251],[-71.588547,8.056714],[-71.508514,8.004764],[-71.519366,7.943577],[-71.505802,7.83044],[-71.531575,7.753091],[-71.484098,7.684978]]]}},{"type":"Feature","properties":{"name":"Trujillo","country_code":"ve","country_es":"Venezuela"},"geometry":{"type":"Polygon","coordinates":[[[-70.18187,9.00799],[-70.271398,9.024153],[-70.426038,9.021844],[-70.534557,8.956039],[-70.579321,9.040315],[-70.694622,8.984901],[-70.731247,9.053014],[-70.853331,9.129208],[-70.88453,9.174232],[-70.917086,9.303532],[-70.972702,9.350865],[-71.058161,9.338166],[-71.08936,9.555204],[-71.06223,9.617545],[-70.889956,9.599074],[-70.842479,9.60831],[-70.757021,9.692585],[-70.742099,9.758389],[-70.682414,9.753772],[-70.641719,9.791869],[-70.66071,9.903852],[-70.662066,9.955802],[-70.607807,10.031997],[-70.567112,10.030842],[-70.530487,9.93964],[-70.454524,9.896925],[-70.343292,9.917705],[-70.246981,9.826503],[-70.217139,9.846128],[-70.166949,9.791869],[-70.086916,9.769934],[-70.021805,9.709902],[-70.032656,9.668342],[-70.13168,9.624472],[-70.109976,9.517107],[-70.05843,9.487091],[-70.032656,9.430523],[-70.134393,9.249272],[-70.059786,9.236573],[-70.062499,9.143062],[-70.123541,9.020689],[-70.18187,9.00799]]]}},{"type":"Feature","properties":{"name":"Zulia","country_code":"ve","country_es":"Venezuela"},"geometry":{"type":"MultiPolygon","coordinates":[[[[-70.66071,9.903852],[-70.641719,9.791869],[-70.682414,9.753772],[-70.742099,9.758389],[-70.757021,9.692585],[-70.842479,9.60831],[-70.889956,9.599074],[-71.06223,9.617545],[-71.041883,9.761853],[-71.086647,9.812649],[-71.073082,9.858828],[-71.16261,9.97081],[-71.207374,9.9812],[-71.26706,10.150906],[-71.36337,10.219019],[-71.474602,10.422204],[-71.466463,10.501862],[-71.54107,10.564203],[-71.503089,10.627698],[-71.532931,10.67734],[-71.531575,10.75238],[-71.583121,10.808949],[-71.446116,10.79625],[-71.452899,10.872444],[-71.41356,10.918622],[-71.501732,10.960183],[-71.281981,10.991353],[-71.256208,10.925549],[-71.08936,10.767388],[-71.079865,10.639243],[-71.021536,10.52726],[-70.952355,10.457993],[-70.902165,10.442985],[-70.778724,10.453375],[-70.736673,10.344855],[-70.657997,10.304449],[-70.7109,10.194776],[-70.847905,10.10011],[-70.854688,10.043541],[-70.807211,9.983509],[-70.66071,9.903852]]],[[[-71.945303,8.61201],[-72.048396,8.483865],[-72.173193,8.457312],[-72.226096,8.400744],[-72.257295,8.53697],[-72.345467,8.490792],[-72.414648,8.382272],[-72.456699,8.404207],[-72.654746,8.617782],[-72.675093,8.651262],[-72.783612,9.059941],[-72.82702,9.141907],[-72.936895,9.099192],[-72.978947,9.149989],[-73.008789,9.295451],[-73.175637,9.190395],[-73.252957,9.16846],[-73.377754,9.163842],[-73.37911,9.214639],[-73.312642,9.275825],[-73.277374,9.362409],[-73.17835,9.522879],[-73.124091,9.560977],[-72.97759,9.838047],[-72.997937,9.900388],[-72.987085,9.999672],[-72.935539,10.17515],[-72.907053,10.45222],[-72.843298,10.559585],[-72.75377,10.675031],[-72.706293,10.811258],[-72.657459,10.885143],[-72.57607,10.95672],[-72.49875,11.120653],[-72.341398,11.162214],[-72.257295,11.166831],[-72.007702,11.625152],[-71.971077,11.660941],[-71.450186,11.796012],[-71.326745,11.850272],[-71.378292,11.757915],[-71.507158,11.709428],[-71.675362,11.68403],[-71.961581,11.591673],[-71.96972,11.512015],[-71.939877,11.381561],[-71.857132,11.217628],[-71.76896,11.105645],[-71.652302,11.040995],[-71.623816,11.001744],[-71.679432,10.989044],[-71.697066,11.025987],[-71.76896,11.015597],[-71.716057,10.957874],[-71.692997,10.83781],[-71.649589,10.770851],[-71.576339,10.72121],[-71.610251,10.638088],[-71.629242,10.454529],[-71.778455,10.341392],[-71.897826,10.139361],[-71.96972,10.105882],[-72.044327,9.92925],[-72.12436,9.826503],[-72.090447,9.754926],[-71.999563,9.654488],[-72.007702,9.575985],[-71.960225,9.518262],[-72.015841,9.520571],[-71.994137,9.459384],[-71.918174,9.500945],[-71.874766,9.444376],[-71.760821,9.364718],[-71.735048,9.30815],[-71.816437,9.23311],[-71.744543,9.237728],[-71.735048,9.164997],[-71.758108,9.119973],[-71.686214,9.06225],[-71.602112,9.041469],[-71.515297,9.048396],[-71.272486,9.134981],[-71.218226,9.186931],[-71.147689,9.128054],[-71.147689,9.033388],[-71.187027,8.991828],[-71.226365,9.048396],[-71.610251,8.77248],[-71.674006,8.71822],[-71.721483,8.6224],[-71.806942,8.620091],[-71.848993,8.670888],[-71.945303,8.61201]]]]}},{"type":"Feature","properties":{"name":"Cojedes","country_code":"ve","country_es":"Venezuela"},"geometry":{"type":"Polygon","coordinates":[[[-68.035907,8.538125],[-68.056255,8.570449],[-68.147139,8.605083],[-68.422506,8.603929],[-68.573076,8.635099],[-68.684308,8.720529],[-68.748063,8.795569],[-68.659891,8.805959],[-68.582572,8.852138],[-68.636831,8.897162],[-68.650396,8.956039],[-68.606988,9.177696],[-68.611058,9.2435],[-68.821313,9.418978],[-68.87286,9.438604],[-68.975953,9.709902],[-68.981379,9.782633],[-68.980022,9.782633],[-68.981379,9.804568],[-68.978666,9.857673],[-68.857939,9.853055],[-68.803679,9.96042],[-68.669387,9.969656],[-68.590711,10.008907],[-68.578502,9.947721],[-68.487618,9.909624],[-68.369603,9.990436],[-68.233955,10.123199],[-68.205468,10.063167],[-68.254302,10.021606],[-68.242093,9.986973],[-68.06575,9.856519],[-68.003352,9.887689],[-67.987074,9.835738],[-67.879911,9.819576],[-67.789027,9.827657],[-67.757828,9.709902],[-67.848712,9.626781],[-67.898902,9.62909],[-67.964014,9.541351],[-67.932814,9.503254],[-67.916537,9.407433],[-67.940953,9.305841],[-67.871772,9.182314],[-67.854138,9.085339],[-67.904328,8.967584],[-67.964014,8.914479],[-68.012847,8.749391],[-67.995213,8.561214],[-68.035907,8.538125]]]}},{"type":"Feature","properties":{"name":"Portuguesa","country_code":"ve","country_es":"Venezuela"},"geometry":{"type":"Polygon","coordinates":[[[-68.975953,9.709902],[-68.87286,9.438604],[-68.821313,9.418978],[-68.611058,9.2435],[-68.606988,9.177696],[-68.650396,8.956039],[-68.636831,8.897162],[-68.582572,8.852138],[-68.659891,8.805959],[-68.748063,8.795569],[-68.684308,8.720529],[-68.573076,8.635099],[-68.602919,8.500027],[-68.678882,8.391508],[-68.781975,8.332631],[-68.829452,8.201022],[-68.841661,8.112129],[-68.947467,8.186014],[-68.985448,8.240274],[-69.072264,8.289916],[-69.12788,8.351102],[-69.111602,8.427296],[-69.161792,8.442304],[-69.175357,8.501182],[-69.286589,8.638563],[-69.467001,8.669733],[-69.60265,8.745927],[-69.622997,8.778252],[-69.705743,8.722838],[-69.819688,8.7517],[-70.00417,8.84752],[-70.18187,9.00799],[-70.123541,9.020689],[-70.062499,9.143062],[-70.059786,9.236573],[-70.134393,9.249272],[-70.032656,9.430523],[-70.006883,9.497481],[-69.925494,9.573676],[-69.898364,9.552895],[-69.792558,9.562131],[-69.859026,9.461693],[-69.850887,9.412051],[-69.732873,9.431677],[-69.7071,9.395889],[-69.628423,9.425905],[-69.62571,9.567903],[-69.591798,9.6187],[-69.430376,9.631399],[-69.377473,9.657951],[-69.336779,9.76878],[-69.270311,9.841511],[-69.267598,9.737609],[-69.211982,9.689122],[-69.066838,9.709902],[-68.981379,9.782633],[-68.980022,9.782633],[-68.975953,9.709902]]]}},{"type":"Feature","properties":{"name":"Carabobo","country_code":"ve","country_es":"Venezuela"},"geometry":{"type":"Polygon","coordinates":[[[-67.789027,9.827657],[-67.879911,9.819576],[-67.987074,9.835738],[-68.003352,9.887689],[-68.06575,9.856519],[-68.242093,9.986973],[-68.254302,10.021606],[-68.205468,10.063167],[-68.233955,10.123199],[-68.369603,9.990436],[-68.413011,10.067785],[-68.419793,10.187849],[-68.361464,10.26058],[-68.39402,10.358709],[-68.388594,10.492626],[-68.353325,10.552658],[-68.309918,10.539959],[-68.251589,10.595373],[-68.209538,10.53765],[-68.129505,10.488009],[-68.006065,10.488009],[-67.870416,10.461456],[-67.874485,10.379489],[-67.818869,10.321766],[-67.774105,10.339083],[-67.672369,10.324075],[-67.656091,10.096646],[-67.688647,10.057395],[-67.552998,9.993899],[-67.534007,9.951184],[-67.59098,9.866909],[-67.699499,9.842665],[-67.759184,9.923477],[-67.813443,9.917705],[-67.789027,9.827657]]]}},{"type":"Feature","properties":{"name":"Lara","country_code":"ve","country_es":"Venezuela"},"geometry":{"type":"Polygon","coordinates":[[[-68.978666,9.857673],[-68.981379,9.804568],[-68.980022,9.782633],[-68.981379,9.782633],[-69.066838,9.709902],[-69.211982,9.689122],[-69.267598,9.737609],[-69.270311,9.841511],[-69.336779,9.76878],[-69.377473,9.657951],[-69.430376,9.631399],[-69.591798,9.6187],[-69.62571,9.567903],[-69.628423,9.425905],[-69.7071,9.395889],[-69.732873,9.431677],[-69.850887,9.412051],[-69.859026,9.461693],[-69.792558,9.562131],[-69.898364,9.552895],[-69.925494,9.573676],[-70.006883,9.497481],[-70.032656,9.430523],[-70.05843,9.487091],[-70.109976,9.517107],[-70.13168,9.624472],[-70.032656,9.668342],[-70.021805,9.709902],[-70.086916,9.769934],[-70.166949,9.791869],[-70.217139,9.846128],[-70.246981,9.826503],[-70.343292,9.917705],[-70.454524,9.896925],[-70.530487,9.93964],[-70.567112,10.030842],[-70.607807,10.031997],[-70.662066,9.955802],[-70.66071,9.903852],[-70.807211,9.983509],[-70.854688,10.043541],[-70.847905,10.10011],[-70.7109,10.194776],[-70.657997,10.304449],[-70.535913,10.363327],[-70.492506,10.447602],[-70.413829,10.484545],[-70.329727,10.558431],[-70.246981,10.558431],[-70.157453,10.650788],[-70.047578,10.645015],[-69.970258,10.691194],[-69.810193,10.69812],[-69.665048,10.765079],[-69.537539,10.74199],[-69.506339,10.696966],[-69.426307,10.711974],[-69.084472,10.680804],[-68.92305,10.696966],[-68.886425,10.660023],[-68.901346,10.598837],[-69.031569,10.53765],[-69.068194,10.424513],[-69.026143,10.416432],[-69.013935,10.247881],[-69.118384,10.202857],[-69.161792,10.127817],[-69.220121,10.171686],[-69.226903,10.1105],[-69.14687,10.013525],[-69.140088,9.944258],[-69.102106,9.878453],[-69.072264,9.958111],[-68.978666,10.010062],[-68.925763,9.930404],[-68.978666,9.857673]]]}},{"type":"Feature","properties":{"name":"Yaracuy","country_code":"ve","country_es":"Venezuela"},"geometry":{"type":"Polygon","coordinates":[[[-68.274649,10.633471],[-68.251589,10.595373],[-68.309918,10.539959],[-68.353325,10.552658],[-68.388594,10.492626],[-68.39402,10.358709],[-68.361464,10.26058],[-68.419793,10.187849],[-68.413011,10.067785],[-68.369603,9.990436],[-68.487618,9.909624],[-68.578502,9.947721],[-68.590711,10.008907],[-68.669387,9.969656],[-68.803679,9.96042],[-68.857939,9.853055],[-68.978666,9.857673],[-68.925763,9.930404],[-68.978666,10.010062],[-69.072264,9.958111],[-69.102106,9.878453],[-69.140088,9.944258],[-69.14687,10.013525],[-69.226903,10.1105],[-69.220121,10.171686],[-69.161792,10.127817],[-69.118384,10.202857],[-69.013935,10.247881],[-69.026143,10.416432],[-69.068194,10.424513],[-69.031569,10.53765],[-68.901346,10.598837],[-68.886425,10.660023],[-68.809105,10.685421],[-68.776549,10.729291],[-68.634118,10.732754],[-68.592067,10.678495],[-68.518817,10.638088],[-68.274649,10.633471]]]}},{"type":"Feature","properties":{"name":"Falcón","country_code":"ve","country_es":"Venezuela"},"geometry":{"type":"Polygon","coordinates":[[[-68.886425,10.660023],[-68.92305,10.696966],[-69.084472,10.680804],[-69.426307,10.711974],[-69.506339,10.696966],[-69.537539,10.74199],[-69.665048,10.765079],[-69.810193,10.69812],[-69.970258,10.691194],[-70.047578,10.645015],[-70.157453,10.650788],[-70.246981,10.558431],[-70.329727,10.558431],[-70.413829,10.484545],[-70.492506,10.447602],[-70.535913,10.363327],[-70.657997,10.304449],[-70.736673,10.344855],[-70.778724,10.453375],[-70.902165,10.442985],[-70.952355,10.457993],[-71.021536,10.52726],[-71.079865,10.639243],[-71.08936,10.767388],[-71.256208,10.925549],[-71.281981,10.991353],[-71.06223,11.090637],[-70.869609,11.196847],[-70.685127,11.247644],[-70.514209,11.253416],[-70.51014,11.285741],[-70.434177,11.28805],[-70.287676,11.357317],[-70.180514,11.375789],[-70.145245,11.428894],[-70.036726,11.440439],[-70.053004,11.506243],[-70.161523,11.568584],[-69.975684,11.502779],[-69.945841,11.518942],[-69.814262,11.426585],[-69.746438,11.480845],[-69.815619,11.69442],[-69.949911,11.656323],[-70.040795,11.648242],[-70.18594,11.603218],[-70.229347,11.627461],[-70.206287,11.762533],[-70.240199,11.761379],[-70.301241,11.858353],[-70.253764,12.007279],[-70.20493,12.112335],[-70.126254,12.128497],[-70.017735,12.198919],[-69.925494,12.159668],[-69.834609,12.01536],[-69.808836,11.804094],[-69.747794,11.632079],[-69.700317,11.539722],[-69.622997,11.468146],[-69.500913,11.508552],[-69.376117,11.494698],[-69.270311,11.535104],[-69.184852,11.515479],[-69.061412,11.453138],[-68.863365,11.453138],[-68.719577,11.361935],[-68.655822,11.348082],[-68.483548,11.207238],[-68.389951,11.179531],[-68.388594,11.128734],[-68.288214,10.953256],[-68.376386,10.918622],[-68.262441,10.903614],[-68.26651,10.85859],[-68.326196,10.849355],[-68.318057,10.745453],[-68.274649,10.633471],[-68.518817,10.638088],[-68.592067,10.678495],[-68.634118,10.732754],[-68.776549,10.729291],[-68.809105,10.685421],[-68.886425,10.660023]]]}},{"type":"Feature","properties":{"name":"Amazonas","country_code":"ve","country_es":"Venezuela"},"geometry":{"type":"Polygon","coordinates":[[[-64.648759,4.208897],[-64.700305,4.264311],[-64.79119,4.283937],[-64.800686,4.188117],[-64.726079,4.140784],[-64.66368,3.996476],[-64.530745,3.853323],[-64.434434,3.778283],[-64.323202,3.724024],[-64.202475,3.594724],[-64.197049,3.515066],[-64.245882,3.418092],[-64.21604,3.251849],[-64.222822,3.123704],[-64.106164,2.948226],[-63.997645,2.705789],[-64.012566,2.604197],[-64.058687,2.510686],[-64.049192,2.471434],[-63.830797,2.427564],[-63.703287,2.437955],[-63.384513,2.420638],[-63.361453,2.399857],[-63.372305,2.267094],[-63.411643,2.149339],[-63.617829,2.102007],[-63.761616,1.985406],[-63.994932,1.958853],[-64.054618,1.894204],[-64.080391,1.648304],[-64.130581,1.577881],[-64.301498,1.447427],[-64.353045,1.366615],[-64.395096,1.392013],[-64.363897,1.497069],[-64.408661,1.507459],[-64.551092,1.41972],[-64.603995,1.331981],[-64.730148,1.247706],[-64.840024,1.270795],[-64.955325,1.206145],[-65.023149,1.139186],[-65.137094,1.127642],[-65.179145,0.955627],[-65.203562,0.924457],[-65.327003,0.910603],[-65.389401,0.835563],[-65.451799,0.690101],[-65.560318,0.655467],[-65.587448,0.738589],[-65.516911,0.862116],[-65.583379,0.978716],[-65.746157,0.974099],[-65.87231,0.908294],[-65.974047,0.806702],[-66.155816,0.732816],[-66.208719,0.762832],[-66.284682,0.745515],[-66.406766,0.802084],[-66.874754,1.222308],[-66.882893,1.326209],[-66.931727,1.424338],[-66.933083,1.501687],[-66.977847,1.599816],[-66.98056,1.66562],[-67.067376,1.894204],[-67.1352,2.003877],[-67.121635,2.118169],[-67.169112,2.141258],[-67.217946,2.284411],[-67.174538,2.337517],[-67.197598,2.402166],[-67.325108,2.474897],[-67.485174,2.66192],[-67.576058,2.690781],[-67.626248,2.813154],[-67.690003,2.806228],[-67.751045,2.842016],[-67.855495,2.790065],[-67.839217,2.885885],[-67.452618,3.243768],[-67.395645,3.266857],[-67.30883,3.383458],[-67.303404,3.425018],[-67.405141,3.503522],[-67.471609,3.680154],[-67.53672,3.735568],[-67.631674,3.760966],[-67.692716,3.928363],[-67.740193,4.118849],[-67.786314,4.173109],[-67.803948,4.268929],[-67.782244,4.339351],[-67.829721,4.49174],[-67.86499,4.511366],[-67.813443,4.840387],[-67.827008,4.871558],[-67.793096,5.063198],[-67.824295,5.110531],[-67.813443,5.186725],[-67.843286,5.296399],[-67.810731,5.37952],[-67.646596,5.483422],[-67.61404,5.553844],[-67.649309,5.655436],[-67.64117,5.74433],[-67.600475,5.820524],[-67.485174,5.944052],[-67.434984,5.968295],[-67.428201,6.038717],[-67.4906,6.114912],[-67.456687,6.193415],[-67.395645,6.124147],[-67.330534,6.146082],[-67.288483,6.116066],[-67.189459,6.111448],[-67.144695,5.974068],[-67.148765,5.910572],[-67.201668,5.781273],[-67.198955,5.713159],[-67.076871,5.714314],[-67.036176,5.632347],[-66.977847,5.623111],[-66.817782,5.694688],[-66.694342,5.699306],[-66.535633,5.753566],[-66.345724,5.922117],[-66.295534,5.881711],[-66.275187,5.782427],[-66.220928,5.731631],[-66.117835,5.784736],[-65.993038,5.796281],[-65.827546,6.110294],[-65.782782,6.136846],[-65.632212,6.147237],[-65.579309,6.081432],[-65.638995,5.854004],[-65.609152,5.714314],[-65.538615,5.698151],[-65.47079,5.768574],[-65.265961,5.773191],[-65.225266,5.758183],[-65.260535,5.683143],[-65.252396,5.628884],[-65.133025,5.513438],[-65.175076,5.422235],[-65.126242,5.385293],[-65.135738,5.311407],[-65.256465,5.286009],[-65.289021,5.249066],[-65.222553,5.14401],[-65.183215,4.999703],[-65.085548,4.799981],[-64.94176,4.624503],[-64.701662,4.58756],[-64.659611,4.542536],[-64.629768,4.287401],[-64.648759,4.208897]]]}},{"type":"Feature","properties":{"name":"Anzoátegui","country_code":"ve","country_es":"Venezuela"},"geometry":{"type":"Polygon","coordinates":[[[-65.426026,10.143979],[-65.16965,10.096646],[-65.080122,10.05624],[-64.963464,10.096646],[-64.81425,10.085102],[-64.747783,10.107037],[-64.716583,10.2271],[-64.536171,10.252499],[-64.456138,10.199393],[-64.43579,10.146288],[-64.347619,10.095492],[-64.247239,10.071248],[-64.153641,10.078175],[-64.045122,10.127817],[-63.948812,10.082793],[-64.060044,10.044696],[-64.042409,9.940794],[-63.925751,9.87499],[-63.965089,9.76878],[-63.943386,9.702975],[-63.845719,9.550587],[-63.966446,9.416669],[-63.973228,9.323158],[-63.920325,9.26428],[-63.908117,9.210021],[-63.772468,9.236573],[-63.627324,9.163842],[-63.474041,9.033388],[-63.417069,9.00799],[-63.370948,8.917942],[-63.339749,8.808268],[-63.269212,8.774789],[-62.974854,8.794415],[-63.056243,8.703212],[-63.041322,8.595848],[-62.988419,8.551978],[-62.742895,8.473475],[-62.749677,8.437687],[-62.685922,8.385736],[-62.757816,8.379963],[-62.878543,8.273753],[-62.97621,8.309541],[-63.174257,8.313005],[-63.271925,8.271444],[-63.330253,8.213721],[-63.415712,8.213721],[-63.491675,8.145608],[-63.68294,8.158307],[-63.840293,8.110974],[-63.876918,8.026699],[-63.96102,7.973593],[-64.13872,7.973593],[-64.232317,8.070568],[-64.283864,8.080958],[-64.353045,8.009382],[-64.523962,7.995528],[-64.545666,7.896244],[-64.481911,7.843139],[-64.523962,7.772717],[-64.620273,7.773872],[-64.821033,7.666507],[-64.856302,7.65958],[-64.99602,7.770408],[-65.103182,7.835058],[-65.306655,7.875464],[-65.356845,7.869692],[-65.411105,7.92626],[-65.492494,7.944732],[-65.480286,8.023235],[-65.394827,8.113283],[-65.366341,8.18486],[-65.207632,8.368419],[-65.150659,8.556596],[-65.165581,8.689359],[-65.137094,8.739001],[-65.071983,8.756318],[-65.008228,8.739001],[-64.86444,8.74131],[-64.84545,8.829049],[-64.789834,8.877536],[-64.886144,8.981437],[-64.932265,8.999909],[-64.96482,9.098038],[-65.085548,9.175387],[-65.165581,9.17885],[-65.264604,9.289678],[-65.268674,9.39358],[-65.203562,9.444376],[-65.218484,9.506717],[-65.332428,9.536733],[-65.386688,9.571367],[-65.431452,9.64987],[-65.488425,9.569058],[-65.694611,9.679886],[-65.664768,9.773397],[-65.697324,9.83112],[-65.697324,9.953493],[-65.561675,10.006599],[-65.449086,10.080484],[-65.426026,10.143979]]]}},{"type":"Feature","properties":{"name":"Aragua","country_code":"ve","country_es":"Venezuela"},"geometry":{"type":"Polygon","coordinates":[[[-67.534007,9.951184],[-67.552998,9.993899],[-67.688647,10.057395],[-67.656091,10.096646],[-67.672369,10.324075],[-67.774105,10.339083],[-67.818869,10.321766],[-67.874485,10.379489],[-67.870416,10.461456],[-67.778175,10.49609],[-67.561137,10.528415],[-67.391576,10.543423],[-67.405141,10.515716],[-67.340029,10.395652],[-67.288483,10.427977],[-67.219302,10.416432],[-67.174538,10.355246],[-67.186746,10.312531],[-67.10807,10.265198],[-67.133843,10.162451],[-67.118922,10.111654],[-67.041602,10.053931],[-66.994125,10.075866],[-66.93037,10.013525],[-66.821851,10.01468],[-66.612952,9.966192],[-66.585823,9.825348],[-66.622448,9.754926],[-66.611596,9.697203],[-66.543772,9.611773],[-66.576327,9.513644],[-66.576327,9.409742],[-66.680777,9.392425],[-66.881537,9.460539],[-67.000908,9.459384],[-66.98056,9.509026],[-66.886963,9.545969],[-66.85712,9.599074],[-66.859833,9.671805],[-66.948005,9.691431],[-66.985986,9.750308],[-67.101288,9.79995],[-67.18132,9.920014],[-67.340029,9.926941],[-67.428201,9.986973],[-67.534007,9.951184]]]}},{"type":"Feature","properties":{"name":"Vargas","country_code":"ve","country_es":"Venezuela"},"geometry":{"type":"Polygon","coordinates":[[[-67.219302,10.416432],[-67.288483,10.427977],[-67.340029,10.395652],[-67.405141,10.515716],[-67.391576,10.543423],[-67.169112,10.556122],[-67.01176,10.611536],[-66.885606,10.609227],[-66.541059,10.632316],[-66.333516,10.610381],[-66.313169,10.630007],[-66.325377,10.530724],[-66.467808,10.538805],[-66.526137,10.557276],[-66.608883,10.545732],[-66.873398,10.546886],[-67.004977,10.574593],[-67.052454,10.478773],[-67.152834,10.440676],[-67.219302,10.416432]]]}},{"type":"Feature","properties":{"name":"Distrito Capital","country_code":"ve","country_es":"Venezuela"},"geometry":{"type":"Polygon","coordinates":[[[-67.152834,10.440676],[-67.052454,10.478773],[-67.004977,10.574593],[-66.873398,10.546886],[-66.853051,10.515716],[-66.897815,10.415278],[-67.051098,10.394497],[-67.152834,10.440676]]]}},{"type":"Feature","properties":{"name":"Guárico","country_code":"ve","country_es":"Venezuela"},"geometry":{"type":"Polygon","coordinates":[[[-65.697324,9.953493],[-65.697324,9.83112],[-65.664768,9.773397],[-65.694611,9.679886],[-65.488425,9.569058],[-65.431452,9.64987],[-65.386688,9.571367],[-65.332428,9.536733],[-65.218484,9.506717],[-65.203562,9.444376],[-65.268674,9.39358],[-65.264604,9.289678],[-65.165581,9.17885],[-65.085548,9.175387],[-64.96482,9.098038],[-64.932265,8.999909],[-64.886144,8.981437],[-64.789834,8.877536],[-64.84545,8.829049],[-64.86444,8.74131],[-65.008228,8.739001],[-65.071983,8.756318],[-65.137094,8.739001],[-65.165581,8.689359],[-65.150659,8.556596],[-65.207632,8.368419],[-65.366341,8.18486],[-65.394827,8.113283],[-65.480286,8.023235],[-65.492494,7.944732],[-65.411105,7.92626],[-65.356845,7.869692],[-65.473503,7.866228],[-65.542684,7.899708],[-65.647134,7.899708],[-65.746157,7.855838],[-65.834329,7.757709],[-65.938778,7.679206],[-66.130043,7.683824],[-66.215502,7.642263],[-66.330803,7.64919],[-66.360646,7.741547],[-66.477304,7.760018],[-66.527494,7.816587],[-66.55191,7.793497],[-66.764879,7.754246],[-66.931727,7.776181],[-67.014473,7.769254],[-67.056524,7.796961],[-67.140626,7.772717],[-67.226085,7.798115],[-67.337316,7.889318],[-67.538077,7.917025],[-67.544859,7.958585],[-67.677795,8.209103],[-67.771392,8.242583],[-67.774105,8.279525],[-67.862277,8.329167],[-67.850069,8.367264],[-67.943666,8.404207],[-67.972152,8.468857],[-68.035907,8.538125],[-67.995213,8.561214],[-68.012847,8.749391],[-67.964014,8.914479],[-67.904328,8.967584],[-67.854138,9.085339],[-67.871772,9.182314],[-67.940953,9.305841],[-67.916537,9.407433],[-67.932814,9.503254],[-67.964014,9.541351],[-67.898902,9.62909],[-67.848712,9.626781],[-67.757828,9.709902],[-67.789027,9.827657],[-67.813443,9.917705],[-67.759184,9.923477],[-67.699499,9.842665],[-67.59098,9.866909],[-67.534007,9.951184],[-67.428201,9.986973],[-67.340029,9.926941],[-67.18132,9.920014],[-67.101288,9.79995],[-66.985986,9.750308],[-66.948005,9.691431],[-66.859833,9.671805],[-66.85712,9.599074],[-66.886963,9.545969],[-66.98056,9.509026],[-67.000908,9.459384],[-66.881537,9.460539],[-66.680777,9.392425],[-66.576327,9.409742],[-66.576327,9.513644],[-66.543772,9.611773],[-66.611596,9.697203],[-66.622448,9.754926],[-66.585823,9.825348],[-66.612952,9.966192],[-66.450174,9.982355],[-66.383706,10.019298],[-66.191085,9.948875],[-66.132756,9.966192],[-65.971334,9.928095],[-65.869597,9.955802],[-65.79906,9.93964],[-65.697324,9.953493]]]}},{"type":"Feature","properties":{"name":"Miranda","country_code":"ve","country_es":"Venezuela"},"geometry":{"type":"Polygon","coordinates":[[[-65.697324,9.953493],[-65.79906,9.93964],[-65.869597,9.955802],[-65.971334,9.928095],[-66.132756,9.966192],[-66.191085,9.948875],[-66.383706,10.019298],[-66.450174,9.982355],[-66.612952,9.966192],[-66.821851,10.01468],[-66.93037,10.013525],[-66.994125,10.075866],[-67.041602,10.053931],[-67.118922,10.111654],[-67.133843,10.162451],[-67.10807,10.265198],[-67.186746,10.312531],[-67.174538,10.355246],[-67.219302,10.416432],[-67.152834,10.440676],[-67.051098,10.394497],[-66.897815,10.415278],[-66.853051,10.515716],[-66.873398,10.546886],[-66.608883,10.545732],[-66.526137,10.557276],[-66.467808,10.538805],[-66.325377,10.530724],[-66.313169,10.630007],[-66.25077,10.648479],[-66.10427,10.583829],[-66.047297,10.575748],[-66.121904,10.543423],[-66.117835,10.498399],[-65.969977,10.378335],[-65.896727,10.288287],[-65.827546,10.235182],[-65.717671,10.220174],[-65.846537,10.28136],[-65.868241,10.310222],[-65.579309,10.18554],[-65.426026,10.143979],[-65.449086,10.080484],[-65.561675,10.006599],[-65.697324,9.953493]]]}},{"type":"Feature","properties":{"name":"Monagas","country_code":"ve","country_es":"Venezuela"},"geometry":{"type":"Polygon","coordinates":[[[-63.012835,10.096646],[-62.923307,10.082793],[-62.776807,10.018143],[-62.784946,10.068939],[-62.717121,10.048159],[-62.618098,10.090874],[-62.626237,10.197085],[-62.60182,10.230564],[-62.494657,10.152061],[-62.426833,9.967347],[-62.441754,9.932713],[-62.376643,9.884226],[-62.318314,9.76878],[-62.325096,9.719138],[-62.44718,9.526343],[-62.395634,9.481319],[-62.386138,9.416669],[-62.319671,9.357792],[-62.304749,9.197322],[-62.322384,9.14768],[-62.270837,9.132672],[-62.201656,9.071485],[-62.151466,9.096884],[-62.132475,9.058786],[-62.052443,9.046087],[-62.084998,8.944495],[-62.007678,8.894853],[-62.087711,8.725147],[-62.186735,8.67666],[-62.239638,8.598157],[-62.310175,8.593539],[-62.436328,8.513881],[-62.50144,8.519653],[-62.59775,8.448077],[-62.677783,8.390354],[-62.685922,8.385736],[-62.749677,8.437687],[-62.742895,8.473475],[-62.988419,8.551978],[-63.041322,8.595848],[-63.056243,8.703212],[-62.974854,8.794415],[-63.269212,8.774789],[-63.339749,8.808268],[-63.370948,8.917942],[-63.417069,9.00799],[-63.474041,9.033388],[-63.627324,9.163842],[-63.772468,9.236573],[-63.908117,9.210021],[-63.920325,9.26428],[-63.973228,9.323158],[-63.966446,9.416669],[-63.845719,9.550587],[-63.943386,9.702975],[-63.965089,9.76878],[-63.925751,9.87499],[-64.042409,9.940794],[-64.060044,10.044696],[-63.948812,10.082793],[-63.800954,10.127817],[-63.739913,10.201702],[-63.55543,10.229409],[-63.476754,10.312531],[-63.40486,10.261734],[-63.18104,10.170532],[-63.113216,10.217865],[-63.063025,10.187849],[-63.012835,10.096646]]]}}]}